"name","street","zip","city","openingHours","phone","fax","mail","web","facebook","speakerPrivate","speakerPublic","spokenLanguages","description","category_hor","category","subCategory","lat","lon"
"Willkommen in Bautzen e.V.",,"02625","Bautzen",,,,"info@willkommeninbautzen.de","www.willkommeninbautzen.de","https://de-de.facebook.com/willkommeninbautzen/","Andreas von Geibler (Vorstandsvorsitzender), Karl-Heinz Biesold (Vorstandmitglied), Elisabeth Hauswald (Vorstandsmitglied),Katrin Heimbürger(Vorstandsmitglied), Astrid Riechmann (Schatzmeisterin)","Andreas von Geibler",,"Der Verein WILLKOMMEN IN BAUTZEN e.V. wurde im Juni 2015 von engagierten Bautzener Bürgern aus dem Bündnis Bautzen bleibt Bunt heraus gegründet. Der Verein hat sich zum Ziel gesetzt, in Bautzen und Umgebung die ehrenamtliche Arbeit  für die in Bautzen lebenden Flüchtlinge durch eine transparente Verwaltung von Spenden und Preisgeldern, die Finanzierung von Projekten und Öffentlichkeitsarbeit zu unterstützen. Der Verein fördert alle Aktivitäten, die der Integration von Flüchtlingen in die Bautzener Gemeinschaft und der Toleranz gegenüber fremden Kulturen dienlich sind. Genauso werden Projekte gefördert, die sich gegen Fremdenfeindlichkeit und Rassismus richten. Der Verein ist gemeinnützig tätig, überparteilich, konfessionslos und nicht kommerziell.
","Allgemeines (Unterpunkt: Vereine und Initiativen)","010cfae4-7506-425b-ba37-80e8d83427f0",,"51.181587","14.423001"
"Bautzen bleibt bunt - Bürgerbündnis für Gastfreundschaft, Menschlichkeit und Toleranz","Steinstr. 37","02625","Bautzen","Kontaktbüro: Donnerstag 15-17 Uhr, Steinhaus 1.Etage","Bündnis: 03591/531 8076  Kontaktbüro: 0171/9792 101",,"info@bautzenbleibtbunt.de","http://www.bautzenbleibtbunt.de","https://www.facebook.com/bautzen.bleibt.bunt/","Hauptanprechpartnerin: Manja Gruhn, Kontaktbüro: Anne-Marie Russew","Hauptanprechpartnerin: Manja Gruhn, Kontaktbüro: Anne-Marie Russew","Deutsch, Englisch,???","Das Bündnis Bautzen bleibt bunt setzt sich für eine Willkommenskultur Asylsuchender und Ausländer in Bautzen ein, zeigt Flagge für ein friedvolles Miteinander von Bürgern und Asylsuchenden und bezieht Stellung gegen rassistische, unmenschliche Äußerungen und Vorurteile. Mit dieser Gemeinschaft möchte gezeigt werden, dass Bautzen gastfreundlich, tolerant und weltoffen den Menschen gegenüber ist, die aufgrund von Notsituationen eine Bleibe in Deutschland suchen und hierbei auch in Bautzen untergebracht werden. Das Bündnis möchte damit ein Zeichen setzen gegen menschenfeindliche Vorurteile und Vorverurteilungen und eine positive Willkommenskultur schaffen.  Bautzen bleibt bunt – Budyšin wostanje pisany” steht für Weltoffenheit, Menschlichkeit und Toleranz! Es ist überparteilich, überkonfessionell, nichtkommerziell. ","Allgemeines (Unterpunkt: Vereine und Initiativen)","010cfae4-7506-425b-ba37-80e8d83427f0",,"51.181205","14.431904"
"Partnerschaften für Demokratie, Netzwerk für Kinder- und Jugendarbeit"," Lutherstraße 13","01877","Bischofswerda","Nach Terminvereinbarung","03594/704730","03594/707462","friederike.beese@kijunetzwerk.de","lap-bautzen.de",,"Friederike Beese, Bernadette Zeller","Friederike Beese","Deutsch / Englisch / Sorbisch","Koordinierungs- und Fachstelle im Rahmen des Bundesprogrammes Demokratie leben!. Förderung demokratischer Strukturen im ländlichen Raum durch Fördermittelvergabe, Antragsberatung und Jugendbeteiligungsprojekte. Zuständig für den Landkreis Bautzen.","Allgemeines (Unterpunkt: kirchliche/ freie Träger)","010cfae4-7506-425b-ba37-80e8d83427f0",,"51.12763","14.1743"
"Steinhaus e.V.","Steinstr. 37","02625","Bautzen","Offene Kinder- und Jugendarbeit: tägl. 14-19 Uhr  Ansonsten im Rahmen der Kursangebot und Veranstaltungen, Termine nach Absprache wochentags von 9-18 Uhr","03591/5319966","03591/5319967","info@steinhaus-bautzen.de","www.steinhaus-bautzen.de","https://de-de.facebook.com/SteinhausBautzen/","Geschäftsführer: Torsten Wiegel, Kulturelle Jugendbildung / Kids&Heroes: Reno Rössel,  Offene Kinder- und Jugendarbeit: Uwe Reschwamm, Kultur & Veranstaltungen: Alexander Noack",,"Deutsch & Englisch","Der Steinhaus e.V. ist ein gemeinnütziger Verein in der Funktion eines Soziokulturellen Zentrums und ist als ein solches Zentrum Mitglied im Landesverband Soziokultur Sachsen e.V..Im Herzen der Spreestadt ist das Steinhaus ein Ort der Begegnung und Kommunikation, des bürgerschaftlichen Engagements, des künstlerischen Austauschs und der kulturellen Produktion - für alle Generationen und sozialen Schichten. Es will Freiräume für interessenbezogene Freizeitgestaltung junger wie älterer Menschen schaffen sowie Orientierung und Hilfestellung bei der Verwirklichung individueller Lebensentwürfe bieten. Denn nicht alle Menschen verfügen über die gleichen Voraussetzungen, Chancen und Möglichkeiten, ihre Biografie erfolgreich zu gestalten","Allgemeines (Unterpunkt: kirchliche/ freie Träger)","010cfae4-7506-425b-ba37-80e8d83427f0",,"51.181205","14.431904"
"djo-Deutsche Jugend in Europa, Landesverband Sachsen e.V. Projektbüro Jugendverbandsarbeit für alle","Otto-Nagel-Str. 1","02625","Bautzen","Mo. - Mi.: 09:30 - 17:30","0351/ 84 19 04 13, 0177/ 76 444 72",,"olena.vasyuk@djo-sachsen.de","http://www.djo-sachsen.de/","https://www.facebook.com/djo.sachsen/","Olena Vasyuk","Olena Vasyuk","Deusch, Russisch, English","Wir sind ein Jugendverband für interkulturelle, internationale und politische Jugendarbeit. Mit unseren Angeboten möchten wir dazu beitragen, die eigene Kultur und die Kultur anderer kennenzulernen, um so das gegenseitige Verständnis zu fördern. Dabei unterstützen und beraten wir junge Menschen und Jugendinitiativen bei der Realisierung eigener Ideen und bieten Gestaltungsräume für deren Umsetzung. Die djo ist ein Dachverband für Jugendmigrantenorganisationen und Migranteninitiativen. Sie präsentiert die Vielfalt an Belangen und Forderungen jugendlicher MigrantInnen - gegenüber Politik und auch als Lobby für die jungen Menschen in der Öffentlichkeit.                                  Das machen wir!
- Jugendkulturarbeit z.B. Tanz-, Theater- und Musikprojekte
- interkulturelle Jugendarbeit z.B. Projekte zur Vernetzung von Migrantenorganisationen und einheimischen Gruppen
- Internationale Jugendarbeit z.B. internationale Jugendbegegnungen und Fachkräfteaustausch
- Integrationsarbeit z.B. Stärkung junger Zuwanderer durch die Förderung ihrer Initiativen
- Jugendbildung z.B. interkulturelle Jugendleiterausbildung
- politische Jugendbildung z.B. Projekte zu den Themen Antirassismus, Demokratie und Partizipation sowie zu anderen Themen, die Euch interessieren.","Allgemeines (Unterpunkt: kirchliche/ freie Träger)","010cfae4-7506-425b-ba37-80e8d83427f0",,"51.192657","14.446848"
"Internationaler Bund, IB Mitte gGmbH, Jugendmigrationsdienst Bautzen","Wilhelm-Ostwald-Str.19","02625","Bautzen","Montag 13 - 16 Uhr, Dienstag 15.30 - 17.30 Uhr, Donnerstag 8 - 16 Uhr","03591/276761","03591/276761","jmd-bautzen@internationaler-bund.de","http://www.internationaler-bund.de/angebote/standort/202850",,"Steffen Deubner","Steffen Deubner","Deutsch, englisch, russich (wenig)","Koordnierungsstelle für Integrationskurse Landkreis Bautzen: Beratung zu möglichen Kursangeboten, Antragsstellung beim Bundesamt, Zusammenstellung der Kurse, Einstufungstest, Vermittlung zum Kursträger, Betreuung währned und nach dem Kurs, Beratung und Vermittlug zu weiterführenden Angeboten            Angebote: Individuelle Integrationsförderung und -begeitung, gruppenpädagogische Angebote, Informations- und Bildungsangebote für Behörden, Netzwerkarbeit","Allgemeines (Unterpunkt: kirchliche/ freie Träger)","010cfae4-7506-425b-ba37-80e8d83427f0",,"51.19133","14.44858"
"Leuchtturm-Majak e. V.","Otto-Nagel-Str. 1","02625","Bautzen","Mo. - Fr. 12:00 - 17:00 oder nach Vereinbarung","03591/5969094",,"leuchtturm-majak@gmx.de","http://www.leuchtturm-majak.de/startseite.html ",,"Natalia Dies","Natalia Dies","deutsch, russisch, arabisch, englisch","Leuchtturm-Majak eine Migrantenselbstorganisation. Sie existiert seit 2006. Ziel: Hilfe für Menschen mit und ohne Migrationshintergrung. Tätigkeiten: Arbeit mit Kinder und Jugendliche: Freizeit, außerschulische Bildung. Seit 2012 ist der Verein der anerkannten  Träger der freien Jugendhilfe gemäß §75 SGB VIII, Arbeit mit Migranten: Beratung, Begleitung, Sprachmittlung, Schulung, Sprachtraining, Freizeit, Arbeit mit Senioren: Seniorentreffen, Alltagsbegleitung, Stützpunkt für Demenzkranke und ihren Angehörigen, Freizeit, Kulturarbeit: Freizeit, Interkulturelle Begegnungen, Feste, Kulturbeiträge ","Allgemeines (Unterpunkt: kirchliche/ freie Träger)","010cfae4-7506-425b-ba37-80e8d83427f0",,"51.192657","14.446848"
"samo.fa-Hoyerswerda, Träger: RAA Hoyerswerda /Ostsachsen e.V.","Im Industriegelände Str. B Nr. 8","02977","Hoyerswerda","Montag-Donnerstag: 08:00-17:00 Uhr, Freitag: 08:00-14:00 Uhr","03571-416072, Mobil: 01731-470330","03571/924047","paulick@raa-hoyerswerda.com","www.samofa.de, www.raa-hoyerswerda.de, www.bv-nemo.de",,"Cindy Paulick","Cindy Paulick","Deutsch, Englisch","samo.fa (Stärkung der Aktiven aus Migrantenorganisationen in der Flüchtlingsarbeit) ist ein bundesweites Modellprojekt in 30 Städten, dessen Ziel es ist, mithilfe lokaler Flüchtlingsarbeit die gleichberechtigte Teilhabe von Geflüchteten in allen Bereichen des lokalen und kommunalen Lebens zu stärken. Es wird von der Beauftragten der Bundesregierung für Migration, Flüchtlinge und Integration gefördert und wurde vom Bundesverband NEMO (Netzwerke von Migrantenorganisationen) ins Leben gerufen. Hauptziele sind: Erfahrungen, Fähigkeiten und Engagement von Menschen mit eigener Migrationsgeschichte in die lokalen Netzwerke der Arbeit mit Geflüchteten einbringen, durch die Förderung einer engen Zusammenarbeit der Aktiven mit Migrationsgeschichte dazu beitragen, deren Einsatz wirksamer zu machen (Koordinierung) und deren Potenziale zu stärken (Beratung, Qualifizierung, Erfahrungsaustausch), Migrantenorganisationen als wichtige Partner für gutes Ankommen und Teilhabe von Geflüchteten zu unterstützen und ihre Anerkennung auf gleicher Augenhöhe im lokalen und kommunalen Geschehen zu fördern. In Hoyerswerda trifft sich der samo.fa-Stammtisch regelmäßig, um Projekte zur Verbesserung der Situation Geflüchteter vorzubereiten und durchzuführen. Veranstaltungen wie Sprachcafés und Wandertage mit Schulklassen werden von Stammtischmitgliedern mit und ohne Migrationserfahrung organisiert. Für Fragen und Anregungen sind wir jederzeit dankbar und freuen uns über neue Gesichter.","Allgemeines (Unterpunkt: kirchliche/ freie Träger)","010cfae4-7506-425b-ba37-80e8d83427f0",,"51.429156","14.27763"
"Gruppe blickKONTAKT Wehrsdorf","Dresdner Str.33","02689","Sohland","/","035936/34268",,"gross.wehrsdorf@web.de",,,"Katharina und Heino Groß",,,"Freiwilligeninitiative für das Flüchtlingsheim Wehrsdorf","Allgemeines (Unterpunkt: Vereine und Initiativen)","010cfae4-7506-425b-ba37-80e8d83427f0",,"51.05435","14.37572"
"Ausländerbeauftragte Landkreis Bautzen","Bahnhofstraße 9","02625","Bautzen","Donnerstag 10 - 12 Uhr,   

Termine nach Vereinbarung sind auch außerhalb der Sprechzeit möglich.","03591 5251-87700","03591 5250-87700","auslaenderbeauftragte@lra-bautzen.de","http://www.landkreis-bautzen.de/13703.html",,"Anna Piętak-Malinowska","Anna Piętak-Malinowska","Deutsch, Polnisch, Englisch, Russisch","Ansprechpartnerin bei allen integrationspolitischen Angelegenheiten, Hilfe und Beratung bei Fragen zur Integration, Hilfe und Beratung bei Diskriminierung aufgrund der Herkunft, eigenständige Öffentlichkeitsarbeit, Mitglied im Begleitausschuss Partnerschaften für Demokratie","Allgemeines (Unterpunkt: Behörden)","010cfae4-7506-425b-ba37-80e8d83427f0","authority","51.175784","14.429462"
"RAA Hoyerswerda/ Ostsachsen e.V.","Im Industriegelände Straße B Nr.8","02977","Hoyerswerda","Nach Terminabsprache","03571-416072","03571-924047","kontakt@raa-hoyerswerda.com","www.raa-hoyerswerda.com",,"Luise Dosch","Luise Dosch","Deutsch, Englisch, Russisch","Die regionale Arbeitsstelle für Bildung, Demokratie und Lebensperspektive ist ein Verein, welcher mit vielen Aufgabenfeldern gefüllt ist. Frau Dosch im speziellen kümmert sich um die Unterstützung und Hilfeleistung der Geflüchteten und dem Ehrenamt. Sie übernimmt die Position eine zentrale Anlaufstelle, wenn es um Belange in der Geflüchtetenhilfe geht.  ","Allgemeines (Unterpunkt: kirchliche/ freie Träger)","010cfae4-7506-425b-ba37-80e8d83427f0",,"51.429156","14.27763"
"Bürgerbündnis Hoyerswerda hilft mit Herz","Dillinger Straße 1","02977","Hoyerswerda","Dienstag 14:00 – 16:00 Uhr","03571-6099905","/","BB-Hoy-hilft@t-online.de","www.hoyerswerda-hilft-mit-herz.de",,"Luise Dosch","Luise Dosch","Deutsch, Englisch, Russisch","Hoyerswerda hilft mit Herz ist eine Bürgerinitiative der Stadt, welche sich gefunden hat, um den Geflüchteten in der Stadt zu helfen. Dies äußert sich in unterschiedlichen Arbeitsfeldern. Von ehrenamtlichen Deutschunterricht und Kinderbetreuung, zu Patenschaften und Unterstützung bei der Wohnungseinrichtung. Auch Geflüchtete können zum Bündnis kommen, sollten sie Unterstützung oder Beratung benötigen. ","Allgemeines (Unterpunkt: Vereine und Initiativen)","010cfae4-7506-425b-ba37-80e8d83427f0",,"51.43362","14.2448"
"Josua Gemeinde Bautzen","Dr.-Peter-Jordan-Str. 9","02625","Bautzen","je nach Projekt, feste Angebote sind: Käller International: Mo und Mi 12 - 19 Uhr, Fahhradgarage: Mo 10 - 12, Di und Do 13.30 - 17.30, Kleiderkammer: Mo 10 - 12, Hilfe auf Ämtern: Mo bis Mi 10 - 12","03591 491653, 0177 8481819",,"info@josua-gemeinde-bautzen.de","www.josua-gemeinde-bautzen.de","https://www.facebook.com/josuagemeindebautzen/","Alf Mudrich","Alf Mudrich","Deutsch, Englisch, Arabisch, Farsi","Die Josua Gemeinde ist eine freie evangelische Gemeinde, die 1988 gegründet wurde. Seit über zwei Jahren ist sie Mitglied beim Bund Freikirchlicher Pfingstgemeinden (BFP). Deren Ziel ist es, den Menschen in der Oberlausitz die Einladung zu einer persönlichen Beziehung mit Gott auf zeitgemäße Art und Weise nahezubringen. Die Josua Gemeinde sieht sich als Mitmachkirche mit vielen ehrenamtlichen Mitarbeitern in unterschiedlichen Bereichen. Neben den Sonntags und Freitags stattfindenden Gottendiensten und Suchgottesdiensten setzt sich die Gemeinde mittels verschiedener Angebote aktiv für Flüchtlinge ein. Als Angebote sind zu nennen:  offene Jugendarbeit Kinder- und Jugendzentrum Der Käller im Keller des Gemeindezentrums, Musikschule, Fahrradwerkstatt, BuFDi-Tätigkeiten, Deutschunterricht, Kleiderkammer, Hilfe auf Ämtern, Umzugshilfe","Allgemeines (Unterpunkt: kirchliche/ freie Träger)","010cfae4-7506-425b-ba37-80e8d83427f0",,"51.17186","14.43362"
" Kreisvolkshochschule Bautzen (Regionalstellen in Bautzen, Kamenz, Radeberg)","Dr.-Peter-Jordan-Straße 21","02625","Bautzen"," Mo-Fr  9 – 12 Uhr, Mo-Mi und Fr 13 – 16 Uhr, Do 13 – 18 Uhr","03591 / 272 29-0 ","03591 / 272 29-19"," info@kvhsbautzen.de, anja.schmidt@kvhsbautzen.de","www.kvhsbautzen.de",,"Anja Schmidt (Fachbereichsleiterin Deutsch, Integration & Grundbildung)","Anja Schmidt (Fachbereichsleiterin Deutsch, Integration & Grundbildung)","Deutsch, Englisch, Spanisch, Französisch","Die Kreisvolkshochschule Bautzen bietet Angebote für verschiedene Adressaten: neben Angeboten zu Politik, Gesellschaft,Umwelt und Gesundheit lädt die VHS ein, um an kulturellen, kreativen oder sprachlichen Angeboten teil zu nehmen. Sprachangebote u.a. sind: soffene Deutschkurse A1-B2 (C1 auf Anfrage), Integrationskurse, geförderte Deutschkurse für Asylbewerber und Leistungsbezieher,  Prüfungen, Einbürgerungstest","Arbeit und Bildung","d29bbe86-ecd6-42df-8054-70a90ec7b535",,"51.17036","14.43649"
"Kreisvolkshochschule Bautzen / Regionalstelle Kamenz","Macherstr. 144a","01917","Kamenz"," Mo-Fr  9 – 12 Uhr, Mo-Mi und Fr 13 – 16 Uhr, Do 13 – 18 Uhr"," 03578 / 3096-0","03578 / 3097-55","siehe oben","www.kvhsbautzen.de",,"siehe oben",,"siehe oben","siehe oben","Arbeit und Bildung","d29bbe86-ecd6-42df-8054-70a90ec7b535",,"51.288619","14.113972"
"Stadt Hoyerswerda, Beauftragter für Asyl und Integration","Markt 1","02977","Hoyerswerda","Montag 8.30 - 12.00 Uhr, Dienstag 8.30 - 16.00 Uhr, Mittwoch nur nach Vereinbarung,  Donnerstag 8.30 - 18.00 Uhr, Freitag  8.30 - 12.00 Uhr","03571 456402","03571 45786402","kai.petschick@hoyerswerda-stadt.de","www.hoyerswerda.de",,"Kai Petschick","Kai Petschick","Deutsch, Englisch","Ansprechpartner für die Bürgerschaft, Vereine und Verbände sowie Gewerbetreibende bei Fragen zum Thema Asyl und Integration, Vernetzung von Akteuren in der Stadt und Beratung zu entsprechenden Förderungen und Programmen.","Allgemeines (Unterpunkt: Behörden)","010cfae4-7506-425b-ba37-80e8d83427f0","authority","51.43901","14.24321"
"Stadtbibliothek G. E. Lessing","Lessingplatz 3","01917","Kamenz","Montag bis Freitag 10 bis 18 Uhr, Mittwoch geschlossen","Tel.: 03578/379-288"," 03578/379-289","bibliothek@stadt.kamenz.de","https://kamenz.bibliotheca-open.de/Willkommen.aspx",,"Marion Kutter, Bibliotheksleiterin","Marion Kutter, Bibliotheksleiterin","Deutsch, Englisch","Unterstützung bei Informationsrecherchen und Literatursuche,  Bibliothekseinführungen, Schüler-Seminare, Kinderveranstaltungen, Nutzung des Internets, Anfertigen von Kopien und Ausdrucken","Arbeit und Bildung","d29bbe86-ecd6-42df-8054-70a90ec7b535",,"51.272039","14.095246"
"Stadtbibliothek Bautzen/ Hauptbibliothek","Schloßstraße 10/12","02625","Bautzen","Montag und Freitag: 10 - 19 Uhr, Dienstag und Mittwoch:  12 – 18 Uhr, Donnerstag geschlossen","03591/ 534 850","03591/ 534 817","stadtbibliothek@bautzen.de / bibliotheksservice@bautzen.de","www.stadtbibliothek-bautzen.de",,"Sabine Kempel / Karin Hahn","Sabine Kempel / Karin Hahn","Deutsch, Sorbisch","Die Stadtbibliothek Bautzen ist eine öffentliche, für jedermann zugängliche Einrichtung der Stadt Bautzen, zu der die Hauptbibliothek, die Kinder- und Jugendbibliothek sowie die Fahrbücherei gehört. Die Anmeldung erfolgt persönlich unter Vorlage des Personalausweises oder eines gleichgestellten Dokumentes mit Lichtbild und Adresse. Der dabei ausgestellte Bibliotheksausweis ist in allen 3 Einrichtungen gültig. Die Ausleihe ist kostenlos, für Sonderdienstleistungen wie Fernleihe oder Ausdrucke u.a. entstehen Gebühren.                          In der Hauptbibliothek auf der Schloßstraße können Romane, Ratgeber- und Sachliteratur, Sprachkurse u.a. zum Erlernen der deutschen Sprache, fremdsprachige Literatur, Jugendromane, CDs, DVDs, Zeitungen und Zeitschriften, sowie Regionalliteratur und Noten entliehen werden. Im Lesesaal stehen Multimedia-Arbeitsplätze einschließlich Internet zur Verfügung. Nach vorheriger Anmeldung finden Bibliothekseinführungen für Klassen ab Jahrgangsstufe 8, Gruppen und Einzelpersonen sowie Einführungen in den  Bibliothekskatalog und die Onleihe Oberlausitz (eBook-Ausleihe) statt.                                                       Mit der Ausstellung eines Bibliotheksausweises besteht die Möglichkeit die Onleihe Oberlausitz – die Ausleihe von eBooks, eAudios und eVideos zu nutzen. Weitere elektronische Angebote sind der Brockhaus – ein Lexikon mit erweiterten Optionen und Verlinkungen, sowie die Datenbanken von Munzinger – Personen (20. und 21. Jahrhundert) und Länder, Duden – Wörterbücher und Basiswissen Schule. Die Pressedatenbank Genios  - Recherche in Tageszeitungen und ausgewählten Zeitschriften- rundet das Angebot ab","Arbeit und Bildung","d29bbe86-ecd6-42df-8054-70a90ec7b535",,"51.18328","14.42196"
"Stadtbibliothek Bautzen/ Kinder- und Jugendbibliothek","Wendischer Graben 1","02625 ","Bautzen","Montag, Dienstag, Mittwoch, Freitag:  13 - 18 Uhr, Donnerstag geschlossen","03591/ 42 373",,"jugendbibliothek@bautzen.de",,,"Kristin Lehmann","Kristin Lehmann",,"In der Kinder- und Jugendbibliothek umfasst das speziell auf Kinder und Jugendliche abgestimmte Medienangebot ebenso Bücher, Comics, Mangas, Sachliteratur aller Wissensgebiete für Freizeit, Hobby und Schule, CDs, DVDs, Konsolenspiele und Zeitschriften. Vormittags können verschiedene Projekte, Buchvorstellungen und Autorenlesungen und Ferienveranstaltungen einschließlich Bibliothekseinführungen durchgeführt bzw. besucht werden.","Arbeit und Bildung","d29bbe86-ecd6-42df-8054-70a90ec7b535",,"51.18153","14.42755"
"Stadtbibliothek Bautzen/ Fahrbücherei","Preuschwitzer Str. 20","02625","Bautzen",,"03591/ 534 850",,"fahrbuecherei@bautzen.de",,,,,,"Die Fahrbücherei bedient im 14-täglichen Rhythmus Haltestellen im Stadtgebiet und im Landkreis. Der Fahrplan ist unter www.stadtbibliothek.de zu finden.","Arbeit und Bildung","d29bbe86-ecd6-42df-8054-70a90ec7b535",,"51.17211","14.42146"
"Bündnis Radeberger Land hilft e.V.","Markt 19","01454","Radeberg",,"01520 5981920",,"info@buendnis-radeberger-land-hilft.de","http://www.buendnis-radeberger-land-hilft.de/",,"Vereinsvorstand Ulrich Hensel","Vereinsvorstand Ulrich Hensel",,"Seit der Gründung im Juni 2015 unterstützt der Verein Bündnis Radeberger Land hilft  Asylbewerber und Flüchtlinge rund um Radeberg ob dezentral in Wohnungen oder in einer zentralen Unterkunft untergebracht. Das Bündnis ist ein eingetragener, gemeinnütziger Verein, der sich aus Mitgliedsbeiträgen und Spenden finanziert. Zweck des Vereins ist die Hilfe und das Engagement für Menschen in Not, insbesondere für Migrantinnen und Migranten sowie die Förderung von nachbarschaftlichen Begegnungsmöglichkeiten im Sinne eines gedeihlichen Miteinanders. Nachdem die ersten Aktionen vor allem sehr spontanes Handeln erforderten, strukturiert sich das Bündnis nun seit September 2015 in themenbezogenen Arbeitsgemeinschaften: -  Die AG Spendenkoordination kümmert sich um die Organisation, Sortierung und Verteilung von Sachspenden. - Die AG Sprache und Verständigung organisiert ehrenamtliche Sprachkurse und Begegnungen. - Die AG Gesundheit und medizinische Versorgung hilft bei Arztbesuchen und ermöglicht Sprechzeiten. - Die AG Sport organisiert die Teilnahme an sportlichen Veranstaltungen und dem Vereinsleben. - Die AG Beschäftigung hat sich zum Ziel gesetzt, für die Flüchtlinge eine sinnvolle Beschäftigung zu bieten, die Ihnen hilft, in der Eintönigkeit des Lebens in der Unterkunft etwas Abwechslung zu finden und damit ein ruhiges Zusammenleben zu fördern. Sie steht dafür mit verschiedenen Organisationen in Verbindung, die stark befristete Tätigkeiten anbieten können.  - Die AG Logistik kümmert sich um Mobilitätsunterstützung, stellte Fahrradspenden zur Verfügung und organisiert Fahrdienste. - Die AG Integration, Familie, Begegnung kümmert sich um Patenschaften und bietet regelmäßige Mutter-Kind-Nachmittage zur Begegnung an. ","Allgemeines (Unterpunkt: Vereine und Initiativen)","010cfae4-7506-425b-ba37-80e8d83427f0",,"51.11841","13.922354"
"Bündnis für Humanität und Toleranz","Pulsnitzer Straße 11","01917","Kamenz","Montags 15:00 – 16:00 Uhr","03578 / 37 92 02 (Montags, während der Sprechzeit)",,"buendniskamenz@gmx.de","http://www.buendnis-kamenz.de/",,"Sprecher Richard Boes","Sprecher Richard Boes","deutsch, sorbisch, russisch","Engagierte Bürgerinnen und Bürger, die Stadt Kamenz sowie Unternehmen der Stadt und Umgebung vereinen sich im Bündnis für Humanität und Toleranz zur Unterstützung der Asylsuchenden. Unser Anliegen  ist die Weiterentwicklung  einer Willkommenskultur und das Leben von Solidarität und Akzeptanz mit den hier ankommenden Menschen. Mit unserem Handeln wollen wir die Unterbringung, Betreuung und Unterstützung von Kriegsflüchtlingen und Asylbewerbern menschenwürdig gestalten und Barrieren überwinden helfen. Wir wenden uns gegen jede Form von Ausländerfeindlichkeit, Intoleranz und Rassismus.","Allgemeines (Unterpunkt: Vereine und Initiativen)","010cfae4-7506-425b-ba37-80e8d83427f0",,"51.270127","14.093038"
"Haselbachtal hilft - für ein Haselbachtal mit Herz und Verstand ",,"01920","Haselbachtal ",,,,"haselbachtal.hilft@gmx.de","https://haselbachtalhilft.wordpress.com/","https://de-de.facebook.com/haselbachtalhilft/",,,,"(Heim in Häslich schließt Ende Januar 2017!) Wir wollen Flüchtlingen helfen, sich in unserer Gemeinde zurechtzufinden. Außerdem möchten wir Anwohner, Gemeindeverwaltung und Flüchtlinge unterstützen, wenn es in der Gemeinde wegen der neuen Situation zu Missverständnissen kommt. Wir sind davon überzeugt, dass es auf vielfältige Weise möglich ist, ein gemeinschaftliches und gutes Zusammenleben aller Menschen im Haselbachtal zu fördern. Uns ist bewusst, dass die neue Situation sowohl die Dorfgemeinschaft als auch die Asylbewerber vor Herausforderungen stellen wird – gerade weil Häslich und seine alte Schule bei Weitem kein idealer Ort für einen erfolgreichen Start in einem neuen Land sind. Gerade deshalb ist es wichtig, die Anwohner, Flüchtlinge und Gemeindeverwaltung bei der schwierigen neuen Aufgabe zu unterstützen. Wir wollen auf Missverständnisse, Konflikte und Frustration schnell und unkompliziert reagieren, indem wir vermitteln, erklären und praktische Lösungen suchen. Perspektivlosigkeit, Angst und Hass haben im Haselbachtal nichts verloren.","Allgemeines (Unterpunkt: Vereine und Initiativen)","010cfae4-7506-425b-ba37-80e8d83427f0",,"51.240734","14.032749"
"Koordinator AWO Kreisverband Lausitz e.V., Schwerpunkt Asyl","Thomas-Müntzer-Str. 26","02977","Hoyerswerda",,"0163/6987501","03571/6027758","K.Stanulla@awo-lausitz.de","http://awo-lausitz.de/",,"Kevin Stanulla","Kevin Stanulla",,"Der Koordinator für Asyl des AWO Kreisverbands Lausitz e.V. ist verantwortlich für den Bereich Asylunterkünfte der AWO und fungiert somit als Schnittstelle zwischen Partnereinrichtungen, Landes- und Bundesverbänden, politischen Stellen und Verwaltungen.","Allgemeines (Unterpunkt: kirchliche/ freie Träger)","010cfae4-7506-425b-ba37-80e8d83427f0",,"51.45213","14.27044"
"Beauftragter für Asyl und Integration der Stadt Bischofswerda","Altmarkt 1","01877","Bischofswerda",,"03594 786-216",,"sascha.hache@bischofswerda.de","http://www.bischofswerda.de/rathaus-und-verwaltung/asyl-und-integration.html",,"Sascha Hache ","Sascha Hache ",,"Der Beauftragte für Asyl und Integration der Stadt Bischofswerda ist Schnittstelle zwischen ehrenamtlichen Initiativen der Stadt Bischofswerda, dem Jobcenter des Landratsamtes Bautzen, der Agentur für Arbeit und der Stadt Bischofswerda. ","Allgemeines (Unterpunkt: Behörden)","010cfae4-7506-425b-ba37-80e8d83427f0","authority","51.128133","14.17918"
"Begegnungscafé im Offenen Treff /  Jugendhaus Freizone","Belmsdorfer Straße 28","01877","Bischofswerda","Bürgersprechstunde und Begegnungscafé: Montags 16-18 Uhr","03594 716809",,"buergerinfo-asyl@bischofswerda.de ","http://www.bischofswerda.de/rathaus-und-verwaltung/asyl-und-integration.html",,"Martina Jordan","Martina Jordan",,"Montags zwischen 16 und 18 Uhr findet im Offenen Treff Freizone das Begegnungscafé statt, welches interessierte Menschen zum Beisammensein einlädt. Bei Fragen und Hilfsangeboten zum Thema Asyl und Integration können Interessenten in der parallel stattfindenden Bürgersprechstunde beraten werden.","Freizeit und Gemeinschaft","adfb2457-819c-4574-ace1-56f5b38d8f96",,"51.12325","14.1912"
"Caritas Verband Oberlausitz e.V.- Migrationsberatung für Erwachsene, Hilfe für Asylbewerber, Flüchtlinge und Ausländer","Kirchplatz 2","02625","Bautzen","Montag 10 - 12 Uhr und 14 - 17 Uhr, Mittwoch 14 - 16 Uhr, Freitag 9 - 12 Uhr","03591 498250","03591 498219","meb@caritas-oberlausitz.de","http://www.caritas-oberlausitz.de/migration02.htm, http://www.caritas-oberlausitz.de/2016%20Sprechzeiten%20Caritasverband.pdf",,"Andreas Rentsch (Dipl.-Sozialarbeiter FH)","Andreas Rentsch (Dipl.-Sozialarbeiter FH)",,"Sie können zu uns kommen, wenn Sie als Spätaussiedler in die Bundesrepublik Deutschland eingereist sind, 
als ausländischer Ehepartner mit einer Spätaussiedlerfamilie oder über die Familienzusammenführung in Deutschland eingereist sind, mit einem deutschen Partner leben oder verheiratet sind und einen Aufenthaltstitel für Deutschland in Ihrem ausländischen Pass haben, als ausländischer Bürger in Deutschland leben und Rat suchen, das 27. Lebensjahr vollendet haben oder Fragen haben, die nicht jugendtypisch sind.        Die Beratung ist kostenlos. Wir nehmen uns Zeit und beraten Sie: - zu allen Formalitäten und Anmeldungen am neuen Wohnort (Erstberatung), - zu den rechtlichen Gegebenheiten z. B. Zuwanderung, soziale Sicherung, - zum Leben in der Bundesrepublik Deutschland, - bei persönlichen Problemen und Schwierigkeiten, die mit der Zuwanderung entstehen, - über Möglichkeiten des Erlernens der deutschen Sprache in Sprachkursen","Beratung","df402493-f467-4472-8b98-9038d2ac967e",,"51.180624","14.42895"
"Caritas Verband Oberlausitz e.V.- Migrationserstberatung für Erwachsene, Hilfe für Asylbewerber, Flüchtlinge und Ausländer","Haydnstraße 8","01917","Kamenz","Donnerstag 15 - 17 Uhr","03578 3743 20","03578 3743 24","meb@caritas-oberlausitz.de, a.rentsch@caritas-oberlausitz.de","http://www.caritas-oberlausitz.de/migration02.htm",,"Andreas Rentsch (Dipl.-Sozialarbeiter FH)","Andreas Rentsch (Dipl.-Sozialarbeiter FH)",,"siehe oben","Beratung","df402493-f467-4472-8b98-9038d2ac967e",,"51.274334","14.096299"
"Caritas Verband Oberlausitz e.V.- Schwangerschaftsberatung, Einzel- und Paarberatung, Sexualpädagogik","Kirchplatz 2","02625","Bautzen","Montag und Donnerstag 13 - 17 Uhr, Dienstag 8 - 12 Uhr, Mittwoch 13 - 15 Uhr ","03591 498260","03591 498219","schwangerschaftsberatung@caritas-oberlausitz.de","http://www.caritas-oberlausitz.de/cs1.htm#Schwangerschaftsberatung%20Bautzen",,"Gisela Grubert und Franziska Hennig","Gisela Grubert und Franziska Hennig",,"Sexualpädagogik - Gruppenangebote für Schulen, Gemeinden, Kinder und Jugendliche sowie Eltern","Beratung","df402493-f467-4472-8b98-9038d2ac967e",,"51.180624","14.42895"
"Caritas Verband Oberlausitz e.V. - Schwangerschaftsberatung, Einzel- und Paarberatung, Sexualpädagogik","Haydnstraße 8","01917","Kamenz","Mittwoch 8 - 14 Uhr","03578 374322","03578 374324","schwangerschaftsberatung@caritas-oberlausitz.de","http://www.caritas-oberlausitz.de/cs1.htm#Schwangerschaftsberatung%20Kamenz",,"Gisela Grubert","Gisela Grubert",,,"Beratung","df402493-f467-4472-8b98-9038d2ac967e",,"51.274334","14.096299"
"Caritas Verband Oberlausitz e.V. - Sozialer Möbeldienst ","Edison-Straße 17","02625","Bautzen","Montag + Mittwoch 10 - 12 Uhr, Dienstag + Donnerstag 13 - 18 Uhr","03591 302014","03591 599584","moebeldienst@caritas-oberlausitz.de","http://www.moebeldienst-bautzen.de/",,"Thomas Zschornack","Thomas Zschornack",,"Das Angebot unseres Möbeldienstes können Sie tagesaktuell auf der Homepage ansehen. Ratenvereinbarungen sind möglich. Helfen Sie uns auch durch Ihre Möbelspende - rufen Sie an - wir vereinbaren kurzfristig einen Termin mit Ihnen und holen die Gegenstände bei Ihnen kostenlos ab.","Spenden und Angebote","744f41e9-799c-432b-a9a3-e78d471ec51a",,"51.16362","14.42515"
"Caritas Verband Oberlausitz e.V. - Soziale Beratung für Schuldner","Haydnstraße 8","01917","Kamenz","Montag 13 - 17 Uhr, Dienstag 9 - 16 Uhr,  Freitag 9 - 12 Uhr","03578 374323",,"schuldnerberatung@caritas-oberlausitz.de","http://www.caritas-oberlausitz.de/cs1.htm#Schuldner",,"Bernward Kreutzkam, Jochen Minihoffer ","Bernward Kreutzkam, Jochen Minihoffer ",,,"Beratung","df402493-f467-4472-8b98-9038d2ac967e",,"51.274334","14.096299"
"Tauschbörse für Kindersachen + Kleinhaushaltsgeräte","Haydnstraße 8","01917","Kamenz","Mittwoch 9 - 12 Uhr","03578 374321",,,,,,,,,"Spenden und Angebote","744f41e9-799c-432b-a9a3-e78d471ec51a",,"51.274334","14.096299"
"Caritas - Regionalstelle Görlitz-  Sozialberatung sowie Kontakt- und Beratungsstelle für Menschen mit psychischen Beeinträchtigungen","Ludwig-van-Beethoven-Straße 26","02977","Hoyerswerda",,"03571 979256","03571 978355","regionalstelle@caritas-hoyerswerda.de","http://www.dicvgoerlitz.caritas.de/62456.html",,"Gabriele Hanschmidt","Gabriele Hanschmidt",,,"Beratung","df402493-f467-4472-8b98-9038d2ac967e",,"51.43802","14.27085"
"Caritas Verband Oberlausitz e.V. - Kontakt- und Beratungsstelle für Menschen mit psychischen Beeinträchtigungen","Straße der Einheit 2","01917","Kamenz",,"03571 979256","03571 978355","regionalstelle@caritas-hoyerswerda.de","http://www.dicvgoerlitz.caritas.de/62456.html",,"Mandy Schimmank","Mandy Schimmank",,,"Beratung","df402493-f467-4472-8b98-9038d2ac967e",,"51.282667","14.108999"
"Caritas - Schuldnerberatung ","Heidestraße 70","01454","Radeberg ","Do 12:30 - 17:30 Uhr","03528 9462118",,,"https://www.caritas.de/adressen/caritasverband-fuer-dresden-e.-v/schuldnerberatung-radeberg/01454-radeberg/107760",,"Irene Scheithauer","Irene Scheithauer",,"Außenstelle des Caritasverbands Dresden e.V.","Beratung","df402493-f467-4472-8b98-9038d2ac967e",,"51.108867","13.903052"
"Volkssolidarität KV Bautzen e.V.- Schuldner- und Insolvenzberatungberatung","Bahnhofstraße 21","01877","Bischofswerda","Montag 09:00–18:00, Dienstag-Donnerstag 09:00–15:30, Freitag 09:00–13:00","03594 743640","03594 743645","ute.herrmann@volkssolidaritaet.de","https://volkssoli-bautzen.de/soziale%20dienste/schuldner-%20und%20verbraucherinsolvenz.html",,"Ute Herrmann","Ute Herrmann",,"Die Beratungen werden im Rahmen der persönlichen Hilfe, kostenlos und unter Einhaltung des Datenschutzes durchgeführt. - Wir analysieren mit der Gegenüberstellung der Einnahmen - Ausgaben Ihre finanzielle Situation und die Führung eines Haushaltbuches wird ermöglicht.  - Wir erarbeiten mit Ihnen und für Sie Schuldenbereinigungspläne, Ratenzahlungen und führen Vergleichsverhandlungen mit den Gläubigern.  -  Wir helfen Ihnen bei der Erstellung und beim Ausfüllen des Insolvenzantrages, wenn die außergerichtliche Schuldenregulierung mit Hilfe unserer Beratungsstelle durchgeführt wurde. - Wir sind vom Freistaat Sachsen anerkannte und geförderte Stelle (Insolvenzberatung)  und sind damit berechtigt Ihnen eine Bescheinigung über das Scheitern des Einigungsversuches (§305 Abs. 1 Nr. 1 InsO zu erteilen.

 ","Beratung","df402493-f467-4472-8b98-9038d2ac967e",,"51.12585","14.18272"
"Volkssolidarität KV Bautzen e.V.- Schuldner- und Insolvenzberatungberatung","Flinzstraße 15a","02625","Bautzen","Montag und Mittwoch 09:00 - 18:00 Uhr, Dienstag und Donnerstag  09:00 - 15:00 Uhr, Freitag 09:00 - 12:00 Uhr","03591 5980860","03591 3515959","ralf.dworatzek@volkssolidaritaet.de","https://volkssoli-bautzen.de/soziale%20dienste/schuldner-%20und%20verbraucherinsolvenz.html",,"Ralf Dworatzek","Ralf Dworatzek",,"siehe oben","Beratung","df402493-f467-4472-8b98-9038d2ac967e",,"51.18694","14.43389"
"Caritas Verband Oberlausitz e.V. - Allgemeine soziale Beratung","Kirchplatz 2","02625","Bautzen","Montag 10 - 12 Uhr und 15 - 17 Uhr, Mittwoch und Freitag 10 - 12 Uhr ","03591 498240","03591 498219","sozialberatung.bz@caritas-oberlausitz.de","http://www.caritas-oberlausitz.de/cs1.htm#AsB%20Bautzen",,"Andreas Deckwart","Andreas Deckwart",,,"Beratung","df402493-f467-4472-8b98-9038d2ac967e",,"51.180624","14.42895"
"Sozialberatung des Diakonischen Werkes Bautzen e.V. ","Bautzener Straße 37","01877","Bischofswerda","Donnerstag: 15.00 – 17.00 Uhr","03594 756143 (während der Sprechzeit) oder unter 03591  481650",,"h.kreiss@diakonie-bautzen.de","http://www.diakonie-bautzen.de/BERATUNG-UND-HILFE/Sozialarbeit-und-soziale-Beratung.html",,"Hermann Kreiß","Hermann Kreiß",,"siehe unten","Beratung","df402493-f467-4472-8b98-9038d2ac967e",,"51.130217","14.181941"
"Sozialberatung des Diakonischen Werkes Bautzen e.V. ","Karl-Liebknecht-Straße 16","02625","Bautzen","Dienstag: 9.00 Uhr – 11.00 Uhr, 14.00 Uhr – 17.00 Uhr, Donnerstag: 9.00 Uhr – 11.00 Uhr"," 03591  481650","03591 481642","h.kreiss@diakonie-bautzen.de","http://www.diakonie-bautzen.de/BERATUNG-UND-HILFE/Sozialarbeit-und-soziale-Beratung.html",,"Hermann Kreiß","Hermann Kreiß",,"In unserer Stadt bzw. unserem Landkreis gibt es eine Beratungsstelle, an die Sie sich mit Ihren Fragen und Problemen wenden können - die Allgemeine soziale Beratung bzw. Kirchenbezirkssozialarbeit der Diakonie Bautzen. Sie können hier klären, welchen Teil Ihres Problems Sie selbst bewältigen können und welchen Sie sich durch Information und Hilfe von außen abnehmen lassen können. Dafür dürfen Sie sich auch Zeit geben. Veränderung kommt selten schlagartig. U. a. dürfen sich auch Selbsthilfegruppen vertrauensvoll an uns wenden. Die fachlich kompetenten Mitarbeitenden bieten in regelmäßigen Sprechstunden und Hausbesuchen ihren Dienst kostenlos an. Kein Außenstehender wird etwas von Ihrem Anliegen erfahren, denn die Berater sind zur Verschwiegenheit verpflichtet. Die Beratung ist nicht an eine Kirchengehörigkeit gebunden. Unser Angebot: Anlaufstelle für Hilfesuchende, Hilfs- und Beratungsangebote für Einzelpersonen, Familien und Gruppen, Professionelle Beratung für Gemeindekreise, Kirchenvorstände, Mitarbeitende kirchlicher und kommunaler Dienste, Anhörung, Bearbeitung und/oder Vermittlung Ihres Anliegens, Vernetztes Hilfsangebot mit anderen sozialen Trägern, Ämtern und Behörden, Gemeinsames Erarbeiten eines Lösungskonzeptes für Ihre Probleme, Vermittlung von lebenspraktischen und finanziellen Hilfen, Psychosoziale Betreuung, Beratungsangebot für Familien- und Seniorenerholung, sowie Kuren und Freizeiten, Öffentlichkeitsarbeit durch Vorträge u. a. (Information, Prävention), Ehrenamtliche Mitarbeit","Beratung","df402493-f467-4472-8b98-9038d2ac967e",,"51.17441","14.4342"
"Sozialverband VdK Sachsen e.V. - Beratungsstelle für behinderte und chronisch kranke Menschen","Töpferstr. 17","02625","Bautzen","Mittwoch 8 bis 12 Uhr und 14 bis 15.30 Uhr, um eine vorherige telefonische Anmeldung wird gebeten. Zusätzlich Freitag von 10 bis12 Uhr für Terminvereinbarungen.","03591 / 48 13 61","03591 / 53 24 91","kv-bautzen@vdk.de","http://www.vdk.de/kv-bautzen/ID40128",,"Jörg Jonas","Jörg Jonas",,"Eine Beratung ist nicht an eine Mitgliedschaft gebunden. Die Mitgliedschaft ist notwendig, wenn wir Sie gegenüber Behörden vertreten sollen. Eine Mitgliedschaft kann weiterhin erforderlich werden, wenn wir das komplette Ausfüllen von Anträgen für Sie übernehmen sollen.","Beratung","df402493-f467-4472-8b98-9038d2ac967e",,"51.183108","14.429835"
"Sozialverband VdK Sachsen e.V. - Offene Beratungsstelle für behinderte Menschen","Pulsnitzer Str. 11","01917","Kamenz","Dienstag und Donnerstag von 9 Uhr bis 12 Uhr und 13 Uhr bis 15 Uhr - um eine vorherige telefonische Terminvereinbarung wird gebeten.","03578 / 7036936","03578 / 7036937","kv-bautzen@vdk.de","http://www.vdk.de/kv-bautzen/ID40128",,"Jörg Jonas","Jörg Jonas",,"siehe oben","Beratung","df402493-f467-4472-8b98-9038d2ac967e",,"51.270127","14.093038"
"Sozialverband VdK Sachsen e.V. - Offene Beratungsstelle für behinderte Menschen","Liselotte-Herrmann-Str. 50a","02977","Hoyerswerda","Montag von 10 bis 13 Uhr und nach Vereinbarung","03571-414947","03571-478752","ov-hoyerswerda@vdk.de",,,"Ines Pattky","Ines Pattky",,"siehe oben","Beratung","df402493-f467-4472-8b98-9038d2ac967e",,"51.447693","14.268339"
"Psychosoziale Beratungs- und Behandlungsstelle (PSBB) für Suchtgefährdete und –kranke der AWO KV Bautzen e.V.","Löbauer Straße 48","02625","Bautzen","Mo: 09:00 - 12:00 und 13:00 - 15:00, Di:  09:00 - 12:00 und 13:00 - 19:00, Do: 09:00 - 12:00 und 13:00 - 19:00, Fr:  09:00 - 11:00 (mit Voranmeldung), Offene Sprechzeiten - ausschließlich für neue Klienten (Wartezeit ist einzuplanen) Do: 09:00 - 11:00","03591 3261140","03591 3261148","suchtberatung@awo-bautzen.de ","http://www.awo-bautzen.de/suchtberatungsstelle.html",,"Jana Stahn (Dipl.Psychologin)","Jana Stahn (Dipl.Psychologin)",,"Wir unterstützen Betroffene und deren Angehörige bei Problemen in den Bereichen Alkohol, illegale Drogen, Medikamente, Glücksspiel, Nikotin, Essstörungen. In der Suchtberatungsstelle arbeiten:
Diplom-Psychologen, Diplom-Sozialarbeiter/-pädagogen mit den Zusatzqualifikationen Sozialtherapeut Sucht (verhaltenstherapeutisch und psychoanalytisch orientiert) und Systemischer Familientherapeut.   

Auf Wunsch beraten wir anonym. Wir unterliegen der Schweigepflicht. Überweisungsschein ist nicht erforderlich.
 Unsere Angebote für Betroffene und Angehörige sind: - Beratung und Betreuung (- Aufklärung und Information zu den Suchtmitteln, - Krisenintervention, -Vermittlung, usw.), - Gruppenangebote (Info-Gruppe Alkohol, Info-Gruppe Drogen, Nachsorge-Gruppen, Angehörigen-Seminar, usw.), - Tagesstrukturierende Angebote ( -Ausflüge, -Tagestreff, usw.)","Beratung","df402493-f467-4472-8b98-9038d2ac967e",,"51.17977","14.44563"
"Psychosoziale Beratungs- und Behandlungsstelle (PSBB) für Suchtgefährdete und –kranke der AWO KV Bautzen e.V.","Am Lutherpark 7","01877","Bischofswerda","Mo. 08:00 - 11:30 , Di.  09:00 - 12:00 und 12:30 - 15:00, Do. 09:00 - 12:00 und 13:00 - 19:00,  Fr.  08:00 - 10:30 ","03594 703408 ","03591 715161","siehe oben","siehe oben",,"Christiane Schiemank (Diplom-Sozialpädagogin/Diplom-Sozialarbeiterin)","Christiane Schiemank (Diplom-Sozialpädagogin/Diplom-Sozialarbeiterin)",,"siehe oben","Beratung","df402493-f467-4472-8b98-9038d2ac967e",,"51.12819","14.17469"
"Psychosoziale Beratungs- und Behandlungsstelle (PSBB) für Suchtgefährdete und –kranke der AWO KV Bautzen e.V.","Dresdener Straße 35","02681","Wilthen","Fr. 08:30 - 12:30 (mit Voranmedlung über PSBB Bautzen)","03591 3261140","03591 3261148","suchtberatung@awo-bautzen.de ","http://www.awo-bautzen.de/suchtberatungsstelle.html",,"Josefine Hübner (Diplom-Sozialpädagogin)","Josefine Hübner (Diplom-Sozialpädagogin)",,"siehe oben","Beratung","df402493-f467-4472-8b98-9038d2ac967e",,"51.09649","14.38219"
"Psychosoziale Beratungs- und Behandlungsstelle (PSBB) für Suchtgefährdete und –kranke der AWO KV Bautzen e.V.","Am Stadtwall 3","02625","Bautzen","Do. 12:30 - 16:30 (mit Voranmedlung über PSBB Bautzen oder den Sozialdienst des Krankenhauses)","03591 3261140 (PSBB) , 03591 3632492 (Sozialdienst)",,"siehe oben","siehe oben",,,,,"siehe oben","Beratung","df402493-f467-4472-8b98-9038d2ac967e",,"51.18436","14.430628"
"Suchtberatungsstelle der Diakonie Görlitz-Hoyerswerda","Schulstraße 5","02977","Hoyerswerda","Montag 08:00 - 12:00 Uhr und 13:00 - 16:00 Uhr, Dienstag 08:00 - 12:00 Uhr und 14:00 - 16:00 Uhr, Donnerstag 08:00 - 12:00 Uhr und 14:00 - 18:00 Uhr, Freitag 08:00 - 12:00 Uhr. Offene Sprechstunde: montags 13:00 - 15:00 Uhr, dienstags 08:00 - 12:00 Uhr","03571/428504","03571/408255","sbb@diakonie-hoyerswerda.de","http://www.diakonie-goerlitz.de/beratungsdienste/suchtberatungs-und-behandlungsstelle-hoyerswerda/kontakt-sbb-hy.html",,"Leiterin Kerstin Schönwald (Dipl.-Sozialpädagogin/Sozialtherapeutin (VT))","Leiterin Kerstin Schönwald (Dipl.-Sozialpädagogin/Sozialtherapeutin (VT))",,"Außensprechstunde in Lauta (02991 Lauta, Rosa-Luxemburg-Straße 11) montags von 15:00 - 19:00 Uhr, Sprechstunden im Lausitzer Seenland Klinikum Hoyerswerda (02977 Hoyerswerda, Maria-Grollmuß-Straße 10) donnerstags von 09:00 - 12:00 Uhr.
 
Außerhalb der Sprechzeiten können Termine vereinbart werden, um unserem Klientel in der aktuellen Situation zu entsprechen.","Beratung","df402493-f467-4472-8b98-9038d2ac967e",,"51.43849","14.23613"
"Selbsthilfekontaktstelle der Diakonie im Landkreis Bautzen",,,"Hoyerswerda",,"03571 / 40 83 65",,"sks-hy@diakonie-hoyerswerda.de","http://selbsthilfe-landkreis-bautzen.de/, http://www.diakonie-goerlitz.de/beratungsdienste/selbsthilfekontaktstelle-landkreis-bautzen/sks-angebote.html",,,,,"Unsere Selbsthilfekontaktstelle ist Ansprechpartner für alle Fragen im Hinblick auf Selbsthilfe. In unserer Selbsthilfekontaktstelle können Interessierte, Betroffene und Selbsthilfegruppen (SHG) sowie Initiativen und Vereine, Beratung und Hilfe bei der Bewältigung von Problemen erhalten. Wir unterstützen Selbsthilfegruppen und -initiativen bei Gründung, Begleitung, Öffentlichkeitsarbeit und Organisation. Auch die Vernetzung mit Ämtern, Institutionen und Politik ist eine unserer Aufgaben. Erfahrungen austauschen, voneinander lernen, sich gegenseitig ermutigen und entlasten, gemeinsam Fähigkeiten aneignen, um so den Alltag besser zu meistern: das ist Selbsthilfe.        Selbsthilfegruppen nach Themen: - chronische Erkrankungen, -Menschen mit Behinderungen, - psychosoziale Bereiche, - Sucht , -Angehörigenhilfe, -Soziale und Seniorenselbsthilfe.                Die Teilnahme an einem Gruppentreffen ist kostenfrei. ","Beratung","df402493-f467-4472-8b98-9038d2ac967e",,"51.438861","14.253642"
"Selbsthilfekontaktstelle der Diakonie im Landkreis Bautzen",,,"Bautzen",,"03591 / 35 15 86 3",,"sks-hy@diakonie-hoyerswerda.de","http://selbsthilfe-landkreis-bautzen.de/, http://www.diakonie-goerlitz.de/beratungsdienste/selbsthilfekontaktstelle-landkreis-bautzen/sks-angebote.html",,,,,"siehe oben","Beratung","df402493-f467-4472-8b98-9038d2ac967e",,"51.182293","14.423775"
"Suchtberatungs- und -behandlungsstelle der Diakonie Kamenz, Diakonisches Werk Kamenz e.V.","Fichtestraße 8","01917","Kamenz","Montag 9.00 Uhr - 12.00 Uhr und 16.00 Uhr - 19.00 Uhr, Dienstag und Donnerstag 8.00 Uhr - 12.00 Uhr und 13.00 Uhr - 15.00 Uhr, Mittwoch 9.00 Uhr - 12.00 Uhr und 13.00 Uhr - 18.00 Uhr","03578 3854-30","03578 3854-31","sbb.dw-kamenz@evlks.de","http://www.diakonie-kamenz.de/beratungsdienste_suchtberatungs-_und_-behandlungsstelle_de.html",,"Simone Mattukat","Simone Mattukat",,"Wir beraten betroffene Suchtkranke und Suchtgefährdete, deren Angehörige und andere interessierte Personen. Wir helfen und beraten bei Problemen und Fragen zu: Alkohol, illegalen Drogen, Medikamenten, Nikotin, Essstörungen, Spielsucht und andere. Wir bieten: Beratung und Behandlung, Gruppenangebote, Krankenhaussprechzeiten, Vermittlung in stationäre Behandlung, ambulante Nachsorge, niedrigeschwellige Kontaktangebote und Prävention","Beratung","df402493-f467-4472-8b98-9038d2ac967e",,"51.272953","14.107289"
"Suchtberatungs- und -behandlungsstelle der Diakonie Kamenz, Diakonisches Werk Kamenz e.V.","Bruno-Thum-Weg 2","01454","Radeberg","Montag 08:00 Uhr - 11.00 Uhr , Dienstag 08.30 Uhr - 12.00 Uhr und 12.30 Uhr - 18.00 Uhr, Mittwoch 10.00 Uhr - 14.00 Uhr, Donnerstag 08.00 Uhr - 12.00 Uhr","03528 413307","03528 418367","sbb.dw-kamenz@evlks.de","http://www.diakonie-kamenz.de/suchtberatungs-_und_-behandlungsstelle_wann_wo_de.html",,"Anett Wehner","Anett Wehner",,"siehe oben","Beratung","df402493-f467-4472-8b98-9038d2ac967e",,"51.12142","13.9246"
"Suchtberatungs- und -behandlungsstelle der Diakonie Kamenz, Diakonisches Werk Kamenz e.V.","Fried-Walter-Straße 2","01458","Ottendorf-Okrilla","Dienstag 14.00 Uhr - 19.00 Uhr (Ottendorf), Donnerstag 13.00 Uhr - 17.00 Uhr (Pulsnitz)","Beratung nach telefonischer Terminvereinbarung Büro Kamenz Telefon 03578 3854-30 (für Ottendorf) , für Pulsnitz: 035955 749415",,"sbb.dw-kamenz@evlks.de","http://www.diakonie-kamenz.de/suchtberatungs-_und_-behandlungsstelle_wann_wo_de.html",,"Jens Gahrig (Ottendorf), Kerstin Rayczyk (Pulsnitz)","Jens Gahrig (Ottendorf), Kerstin Rayczyk (Pulsnitz)",,"siehe oben","Beratung","df402493-f467-4472-8b98-9038d2ac967e",,"51.184583","13.826482"
"Diakonisches Werk Pirna e.V. - Jugendmigrationsdienst Pirna","Fichtestraße 8","01917","Kamenz","Sprechzeiten in Kamenz: Donnerstag 09.00 Uhr - 12.00 Uhr und 13.00 Uhr - 17.00 Uhr sowie nach Vereinbarung ","03578 3854-23",,"jmd@diakonie-pirna.de ","http://www.diakonie-kamenz.de/beratungsdienste_angebote_fuer_migranten_de.html",,"Katrin Niederlag","Katrin Niederlag","deutsch, englisch, russisch","Wir beraten, begleiten, informieren und unterstützen junge Menschen mit Migrationshintergrund im Alter von 12 bis 27 Jahren. Wir helfen bei der sprachlichen, beruflichen und sozialen Eingliederung. Wir geben Orientierungshilfen in allgemeinen Integrationsangelegenheiten, bei der Ausbildungs- und Berufswahl. Wir bieten Informationsveranstaltungen zu verschiedenen Themen sowie Bewerbungstrainings an. Schwerpunkte: - allgemeine Beratung in persönlichen und finanziellen Fragen,  Informationen zu Ausbildungssystem und Arbeitsmarkt, - berufliche Orientierung, -  Bewerbungshilfe, - Anerkennung ausländischer Abschlüsse ","Beratung","df402493-f467-4472-8b98-9038d2ac967e",,"51.272953","14.107289"
"Schwangeren- und Familienberatung der Diakonie Kamenz, Diakonisches Werk Kamenz e.V.","Fichtestraße 8","01917","Kamenz","Montag vormittags nach Vereinbarung und 14.00 Uhr - 18.00 Uhr, Dienstag 9.00 Uhr - 12.00 Uhr und 14.00 Uhr - 16.00 Uhr, Mittwochnach Vereinbarung,Donnerstag 9.00 Uhr - 12.00 Uhr und nachmittags nach Vereinbarung, Freitag  9.00 Uhr - 12.00 Uhr und nachmitt","03578 3854-40","03578 3854-41","sfb.dw-kamenz@evlks.de","http://www.diakonie-kamenz.de/beratungsdienste_schwangeren-_und_familienberatung_de.html",,,,,"- Beratung zu rechtlichen, psychosozialen und medizinischen Fragen, -Beratung zu Fragen der Familienplanung, Empfängnisverhütung und Sexualität , -Unterstützung bei der Vermittlung finanzieller Hilfen für Schwangere und Familien , -Beratung im Zusammenhang mit vorgeburtlichen Untersuchungen , -Beratung nach Schwangerschaftsabbruch, -Unterstützung bei der Bewältigung von Fehl- und Totgeburten , -Schwangerschaftskonfliktberatung nach § 219 StGB, -Paar- und Lebensberatung, -Gruppenveranstaltungen und Sexualpädagogik, -Beratung zu Kuren für Mütter, Väter bzw. Schwangere.            Die Beratung ist kostenfrei und unabhängig von Religion oder Weltanschauung. Wir unterliegen der gesetzlichen Schweigepflicht und beraten Sie auf Wunsch anonym.K57","Beratung","df402493-f467-4472-8b98-9038d2ac967e",,"51.272953","14.107289"
"Stadtbibliothek Radeberg","Hauptstr. 2","01454","Radeberg","Montag11 - 18 Uhr, Dienstag10 - 18 Uhr, Donnerstag11 - 18 Uhr, Freitag10 - 18 Uhr","(03528) 44 23 80",,"bibliothek@radeberg.de","http://www.radeberg.de/inhalte/radeberg/_inhalt/bildung_soziales/bibliothek/bibliothek",,,,,"Die Stadtbibliothek Radeberg liegt mitten im Zentrum der Stadt und ist ein beliebter Treffpunkt für Jung und Alt. Die Bibliothek bietet durch ihre technisch moderne und behindertengerechte Ausstattung für Sie eine komfortable Nutzung und schafft Raum zum Lernen und Entspannen. Der Bestand bietet ein umfassendes Angebot an Romanen, Kinderbüchern, Fachliteratur sowie audiovisuelle Medien (DVD, CD, CD-ROM, Wii-Spiele). Seit Mai 2013 haben Sie zusätzlich die Möglichkeit, digitale Medien über die Oberlausitzer Onleihe auszuleihen. Zur Anmeldung in der Bibliothek benötigen Sie den Personalausweis oder ein anderes gültiges Dokument in Verbindung mit der amtlichen Meldebescheinigung. Die Ausleihe ist kostenlos. Gebühren entstehen für besondere Dienstleistungen oder bei Versäumnissen entsprechend der Benutzungsordnung, der Benutzungsordnung für Online-Dienste und der Gebührenordnung. In der Stadtbibliothek Radeberg finden jedes Jahr eine Reihe von Veranstaltungen statt, wie z. B.: Klassenführungen mit Interneteinführung, Autorenlesungen, Vorlesenachmittage für Kinder, lit. Veranstaltungen für Erwachsene, Bücherflohmarkt, Ausstellungen zu aktuellen Themen in Bibliotheksräumen. Außerdem ist in der Bibliothek ständig wechselnde Ausstellungen, organisiert vom Kunstverein Radeberg e. V.","Arbeit und Bildung","d29bbe86-ecd6-42df-8054-70a90ec7b535",,"51.08304","13.90118"
"Stadtbibliothek Radeberg - Außenstelle Liegau-Augustusbad","Rödertalstraße 73","01454","Radeberg (OT Liegau-Augustusbad)","Dienstag 13 - 18 Uhr, Donnerstag 13 - 18 Uhr",,,"bibliothek@radeberg.de","http://www.radeberg.de/inhalte/radeberg/_inhalt/bildung_soziales/bibliothek/bibliothek",,,,,"siehe oben","Arbeit und Bildung","d29bbe86-ecd6-42df-8054-70a90ec7b535",,"51.137561","13.900968"
"Brigitte-Reimann Stadtbibliothek Hoyerswerda","Dietrich-Bonhoeffer-Straße 6","02977","Hoyerswerda","Montag 13.00 bis 18.00 Uhr, Dienstag 10.00 bis 19.00 Uhr, Donnerstag 10.00 bis 19.00 Uhr, Freitag 10.00 bis 18.00 Uhr, Samstag 10.00 bis 13.00 Uhr","03571 / 60 77 53","03571 / 60 79 55 9","info@bibliothek-hy.de","www.bibliothek-hy.de",,"Annekathrin Trojahn","Annekathrin Trojahn",,"Im Leistungsvergleich der Bibliotheken belegt die Brigitte-Reimann-Stadtbibliothek Platz 1 unter den gleich großen Einrichtungen in den neuen Bundesländern. Mit rund 70.000 Medieneinheiten, mehr als 300.000 Entleihungen und ca. 100.000 Besuchern im Jahr, gehört sie damit zu den zehn Bibliotheken, die bundesweit viermal Gold in allen vier erreichbaren Katergorien, Nutzung, Angebot, Wirtschaftlichkeit und Entwicklungspotential, erhielten. Das Herz des Bestandes bildet nach wie vor das Lesefutter – vom Bilderbuch bis zum 1000-Seiten Schmöker. Die inhaltlich wie technisch moderne Bibliothek, bietet auf zwei Etagen und über tausend Quadratmetern aber auch zahlreiche andere Medien, wie Gesellschaftsspiele, Zeitschriften, Hörbücher, DVD und Blu-ray Disc sowie Konsolenspiele. Neben Fachbuch und Hobbyratgeber hält die Bibliothek Sprachkurse, Wanderkarten, Stadtpläne und Regionalkundliches bereit. Im Internet-Café hat der Leser (übrigens auch ohne gültigen Benutzerausweis) Zugriff auf ca. 70 Zeitschriftentitel vom Anglerblatt Blinker bis zum Einrichtungsjournal Zu Hause wohnen. Spätestens seit der Teilnahme am fünfjährigen Bertelsmann-Projekt Bibliothek und Schule ist die Förderung der Medienkompetenz von Kindern und Jugendlichen ein Schwerpunkt. Fast täglich finden ein oder sogar mehrere bibliothekspädagogische Veranstaltungen, Bilderbuchkinos, Lesungen und Führungen statt. Vier der sieben Kollegen kümmern sich gern, unkompliziert und individuell um alle Altersstufen - von der Kindergartengruppe bis zum Seniorenverein. Auf die Lehrpläne abgestimmte Angebote finden sie unter dem Link Bibliothekspädagogik. Seit Frühjahr 2013 bietet die Stadt Hoyerswerda gemeinsam mit 11 anderen Städten der Oberlausitz unter www.onleihe-oberlausitz.de die Onleihe an.","Arbeit und Bildung","d29bbe86-ecd6-42df-8054-70a90ec7b535",,"51.43637","14.25677"
"Stadtbibliothek Bischofswerda","Dresdener Straße 1","01877","Bischofswerda","Montag 10-18 Uhr, Dienstag 12-18 Uhr, Donnerstag 10-18 Uhr, Freitag 10-13 Uhr","03594 786-160",,"stadtbibliothek@bischofswerda.de","http://www.bischofswerda.de/kultur-freizeit-und-tourismus/bibliothek.html",,,,,"Die Bibliothek ist eine der ältesten Kultur- und Bildungseinrichtungen der Stadt Bischofswerda. Bereits im Jahr 1880 wurde sie gegründet und hat seitdem ihre Räumlichkeiten mehrere Male gewechselt und erweitert. Seit 1992 befindet sie sich in zentraler Lage der Stadt im sogenannten Bischofssitz. Die Bibliothek ist erreichbar über den Eingang von der Dresdener Str. oder durch den schönen Innenhof auf der Rückseite des Hauses. Auf einer Fläche von ca. 500 m² stehen den Besuchern ca. 33.000 Medien zur Verfügung. Der Bestand der Bibliothek wird ständig auf dem Laufenden gehalten. Dabei wird die Nachfrage der Leser und der Trend auf dem Literatur- und Medienmarkt natürlich berücksichtigt. Die Stadtbibliothek Bischofswerda ist auch im Bibo-Sax, dem Medienkatalog der öffentlichen Bibliotheken Sachsen, zu finden. Leserwünsche können somit auch aus anderen Bibliotheken realisiert werden. Unsere Bibliothek bietet Ihnen eine große Auswahl an Belletristik für Erwachsene, Jugendliche und Kinder, Sachliteratur für jede Altersklasse, Zeitschriften, DVDs, Musik-CDs, Wii- und PC-Spiele. ","Arbeit und Bildung","d29bbe86-ecd6-42df-8054-70a90ec7b535",,"51.12697","14.17894"
