"name","placename","street","zip","city","openingHours","phone","fax","mail","web","facebook","speakerPrivate","speakerPublic","spokenLanguages","description","category_horbz","category","subCategory","lat","lon"
"Willkommen in Bautzen e.V.",,"Steinstraße 37","02625","Bautzen",,,,"info@willkommeninbautzen.de","www.willkommeninbautzen.de","https://de-de.facebook.com/willkommeninbautzen/","Andreas von Geibler (Vorstandsvorsitzender), Karl-Heinz Biesold (Vorstandmitglied), Elisabeth Hauswald (Vorstandsmitglied),Katrin Heimbürger(Vorstandsmitglied), Astrid Riechmann (Schatzmeisterin)","Andreas von Geibler","Deutsch","Der Verein WILLKOMMEN IN BAUTZEN e.V. wurde im Juni 2015 von engagierten Bautzener Bürgern aus dem Bündnis „Bautzen bleibt Bunt“ heraus gegründet. Der Verein hat sich zum Ziel gesetzt, in Bautzen und Umgebung die ehrenamtliche Arbeit für die in Bautzen lebenden Flüchtlinge durch eine transparente Verwaltung von Spenden und Preisgeldern, die Finanzierung von Projekten und Öffentlichkeitsarbeit zu unterstützen. Der Verein fördert alle Aktivitäten, die der Integration von Flüchtlingen in die Bautzener Gemeinschaft und der Toleranz gegenüber fremden Kulturen dienlich sind. Genauso werden Projekte gefördert, die sich gegen Fremdenfeindlichkeit und Rassismus richten. Der Verein ist gemeinnützig tätig, überparteilich, konfessionslos und nicht kommerziell.
","Allgemeines (Unterpunkt: Vereine und Initiativen)","010cfae4-7506-425b-ba37-80e8d83427f0",,"51.181205","14.431904"
"Bautzen bleibt bunt - Bürgerbündnis für Gastfreundschaft, Menschlichkeit und Toleranz","Steinhaus, 1.Etage","Steinstr. 37","02625","Bautzen","Kontaktbüro: Donnerstag 15-17 Uhr","Bündnis: 03591/531 8076  Kontaktbüro: 0171/9792 101",,"info@bautzenbleibtbunt.de","http://www.bautzenbleibtbunt.de","https://www.facebook.com/bautzen.bleibt.bunt/","Hauptanprechpartnerin: Manja Gruhn, Kontaktbüro: Anne-Marie Russew","Hauptanprechpartnerin: Manja Gruhn, Kontaktbüro: Anne-Marie Russew","Deutsch, Englisch","Das Bündnis 'Bautzen bleibt bunt' setzt sich für eine Willkommenskultur Asylsuchender und Ausländer in Bautzen ein, zeigt Flagge für ein friedvolles Miteinander von Bürgern und Asylsuchenden und bezieht Stellung gegen rassistische, unmenschliche Äußerungen und Vorurteile. Mit dieser Gemeinschaft möchte gezeigt werden, dass Bautzen gastfreundlich, tolerant und weltoffen den Menschen gegenüber ist, die aufgrund von Notsituationen eine Bleibe in Deutschland suchen und hierbei auch in Bautzen untergebracht werden. Das Bündnis möchte damit ein Zeichen setzen gegen menschenfeindliche Vorurteile und Vorverurteilungen und eine positive Willkommenskultur schaffen.  “Bautzen bleibt bunt – Budyšin wostanje pisany” steht für Weltoffenheit, Menschlichkeit und Toleranz! Es ist überparteilich, überkonfessionell, nichtkommerziell. ","Allgemeines (Unterpunkt: Vereine und Initiativen)","010cfae4-7506-425b-ba37-80e8d83427f0",,"51.181205","14.431904"
"Partnerschaften für Demokratie, Netzwerk für Kinder- und Jugendarbeit",,"Lutherstraße 13","01877","Bischofswerda","Nach Terminvereinbarung","03594/704730","03594/707462","friederike.beese@kijunetzwerk.de","lap-bautzen.de",,"Friederike Beese, Bernadette Zeller","Friederike Beese","Deutsch, Englisch, Sorbisch","Koordinierungs- und Fachstelle im Rahmen des Bundesprogrammes „Demokratie leben!“. Förderung demokratischer Strukturen im ländlichen Raum durch Fördermittelvergabe, Antragsberatung und Jugendbeteiligungsprojekte. Zuständig für den Landkreis Bautzen.","Allgemeines (Unterpunkt: kirchliche/ freie Träger)","010cfae4-7506-425b-ba37-80e8d83427f0",,"51.12763","14.1743"
"Steinhaus e.V.",,"Steinstr. 37","02625","Bautzen","Offene Kinder- und Jugendarbeit: tägl. 14-19 Uhr  Ansonsten im Rahmen der Kursangebot und Veranstaltungen, Termine nach Absprache wochentags von 9-18 Uhr","03591/5319966","03591/5319967","info@steinhaus-bautzen.de","www.steinhaus-bautzen.de","https://de-de.facebook.com/SteinhausBautzen/","Geschäftsführer: Torsten Wiegel, Kulturelle Jugendbildung / Kids&Heroes: Reno Rössel,  Offene Kinder- und Jugendarbeit: Uwe Reschwamm, Kultur & Veranstaltungen: Alexander Noack",,"Deutsch, Englisch","Der Steinhaus e.V. ist ein gemeinnütziger Verein in der Funktion eines Soziokulturellen Zentrums und ist als ein solches Zentrum Mitglied im Landesverband Soziokultur Sachsen e.V..Im Herzen der Spreestadt ist das Steinhaus ein Ort der Begegnung und Kommunikation, des bürgerschaftlichen Engagements, des künstlerischen Austauschs und der kulturellen Produktion - für alle Generationen und sozialen Schichten. Es will Freiräume für interessenbezogene Freizeitgestaltung junger wie älterer Menschen schaffen sowie Orientierung und Hilfestellung bei der Verwirklichung individueller Lebensentwürfe bieten. Denn nicht alle Menschen verfügen über die gleichen Voraussetzungen, Chancen und Möglichkeiten, ihre Biografie erfolgreich zu gestalten","Freizeit/Gemeinschaft","010cfae4-7506-425b-ba37-80e8d83427f0",,"51.181205","14.431904"
"djo-Deutsche Jugend in Europa, Landesverband Sachsen e.V. Projektbüro 'Jugendverbandsarbeit für alle'",,"Otto-Nagel-Str. 1","02625","Bautzen","Mo. - Mi.: 09:30 - 17:30","0351 84190413, 0177/ 7644472",,"olena.vasyuk@djo-sachsen.de","http://www.djo-sachsen.de/","https://www.facebook.com/djo.sachsen/","Olena Vasyuk","Olena Vasyuk","Deusch, Russisch, English","Wir sind ein Jugendverband für interkulturelle, internationale und politische Jugendarbeit. Mit unseren Angeboten möchten wir dazu beitragen, die eigene Kultur und die Kultur anderer kennenzulernen, um so das gegenseitige Verständnis zu fördern. Dabei unterstützen und beraten wir junge Menschen und Jugendinitiativen bei der Realisierung eigener Ideen und bieten Gestaltungsräume für deren Umsetzung. Die djo ist ein Dachverband für Jugendmigrantenorganisationen und Migranteninitiativen. Sie präsentiert die Vielfalt an Belangen und Forderungen jugendlicher MigrantInnen - gegenüber Politik und auch als Lobby für die jungen Menschen in der Öffentlichkeit.","Allgemeines (Unterpunkt: kirchliche/ freie Träger)","010cfae4-7506-425b-ba37-80e8d83427f0",,"51.192657","14.446848"
"Internationaler Bund, IB Mitte gGmbH, Jugendmigrationsdienst Bautzen",,"Wilhelm-Ostwald-Str.19","02625","Bautzen","Montag 13 - 16 Uhr, Dienstag 15.30 - 17.30 Uhr, Donnerstag 8 - 16 Uhr","03591/276761","03591/276761","jmd-bautzen@internationaler-bund.de","http://www.internationaler-bund.de/angebote/standort/202850",,"Steffen Deubner","Steffen Deubner","Deutsch, Englisch, Russisch (wenig)","Koordnierungsstelle für Integrationskurse Landkreis Bautzen: Beratung zu möglichen Kursangeboten, Antragsstellung beim Bundesamt, Zusammenstellung der Kurse, Einstufungstest, Vermittlung zum Kursträger, Betreuung während und nach dem Kurs, Beratung und Vermittlug zu weiterführenden Angeboten. Angebote sind: Individuelle Integrationsförderung und -begeitung, gruppenpädagogische Angebote, Informations- und Bildungsangebote für Behörden, Netzwerkarbeit.","Allgemeines (Unterpunkt: kirchliche/ freie Träger)","010cfae4-7506-425b-ba37-80e8d83427f0",,"51.19133","14.44858"
"Leuchtturm-Majak' e. V.",,"Otto-Nagel-Str. 1","02625","Bautzen","Mo. - Fr. 12:00 - 17:00 oder nach Vereinbarung","03591/5969094",,"leuchtturm-majak@gmx.de","http://www.leuchtturm-majak.de/startseite.html ",,"Natalia Dies","Natalia Dies","Deutsch, Russisch, Arabisch, Englisch","Leuchtturm-Majak ist eine Migrantenselbstorganisation. Sie existiert seit 2006. Das Ziel ist die Hilfe für Menschen mit und ohne Migrationshintergrung. Die Tätigkeiten umfassen die Arbeit mit Kinder und Jugendliche im Bereich der Freizeit und außerschulischer Bildung; die Arbeit mit Migranten: Beratung, Begleitung, Sprachmittlung, Schulung, Sprachtraining, Freizeit; die Arbeit mit Senioren: Seniorentreffen, Alltagsbegleitung, Stützpunkt für Demenzkranke und ihren Angehörigen, Freizeit;  Kulturarbeit: Freizeit, Interkulturelle Begegnungen, Feste, Kulturbeiträge. ","Allgemeines (Unterpunkt: kirchliche/ freie Träger)","010cfae4-7506-425b-ba37-80e8d83427f0",,"51.192657","14.446848"
"samo.fa-Hoyerswerda, Träger: RAA Hoyerswerda /Ostsachsen e.V.","Im Industriegelände","Str. B Nr. 8","02977","Hoyerswerda","Montag-Donnerstag: 08:00-17:00 Uhr, Freitag: 08:00-14:00 Uhr","03571-416072, Mobil: 01731-470330","03571/924047","paulick@raa-hoyerswerda.com","www.samofa.de, www.raa-hoyerswerda.de, www.bv-nemo.de",,"Cindy Paulick","Cindy Paulick","Deutsch, Englisch","samo.fa (Stärkung der Aktiven aus Migrantenorganisationen in der Flüchtlingsarbeit) hat zum Ziel, mithilfe lokaler Flüchtlingsarbeit die gleichberechtigte Teilhabe von Geflüchteten in allen Bereichen des lokalen und kommunalen Lebens zu stärken. In Hoyerswerda trifft sich der samo.fa-Stammtisch regelmäßig, um Projekte zur Verbesserung der Situation Geflüchteter vorzubereiten und durchzuführen. Veranstaltungen wie Sprachcafés und Wandertage mit Schulklassen werden von Stammtischmitgliedern mit und ohne Migrationserfahrung organisiert. Für Fragen und Anregungen sind wir jederzeit dankbar und freuen uns über neue Gesichter.","Allgemeines (Unterpunkt: kirchliche/ freie Träger)","010cfae4-7506-425b-ba37-80e8d83427f0",,"51.43186","14.29321"
"Gruppe blickKONTAKT Wehrsdorf",,"Dresdner Str.33","02689","Sohland","/","035936/34268",,"gross.wehrsdorf@web.de",,,"Katharina und Heino Groß",,"Deutsch","Freiwilligeninitiative für das Flüchtlingsheim Wehrsdorf.","Allgemeines (Unterpunkt: Vereine und Initiativen)","010cfae4-7506-425b-ba37-80e8d83427f0",,"51.05435","14.37572"
"Ausländerbeauftragte Landkreis Bautzen",,"Bahnhofstraße 9","02625","Bautzen","Donnerstag 10 - 12 Uhr,   

Termine nach Vereinbarung sind auch außerhalb der Sprechzeit möglich.","03591 5251-87700","03591 5250-87700","auslaenderbeauftragte@lra-bautzen.de","http://www.landkreis-bautzen.de/13703.html",,"Anna Piętak-Malinowska","Anna Piętak-Malinowska","Deutsch, Polnisch, Englisch, Russisch","Ansprechpartnerin bei allen integrationspolitischen Angelegenheiten, Hilfe und Beratung bei Fragen zur Integration, Hilfe und Beratung bei Diskriminierung aufgrund der Herkunft, eigenständige Öffentlichkeitsarbeit, Mitglied im Begleitausschuss 'Partnerschaften für Demokratie'","Allgemeines (Unterpunkt: Behörden)","010cfae4-7506-425b-ba37-80e8d83427f0","authority","51.175784","14.429462"
"RAA Hoyerswerda/ Ostsachsen e.V.","Im Industriegelände","Straße B Nr.8","02977","Hoyerswerda","Nach Terminabsprache","03571-416072","03571-924047","kontakt@raa-hoyerswerda.com","www.raa-hoyerswerda.com",,"Birgit Radeck","Evelyn Scholz","Deutsch, Englisch, Russisch","Die regionale Arbeitsstelle für Bildung, Demokratie und Lebensperspektive ist ein Verein, welcher mit vielen Aufgabenfeldern gefüllt ist. Frau Radeck ist Ansprchpartnerin für die Unterstützung und Hilfeleistung der Geflüchteten und dem Ehrenamt. Sie übernimmt die Position eine zentrale Anlaufstelle, wenn es um Belange in der Geflüchtetenhilfe geht.  ","Allgemeines (Unterpunkt: kirchliche/ freie Träger)","010cfae4-7506-425b-ba37-80e8d83427f0",,"51.43186","14.29321"
"Bürgerbündnis „Hoyerswerda hilft mit Herz“",,"Dillinger Straße 1","02977","Hoyerswerda","Dienstag 14:00 – 16:00 Uhr","03571-6099905","/","BB-Hoy-hilft@t-online.de","www.hoyerswerda-hilft-mit-herz.de",,"Birgit Radeck","Birgit Radeck, Jörg Michel","Deutsch, Englisch, Russisch","Hoyerswerda hilft mit Herz ist eine Bürgerinitiative der Stadt, welche sich gefunden hat, um den Geflüchteten in der Stadt zu helfen. Dies äußert sich in unterschiedlichen Arbeitsfeldern. Von ehrenamtlichen Deutschunterricht und Kinderbetreuung, zu Patenschaften und Unterstützung bei der Wohnungseinrichtung. Auch Geflüchtete können zum Bündnis kommen, sollten sie Unterstützung oder Beratung benötigen. ","Allgemeines (Unterpunkt: Vereine und Initiativen)","010cfae4-7506-425b-ba37-80e8d83427f0",,"51.43362","14.2448"
"Josua Gemeinde Bautzen",,"Dr.-Peter-Jordan-Str. 9","02625","Bautzen","je nach Projekt; feste Angebote sind: Käller International: Mo und Mi 12 - 19 Uhr, Fahhradgarage: Di und Do 13.30 - 17.30, Kleiderkammer: Mo 10 - 12, Hilfe auf Ämtern: Mo bis Mi 10 - 12","03591 491653, 0177 8481819",,"info@josua-gemeinde-bautzen.de","www.josua-gemeinde-bautzen.de, http://www.kiki-bautzen.de/","https://www.facebook.com/josuagemeindebautzen/","Alf Mudrich","Alf Mudrich","Deutsch, Englisch, Arabisch, Farsi","Die Josua Gemeinde ist eine freie evangelische Gemeinde, die 1988 gegründet wurde. Seit über zwei Jahren ist sie Mitglied beim Bund Freikirchlicher Pfingstgemeinden (BFP). Die Josua Gemeinde sieht sich als Mitmachkirche mit vielen ehrenamtlichen Mitarbeitern in unterschiedlichen Bereichen. Neben den Sonntags und Freitags stattfindenden Gottesdiensten und Suchgottesdiensten setzt sich die Gemeinde mittels verschiedener Angebote aktiv für Flüchtlinge ein. Als Angebote sind zu nennen:  offene Jugendarbeit Kinder- und Jugendzentrum 'Der Käller' im Keller des Gemeindezentrums, Musikschule, Fahrradwerkstatt, BuFDi-Tätigkeiten, Deutschunterricht, Kleiderkammer, Hilfe auf Ämtern, Umzugshilfe.","Allgemeines (Unterpunkt: kirchliche/ freie Träger)","010cfae4-7506-425b-ba37-80e8d83427f0",,"51.17186","14.43362"
" Kreisvolkshochschule Bautzen (Regionalstellen in Bautzen, Kamenz, Radeberg)",,"Dr.-Peter-Jordan-Str. 21","02625","Bautzen","Mo-Fr  9 – 12 Uhr, Mo-Mi und Fr 13 – 16 Uhr, Do 13 – 18 Uhr","03591 / 272 29-0 ","03591 / 272 29-19","info@kvhsbautzen.de, anja.schmidt@kvhsbautzen.de","www.kvhsbautzen.de",,"Anja Schmidt (Fachbereichsleiterin Deutsch, Integration & Grundbildung)","Anja Schmidt (Fachbereichsleiterin Deutsch, Integration & Grundbildung)","Deutsch, Englisch, Spanisch, Französisch","Die Kreisvolkshochschule Bautzen bietet Angebote für verschiedene Adressaten: neben Angeboten zu Politik, Gesellschaft,Umwelt und Gesundheit lädt die VHS ein, um an kulturellen, kreativen oder sprachlichen Angeboten teil zu nehmen. Sprachangebote u.a. sind: soffene Deutschkurse A1-B2 (C1 auf Anfrage), Integrationskurse, geförderte Deutschkurse für Asylbewerber und Leistungsbezieher, Prüfungen, Einbürgerungstest","Arbeit und Bildung","d29bbe86-ecd6-42df-8054-70a90ec7b535",,"51.17036","14.43649"
"Kreisvolkshochschule Bautzen / Regionalstelle Kamenz",,"Macherstr. 144a","01917","Kamenz","Mo-Fr  9 – 12 Uhr, Mo-Mi und Fr 13 – 16 Uhr, Do 13 – 18 Uhr"," 03578 / 3096-0","03578 / 3097-55","siehe oben","www.kvhsbautzen.de",,"siehe oben",,"Deutsch, Englisch, Spanisch, Französisch","Die Kreisvolkshochschule Bautzen/Regionalstelle Kamenz bietet Angebote für verschiedene Adressaten: neben Angeboten zu Politik, Gesellschaft,Umwelt und Gesundheit lädt die VHS ein, um an kulturellen, kreativen oder sprachlichen Angeboten teil zu nehmen. Sprachangebote u.a. sind: soffene Deutschkurse A1-B2 (C1 auf Anfrage), Integrationskurse, geförderte Deutschkurse für Asylbewerber und Leistungsbezieher, Prüfungen, Einbürgerungstest","Arbeit und Bildung","d29bbe86-ecd6-42df-8054-70a90ec7b535",,"51.288619","14.113972"
"Stadt Hoyerswerda, Beauftragter für Asyl und Integration",,"Markt 1","02977","Hoyerswerda","Montag 8.30 - 12.00 Uhr, Dienstag 8.30 - 16.00 Uhr, Mittwoch nur nach Vereinbarung,  Donnerstag 8.30 - 18.00 Uhr, Freitag  8.30 - 12.00 Uhr","03571 456402","03571 45786402","kai.petschick@hoyerswerda-stadt.de","www.hoyerswerda.de",,"Kai Petschick","Kai Petschick","Deutsch, Englisch","Ansprechpartner für die Bürgerschaft, Vereine und Verbände sowie Gewerbetreibende bei Fragen zum Thema Asyl und Integration; Vernetzung von Akteuren in der Stadt und Beratung zu entsprechenden Förderungen und Programmen.","Allgemeines (Unterpunkt: Behörden)","010cfae4-7506-425b-ba37-80e8d83427f0",,"51.43901","14.24321"
"Stadtbibliothek G. E. Lessing",,"Lessingplatz 3","01917","Kamenz","Montag bis Freitag 10 bis 18 Uhr, Mittwoch geschlossen","Tel.: 03578/379-288"," 03578/379-289","bibliothek@stadt.kamenz.de","https://kamenz.bibliotheca-open.de/Willkommen.aspx",,"Marion Kutter, Bibliotheksleiterin","Marion Kutter, Bibliotheksleiterin","Deutsch, Englisch","Unterstützung bei Informationsrecherchen und Literatursuche,  Bibliothekseinführungen, Schüler-Seminare, Kinderveranstaltungen, Nutzung des Internets, Anfertigen von Kopien und Ausdrucken","Arbeit und Bildung","d29bbe86-ecd6-42df-8054-70a90ec7b535",,"51.272039","14.095246"
"Stadtbibliothek Bautzen/ Hauptbibliothek",,"Schloßstraße 10/12","02625","Bautzen","Montag und Freitag: 10 - 19 Uhr, Dienstag und Mittwoch:  12 – 18 Uhr, Donnerstag geschlossen","03591/ 534 850","03591/ 534 817","stadtbibliothek@bautzen.de / bibliotheksservice@bautzen.de","www.stadtbibliothek-bautzen.de",,"Sabine Kempel / Karin Hahn","Sabine Kempel / Karin Hahn","Deutsch, Sorbisch","Die Stadtbibliothek Bautzen ist eine öffentliche, für jedermann zugängliche Einrichtung der Stadt Bautzen, zu der die Hauptbibliothek, die Kinder- und Jugendbibliothek sowie die Fahrbücherei gehört. Die Anmeldung erfolgt persönlich unter Vorlage des Personalausweises oder eines gleichgestellten Dokumentes mit Lichtbild und Adresse. Die Ausleihe ist kostenlos, für Sonderdienstleistungen wie Fernleihe oder Ausdrucke u.a. entstehen Gebühren.                    ","Arbeit und Bildung","d29bbe86-ecd6-42df-8054-70a90ec7b535",,"51.18328","14.42196"
"Stadtbibliothek Bautzen/ Kinder- und Jugendbibliothek",,"Wendischer Graben 1","02625 ","Bautzen","Montag, Dienstag, Mittwoch, Freitag:  13 - 18 Uhr, Donnerstag geschlossen","03591/ 42 373",,"jugendbibliothek@bautzen.de",,,"Kristin Lehmann","Kristin Lehmann","Deutsch, Sorbisch","In der Kinder- und Jugendbibliothek umfasst das speziell auf Kinder und Jugendliche abgestimmte Medienangebot Bücher, Comics, Mangas, Sachliteratur aller Wissensgebiete für Freizeit, Hobby und Schule, CDs, DVDs, Konsolenspiele und Zeitschriften. Vormittags können verschiedene Projekte, Buchvorstellungen und Autorenlesungen und Ferienveranstaltungen einschließlich Bibliothekseinführungen durchgeführt bzw. besucht werden.","Arbeit und Bildung","d29bbe86-ecd6-42df-8054-70a90ec7b535",,"51.18153","14.42755"
"Stadtbibliothek Bautzen/ Fahrbücherei",,"Preuschwitzer Str. 20","02625","Bautzen",,"03591/ 534 850",,"fahrbuecherei@bautzen.de",,,,,"Deutsch, Sorbisch","Die Fahrbücherei bedient im 14-täglichen Rhythmus Haltestellen im Stadtgebiet und im Landkreis. Der Fahrplan ist unter www.stadtbibliothek.de zu finden.","Arbeit und Bildung","d29bbe86-ecd6-42df-8054-70a90ec7b535",,"51.17211","14.42146"
"Bündnis Radeberger Land hilft e.V.","c/o Stadtverwaltung Große Kreisstadt Radeberg,","Markt 19","01454","Radeberg","/","01520 5981920",,"info@buendnis-radeberger-land-hilft.de","http://www.buendnis-radeberger-land-hilft.de/",,"Vereinsvorstand Ulrich Hensel","Vereinsvorstand Ulrich Hensel","Deutsch, Englisch","Seit der Gründung im Juni 2015 unterstützt der Verein 'Bündnis Radeberger Land hilft' Asylbewerber und Flüchtlinge rund um Radeberg ob dezentral in Wohnungen oder in einer zentralen Unterkunft untergebracht. Das Bündnis ist ein eingetragener, gemeinnütziger Verein, der sich aus Mitgliedsbeiträgen und Spenden finanziert. Zweck des Vereins ist die Hilfe und das Engagement für Menschen in Not, insbesondere für Migrantinnen und Migranten sowie die Förderung von nachbarschaftlichen Begegnungsmöglichkeiten im Sinne eines gedeihlichen Miteinanders. Es gibt themenbezogene Arbeitsgemeinschaften: die AG Spendenkoordination, die AG Sprache und Verständigung, die AG Gesundheit und medizinische Versorgung, die AG Sport, die AG Beschäftigung, die AG Logistik, die AG Integration, Familie und Begegnung.","Allgemeines (Unterpunkt: Vereine und Initiativen)","010cfae4-7506-425b-ba37-80e8d83427f0",,"51.11841","13.922354"
"Bündnis für Humanität und Toleranz","Stadttheater Kamenz, 2. Etage Treppenaufgang rechts (ehemalig Räume des SprachrOhr)","Pulsnitzer Straße 11","01917","Kamenz","Montags 15:00 – 16:00 Uhr","03578 / 37 92 02 (Montags, während der Sprechzeit)",,"buendniskamenz@gmx.de","http://www.buendnis-kamenz.de/",,"Sprecher Richard Boes","Sprecher Richard Boes","Deutsch, Sorbisch, Russisch","Engagierte Bürgerinnen und Bürger, die Stadt Kamenz sowie Unternehmen der Stadt und Umgebung vereinen sich im Bündnis für Humanität und Toleranz zur Unterstützung der Asylsuchenden. Unser Anliegen ist die Weiterentwicklung  einer Willkommenskultur und das Leben von Solidarität und Akzeptanz mit den hier ankommenden Menschen. Mit unserem Handeln wollen wir die Unterbringung, Betreuung und Unterstützung von Kriegsflüchtlingen und Asylbewerbern menschenwürdig gestalten und Barrieren überwinden helfen. Wir wenden uns gegen jede Form von Ausländerfeindlichkeit, Intoleranz und Rassismus.","Allgemeines (Unterpunkt: Vereine und Initiativen)","010cfae4-7506-425b-ba37-80e8d83427f0",,"51.270127","14.093038"
"Haselbachtal hilft - für ein Haselbachtal mit Herz und Verstand ","c/o Gemeindeverwaltung Haselbachtal","Schulstraße 7a","01920","Haselbachtal ",,,,"haselbachtal.hilft@gmx.de","https://haselbachtalhilft.wordpress.com/","https://de-de.facebook.com/haselbachtalhilft/",,,"Deutsch, Englisch","(Heim in Häslich schließt Ende Januar 2017!) Wir wollen Flüchtlingen helfen, sich in unserer Gemeinde zurechtzufinden. Außerdem möchten wir Anwohner, Gemeindeverwaltung und Flüchtlinge unterstützen, wenn es in der Gemeinde wegen der neuen Situation zu Missverständnissen kommt. Wir sind davon überzeugt, dass es auf vielfältige Weise möglich ist, ein gemeinschaftliches und gutes Zusammenleben aller Menschen im Haselbachtal zu fördern. Uns ist bewusst, dass die neue Situation sowohl die Dorfgemeinschaft als auch die Asylbewerber vor Herausforderungen stellen wird – gerade weil Häslich und seine alte Schule bei Weitem kein idealer Ort für einen erfolgreichen Start in einem neuen Land sind. Gerade deshalb ist es wichtig, die Anwohner, Flüchtlinge und Gemeindeverwaltung bei der schwierigen neuen Aufgabe zu unterstützen. Wir wollen auf Missverständnisse, Konflikte und Frustration schnell und unkompliziert reagieren, indem wir vermitteln, erklären und praktische Lösungen suchen. Perspektivlosigkeit, Angst und Hass haben im Haselbachtal nichts verloren.","Allgemeines (Unterpunkt: Vereine und Initiativen)","010cfae4-7506-425b-ba37-80e8d83427f0",,"51.23767","14.03266"
"Koordinator AWO Kreisverband Lausitz e.V., Schwerpunkt Asyl",,"Thomas-Müntzer-Str. 26","02977","Hoyerswerda",,"0163/6987501","03571/6027758","K.Stanulla@awo-lausitz.de","http://awo-lausitz.de/",,"Kevin Stanulla","Kevin Stanulla","Deutsch","Der Koordinator für Asyl des AWO Kreisverbands Lausitz e.V. ist verantwortlich für den Bereich Asylunterkünfte der AWO und fungiert somit als Schnittstelle zwischen Partnereinrichtungen, Landes- und Bundesverbänden, politischen Stellen und Verwaltungen.","Allgemeines (Unterpunkt: kirchliche/ freie Träger)","010cfae4-7506-425b-ba37-80e8d83427f0",,"51.45213","14.27044"
"Beauftragter für Asyl und Integration der Stadt Bischofswerda",,"Altmarkt 1","01877","Bischofswerda",,"03594 786-216",,"sascha.hache@bischofswerda.de","http://www.bischofswerda.de/rathaus-und-verwaltung/asyl-und-integration.html",,"Sascha Hache ","Sascha Hache ","Deutsch","Der Beauftragte für Asyl und Integration der Stadt Bischofswerda ist Schnittstelle zwischen ehrenamtlichen Initiativen der Stadt Bischofswerda, dem Jobcenter des Landratsamtes Bautzen, der Agentur für Arbeit und der Stadt Bischofswerda. ","Allgemeines (Unterpunkt: Behörden)","010cfae4-7506-425b-ba37-80e8d83427f0","authority","51.128133","14.17918"
"Begegnungscafé im Offenen Treff /  Jugendhaus 'Freizone'",,"Belmsdorfer Straße 28","01877","Bischofswerda","Bürgersprechstunde und Begegnungscafé: Montags 16-18 Uhr","03594 716809",,"buergerinfo-asyl@bischofswerda.de ","http://www.bischofswerda.de/rathaus-und-verwaltung/asyl-und-integration.html",,"Martina Jordan","Martina Jordan","Deutsch","Montags zwischen 16 und 18 Uhr findet im Offenen Treff 'Freizone' das Begegnungscafé statt, welches interessierte Menschen zum Beisammensein einlädt. Bei Fragen und Hilfsangeboten zum Thema Asyl und Integration können Interessenten in der parallel stattfindenden Bürgersprechstunde beraten werden.","Freizeit und Gemeinschaft","adfb2457-819c-4574-ace1-56f5b38d8f96",,"51.12325","14.1912"
"Caritas Verband Oberlausitz e.V.- Migrationsberatung für Erwachsene, Hilfe für Asylbewerber, Flüchtlinge und Ausländer",,"Kirchplatz 2","02625","Bautzen","Montag 10 - 12 Uhr und 14 - 17 Uhr, Mittwoch 14 - 16 Uhr, Freitag 9 - 12 Uhr","03591 498250","03591 498219","meb@caritas-oberlausitz.de","http://www.caritas-oberlausitz.de/migration02.htm, http://www.caritas-oberlausitz.de/2016%20Sprechzeiten%20Caritasverband.pdf",,"Andreas Rentsch (Dipl.-Sozialarbeiter FH)","Andreas Rentsch (Dipl.-Sozialarbeiter FH)","Deutsch","Sie können zu uns kommen, wenn Sie als Spätaussiedler in die Bundesrepublik Deutschland eingereist sind, 
als ausländischer Ehepartner mit einer Spätaussiedlerfamilie oder über die Familienzusammenführung in Deutschland eingereist sind, mit einem deutschen Partner leben oder verheiratet sind und einen Aufenthaltstitel für Deutschland in Ihrem ausländischen Pass haben, als ausländischer Bürger in Deutschland leben und Rat suchen, das 27. Lebensjahr vollendet haben oder Fragen haben, die nicht jugendtypisch sind. Die Beratung ist kostenlos. Wir nehmen uns Zeit und beraten Sie zu allen Formalitäten und Anmeldungen am neuen Wohnort (Erstberatung), zu den rechtlichen Gegebenheiten z. B. Zuwanderung, soziale Sicherung, zum Leben in der Bundesrepublik Deutschland, bei persönlichen Problemen und Schwierigkeiten, die mit der Zuwanderung entstehen, über Möglichkeiten des Erlernens der deutschen Sprache in Sprachkursen.","Beratung","df402493-f467-4472-8b98-9038d2ac967e",,"51.180624","14.42895"
"Caritas Verband Oberlausitz e.V.- Migrationserstberatung für Erwachsene, Hilfe für Asylbewerber, Flüchtlinge und Ausländer",,"Haydnstraße 8","01917","Kamenz","Donnerstag 15 - 17 Uhr","03578 3743 20","03578 3743 24","meb@caritas-oberlausitz.de, a.rentsch@caritas-oberlausitz.de","http://www.caritas-oberlausitz.de/migration02.htm",,"Andreas Rentsch (Dipl.-Sozialarbeiter FH)","Andreas Rentsch (Dipl.-Sozialarbeiter FH)","Deutsch","Sie können zu uns kommen, wenn Sie als Spätaussiedler in die Bundesrepublik Deutschland eingereist sind, 
als ausländischer Ehepartner mit einer Spätaussiedlerfamilie oder über die Familienzusammenführung in Deutschland eingereist sind, mit einem deutschen Partner leben oder verheiratet sind und einen Aufenthaltstitel für Deutschland in Ihrem ausländischen Pass haben, als ausländischer Bürger in Deutschland leben und Rat suchen, das 27. Lebensjahr vollendet haben oder Fragen haben, die nicht jugendtypisch sind. Die Beratung ist kostenlos. Wir nehmen uns Zeit und beraten Sie zu allen Formalitäten und Anmeldungen am neuen Wohnort (Erstberatung), zu den rechtlichen Gegebenheiten z. B. Zuwanderung, soziale Sicherung, zum Leben in der Bundesrepublik Deutschland, bei persönlichen Problemen und Schwierigkeiten, die mit der Zuwanderung entstehen, über Möglichkeiten des Erlernens der deutschen Sprache in Sprachkursen.","Beratung","df402493-f467-4472-8b98-9038d2ac967e",,"51.274334","14.096299"
"Caritas Verband Oberlausitz e.V.- Schwangerschaftsberatung, Einzel- und Paarberatung, Sexualpädagogik",,"Kirchplatz 2","02625","Bautzen","Montag und Donnerstag 13 - 17 Uhr, Dienstag 8 - 12 Uhr, Mittwoch 13 - 15 Uhr ","03591 498260","03591 498219","schwangerschaftsberatung@caritas-oberlausitz.de","http://www.caritas-oberlausitz.de/cs1.htm#Schwangerschaftsberatung%20Bautzen",,"Gisela Grubert und Franziska Hennig","Gisela Grubert und Franziska Hennig","Deutsch","Sexualpädagogik - Gruppenangebote für Schulen, Gemeinden, Kinder und Jugendliche sowie Eltern","Beratung","df402493-f467-4472-8b98-9038d2ac967e",,"51.180624","14.42895"
"Caritas Verband Oberlausitz e.V. - Schwangerschaftsberatung, Einzel- und Paarberatung, Sexualpädagogik",,"Haydnstraße 8","01917","Kamenz","Mittwoch 8 - 14 Uhr","03578 374322","03578 374324","schwangerschaftsberatung@caritas-oberlausitz.de","http://www.caritas-oberlausitz.de/cs1.htm#Schwangerschaftsberatung%20Kamenz",,"Gisela Grubert","Gisela Grubert","Deutsch","Sexualpädagogik - Gruppenangebote für Schulen, Gemeinden, Kinder und Jugendliche sowie Eltern","Beratung","df402493-f467-4472-8b98-9038d2ac967e",,"51.274334","14.096299"
"Caritas Verband Oberlausitz e.V. - Sozialer Möbeldienst ",,"Edison-Straße 17","02625","Bautzen","Montag + Mittwoch 10 - 12 Uhr, Dienstag + Donnerstag 13 - 18 Uhr","03591 302014","03591 599584","moebeldienst@caritas-oberlausitz.de","http://www.moebeldienst-bautzen.de/",,"Thomas Zschornack","Thomas Zschornack","Deutsch","Das Angebot unseres Möbeldienstes können Sie tagesaktuell auf der Homepage ansehen. Ratenvereinbarungen sind möglich. Helfen Sie uns auch durch Ihre Möbelspende - rufen Sie an - wir vereinbaren kurzfristig einen Termin mit Ihnen und holen die Gegenstände bei Ihnen kostenlos ab.","Spenden und Angebote","744f41e9-799c-432b-a9a3-e78d471ec51a",,"51.16362","14.42515"
"Caritas Verband Oberlausitz e.V. - Soziale Beratung für Schuldner",,"Haydnstraße 8","01917","Kamenz","Montag 13 - 17 Uhr, Dienstag 9 - 16 Uhr,  Freitag 9 - 12 Uhr","03578 374323",,"schuldnerberatung@caritas-oberlausitz.de","http://www.caritas-oberlausitz.de/cs1.htm#Schuldner",,"Bernward Kreutzkam, Jochen Minihoffer ","Bernward Kreutzkam, Jochen Minihoffer ","Deutsch",,"Beratung","df402493-f467-4472-8b98-9038d2ac967e",,"51.274334","14.096299"
"Tauschbörse für Kindersachen + Kleinhaushaltsgeräte",,"Haydnstraße 8","01917","Kamenz","Mittwoch 9 - 12 Uhr","03578 374321",,,,,,,"Deutsch",,"Spenden und Angebote","744f41e9-799c-432b-a9a3-e78d471ec51a",,"51.274334","14.096299"
"Caritas - Regionalstelle Görlitz-  Sozialberatung sowie Kontakt- und Beratungsstelle für Menschen mit psychischen Beeinträchtigungen",,"Ludwig-van-Beethoven-Straße 26","02977","Hoyerswerda",,"03571 979256","03571 978355","regionalstelle@caritas-hoyerswerda.de","http://www.dicvgoerlitz.caritas.de/62456.html",,"Gabriele Hanschmidt","Gabriele Hanschmidt","Deutsch",,"Beratung","df402493-f467-4472-8b98-9038d2ac967e",,"51.43802","14.27085"
"Caritas Verband Oberlausitz e.V. - Kontakt- und Beratungsstelle für Menschen mit psychischen Beeinträchtigungen",,"Straße der Einheit 2","01917","Kamenz",,"03571 979256","03571 978355","regionalstelle@caritas-hoyerswerda.de","http://www.dicvgoerlitz.caritas.de/62456.html",,"Mandy Schimmank","Mandy Schimmank","Deutsch",,"Beratung","df402493-f467-4472-8b98-9038d2ac967e",,"51.282667","14.108999"
"Caritas - Schuldnerberatung ",,"Heidestraße 70","01454","Radeberg ","Do 12:30 - 17:30 Uhr","03528 9462118",,,"https://www.caritas.de/adressen/caritasverband-fuer-dresden-e.-v/schuldnerberatung-radeberg/01454-radeberg/107760",,"Irene Scheithauer","Irene Scheithauer","Deutsch","Außenstelle des Caritasverbands Dresden e.V.","Beratung","df402493-f467-4472-8b98-9038d2ac967e",,"51.108867","13.903052"
"Volkssolidarität KV Bautzen e.V.- Schuldner- und Insolvenzberatungberatung",,"Bahnhofstraße 21","01877","Bischofswerda","Montag 09:00–18:00, Dienstag-Donnerstag 09:00–15:30, Freitag 09:00–13:00","03594 743640","03594 743645","ute.herrmann@volkssolidaritaet.de","https://volkssoli-bautzen.de/soziale%20dienste/schuldner-%20und%20verbraucherinsolvenz.html",,"Ute Herrmann","Ute Herrmann","Deutsch","Die Beratungen werden im Rahmen der persönlichen Hilfe, kostenlos und unter Einhaltung des Datenschutzes durchgeführt. Wir analysieren mit der Gegenüberstellung der Einnahmen, Ausgaben, Ihre finanzielle Situation und die Führung eines Haushaltbuches wird ermöglicht. Wir erarbeiten mit Ihnen und für Sie Schuldenbereinigungspläne, Ratenzahlungen und führen Vergleichsverhandlungen mit den Gläubigern. Wir helfen Ihnen bei der Erstellung und beim Ausfüllen des Insolvenzantrages, wenn die außergerichtliche Schuldenregulierung mit Hilfe unserer Beratungsstelle durchgeführt wurde. Wir sind vom Freistaat Sachsen anerkannte und geförderte Stelle (Insolvenzberatung)  und sind damit berechtigt Ihnen eine Bescheinigung über das Scheitern des Einigungsversuches (§305 Abs. 1 Nr. 1 InsO zu erteilen.

 ","Beratung","df402493-f467-4472-8b98-9038d2ac967e",,"51.12585","14.18272"
"Volkssolidarität KV Bautzen e.V.- Schuldner- und Insolvenzberatungberatung",,"Flinzstraße 15a","02625","Bautzen","Montag und Mittwoch 09:00 - 18:00 Uhr, Dienstag und Donnerstag  09:00 - 15:00 Uhr, Freitag 09:00 - 12:00 Uhr","03591 5980860","03591 3515959","ralf.dworatzek@volkssolidaritaet.de","https://volkssoli-bautzen.de/soziale%20dienste/schuldner-%20und%20verbraucherinsolvenz.html",,"Ralf Dworatzek","Ralf Dworatzek","Deutsch","Die Beratungen werden im Rahmen der persönlichen Hilfe, kostenlos und unter Einhaltung des Datenschutzes durchgeführt. Wir analysieren mit der Gegenüberstellung der Einnahmen, Ausgaben, Ihre finanzielle Situation und die Führung eines Haushaltbuches wird ermöglicht. Wir erarbeiten mit Ihnen und für Sie Schuldenbereinigungspläne, Ratenzahlungen und führen Vergleichsverhandlungen mit den Gläubigern. Wir helfen Ihnen bei der Erstellung und beim Ausfüllen des Insolvenzantrages, wenn die außergerichtliche Schuldenregulierung mit Hilfe unserer Beratungsstelle durchgeführt wurde. Wir sind vom Freistaat Sachsen anerkannte und geförderte Stelle (Insolvenzberatung)  und sind damit berechtigt Ihnen eine Bescheinigung über das Scheitern des Einigungsversuches (§305 Abs. 1 Nr. 1 InsO zu erteilen.

 ","Beratung","df402493-f467-4472-8b98-9038d2ac967e",,"51.18694","14.43389"
"Caritas Verband Oberlausitz e.V. - Allgemeine soziale Beratung",,"Kirchplatz 2","02625","Bautzen","Montag 10 - 12 Uhr und 15 - 17 Uhr, Mittwoch und Freitag 10 - 12 Uhr ","03591 498240","03591 498219","sozialberatung.bz@caritas-oberlausitz.de","http://www.caritas-oberlausitz.de/cs1.htm#AsB%20Bautzen",,"Andreas Deckwart","Andreas Deckwart","Deutsch",,"Beratung","df402493-f467-4472-8b98-9038d2ac967e",,"51.180624","14.42895"
"Sozialberatung des Diakonischen Werkes Bautzen e.V. ","Altenpflegeheim 'Zur Heimat', Büro des Ambulanten Hospizdienstes","Bautzener Straße 37","01877","Bischofswerda","Donnerstag: 15.00 – 17.00 Uhr","03594 756143 (während der Sprechzeit) oder unter 03591  481650",,"h.kreiss@diakonie-bautzen.de","http://www.diakonie-bautzen.de/BERATUNG-UND-HILFE/Sozialarbeit-und-soziale-Beratung.html",,"Hermann Kreiß","Hermann Kreiß","Deutsch","Die Allgemeine Soziale Beratung bzw. Kirchenbezirkssozialarbeit der Diakonie Bautzen hilft Ihnen zu klären, welchen Teil Ihres Problems Sie selbst bewältigen können und welchen Sie sich durch Information und Hilfe von außen abnehmen lassen können. Veränderung kommt selten schlagartig. U. a. dürfen sich auch Selbsthilfegruppen vertrauensvoll an uns wenden. Die fachlich kompetenten Mitarbeitenden bieten in regelmäßigen Sprechstunden und Hausbesuchen ihren Dienst kostenlos an. Unser Angebot: Anlaufstelle für Hilfesuchende, Hilfs- und Beratungsangebote für Einzelpersonen, Familien und Gruppen, Professionelle Beratung für Gemeindekreise, Kirchenvorstände, Mitarbeitende kirchlicher und kommunaler Dienste, Anhörung, Bearbeitung und/oder Vermittlung Ihres Anliegens, Vernetztes Hilfsangebot mit anderen sozialen Trägern, Ämtern und Behörden, Gemeinsames Erarbeiten eines Lösungskonzeptes für Ihre Probleme, Vermittlung von lebenspraktischen und finanziellen Hilfen, Psychosoziale Betreuung, Beratungsangebot für Familien- und Seniorenerholung, sowie Kuren und Freizeiten, Öffentlichkeitsarbeit durch Vorträge u. a. (Information, Prävention), Ehrenamtliche Mitarbeit.","Beratung","df402493-f467-4472-8b98-9038d2ac967e",,"51.130217","14.181941"
"Sozialberatung des Diakonischen Werkes Bautzen e.V. ",,"Karl-Liebknecht-Straße 16","02625","Bautzen","Dienstag: 9.00 Uhr – 11.00 Uhr, 14.00 Uhr – 17.00 Uhr, Donnerstag: 9.00 Uhr – 11.00 Uhr"," 03591  481650","03591 481642","h.kreiss@diakonie-bautzen.de","http://www.diakonie-bautzen.de/BERATUNG-UND-HILFE/Sozialarbeit-und-soziale-Beratung.html",,"Hermann Kreiß","Hermann Kreiß","Deutsch","Die Allgemeine Soziale Beratung bzw. Kirchenbezirkssozialarbeit der Diakonie Bautzen hilft Ihnen zu klären, welchen Teil Ihres Problems Sie selbst bewältigen können und welchen Sie sich durch Information und Hilfe von außen abnehmen lassen können. Veränderung kommt selten schlagartig. U. a. dürfen sich auch Selbsthilfegruppen vertrauensvoll an uns wenden. Die fachlich kompetenten Mitarbeitenden bieten in regelmäßigen Sprechstunden und Hausbesuchen ihren Dienst kostenlos an. Unser Angebot: Anlaufstelle für Hilfesuchende, Hilfs- und Beratungsangebote für Einzelpersonen, Familien und Gruppen, Professionelle Beratung für Gemeindekreise, Kirchenvorstände, Mitarbeitende kirchlicher und kommunaler Dienste, Anhörung, Bearbeitung und/oder Vermittlung Ihres Anliegens, Vernetztes Hilfsangebot mit anderen sozialen Trägern, Ämtern und Behörden, Gemeinsames Erarbeiten eines Lösungskonzeptes für Ihre Probleme, Vermittlung von lebenspraktischen und finanziellen Hilfen, Psychosoziale Betreuung, Beratungsangebot für Familien- und Seniorenerholung, sowie Kuren und Freizeiten, Öffentlichkeitsarbeit durch Vorträge u. a. (Information, Prävention), Ehrenamtliche Mitarbeit.","Beratung","df402493-f467-4472-8b98-9038d2ac967e",,"51.17441","14.4342"
"Sozialverband VdK Sachsen e.V. - Beratungsstelle für behinderte und chronisch kranke Menschen","1. Obergeschoss","Töpferstr. 17","02625","Bautzen","Mittwoch 8 bis 12 Uhr und 14 bis 15.30 Uhr, um eine vorherige telefonische Anmeldung wird gebeten. Zusätzlich Freitag von 10 bis12 Uhr für Terminvereinbarungen.","03591 / 48 13 61","03591 / 53 24 91","kv-bautzen@vdk.de","http://www.vdk.de/kv-bautzen/ID40128",,"Jörg Jonas","Jörg Jonas","Deutsch","Eine Beratung ist nicht an eine Mitgliedschaft gebunden. Die Mitgliedschaft ist notwendig, wenn wir Sie gegenüber Behörden vertreten sollen. Eine Mitgliedschaft kann weiterhin erforderlich werden, wenn wir das komplette Ausfüllen von Anträgen für Sie übernehmen sollen.","Beratung","df402493-f467-4472-8b98-9038d2ac967e",,"51.183108","14.429835"
"Sozialverband VdK Sachsen e.V. - Offene Beratungsstelle für behinderte Menschen",,"Pulsnitzer Str. 11","01917","Kamenz","Dienstag und Donnerstag von 9 Uhr bis 12 Uhr und 13 Uhr bis 15 Uhr - um eine vorherige telefonische Terminvereinbarung wird gebeten.","03578 / 7036936","03578 / 7036937","kv-bautzen@vdk.de","http://www.vdk.de/kv-bautzen/ID40128",,"Jörg Jonas","Jörg Jonas","Deutsch","Eine Beratung ist nicht an eine Mitgliedschaft gebunden. Die Mitgliedschaft ist notwendig, wenn wir Sie gegenüber Behörden vertreten sollen. Eine Mitgliedschaft kann weiterhin erforderlich werden, wenn wir das komplette Ausfüllen von Anträgen für Sie übernehmen sollen.","Beratung","df402493-f467-4472-8b98-9038d2ac967e",,"51.270127","14.093038"
"Sozialverband VdK Sachsen e.V. - Offene Beratungsstelle für behinderte Menschen",,"Liselotte-Herrmann-Str. 50a","02977","Hoyerswerda","Montag von 10 bis 13 Uhr und nach Vereinbarung","03571-414947","03571-478752","ov-hoyerswerda@vdk.de",,,"Ines Pattky","Ines Pattky","Deutsch","Eine Beratung ist nicht an eine Mitgliedschaft gebunden. Die Mitgliedschaft ist notwendig, wenn wir Sie gegenüber Behörden vertreten sollen. Eine Mitgliedschaft kann weiterhin erforderlich werden, wenn wir das komplette Ausfüllen von Anträgen für Sie übernehmen sollen.","Beratung","df402493-f467-4472-8b98-9038d2ac967e",,"51.447693","14.268339"
"Psychosoziale Beratungs- und Behandlungsstelle (PSBB) für Suchtgefährdete und –kranke der AWO KV Bautzen e.V.",,"Löbauer Straße 48","02625","Bautzen","Mo: 09:00 - 12:00 und 13:00 - 15:00, Di:  09:00 - 12:00 und 13:00 - 19:00, Do: 09:00 - 12:00 und 13:00 - 19:00, Fr:  09:00 - 11:00 (mit Voranmeldung), Offene Sprechzeiten - ausschließlich für neue Klienten (Wartezeit ist einzuplanen) Do: 09:00 - 11:00","03591 3261140","03591 3261148","suchtberatung@awo-bautzen.de ","http://www.awo-bautzen.de/suchtberatungsstelle.html",,"Jana Stahn (Dipl.Psychologin)","Jana Stahn (Dipl.Psychologin)","Deutsch","Wir unterstützen Betroffene und deren Angehörige bei Problemen in den Bereichen Alkohol, illegale Drogen, Medikamente, Glücksspiel, Nikotin, Essstörungen.
Auf Wunsch beraten wir anonym. Wir unterliegen der Schweigepflicht. Überweisungsschein ist nicht erforderlich.
Unsere Angebote für Betroffene und Angehörige sind: Beratung und Betreuung (Aufklärung und Information zu den Suchtmitteln, Krisenintervention, Vermittlung, usw.), Gruppenangebote (Info-Gruppe „Alkohol“, Info-Gruppe „Drogen“, Nachsorge-Gruppen, Angehörigen-Seminar, usw.), Tagesstrukturierende Angebote (Ausflüge, Tagestreff, usw.).","Beratung","df402493-f467-4472-8b98-9038d2ac967e",,"51.17977","14.44563"
"Psychosoziale Beratungs- und Behandlungsstelle (PSBB) für Suchtgefährdete und –kranke der AWO KV Bautzen e.V.","Außenstelle","Am Lutherpark 7","01877","Bischofswerda","Mo. 08:00 - 11:30 , Di.  09:00 - 12:00 und 12:30 - 15:00, Do. 09:00 - 12:00 und 13:00 - 19:00,  Fr.  08:00 - 10:30 ","03594 703408 ","03591 715161","siehe oben","siehe oben",,"Christiane Schiemank (Diplom-Sozialpädagogin/Diplom-Sozialarbeiterin)","Christiane Schiemank (Diplom-Sozialpädagogin/Diplom-Sozialarbeiterin)","Deutsch","Wir unterstützen Betroffene und deren Angehörige bei Problemen in den Bereichen Alkohol, illegale Drogen, Medikamente, Glücksspiel, Nikotin, Essstörungen.
Auf Wunsch beraten wir anonym. Wir unterliegen der Schweigepflicht. Überweisungsschein ist nicht erforderlich.
Unsere Angebote für Betroffene und Angehörige sind: Beratung und Betreuung (Aufklärung und Information zu den Suchtmitteln, Krisenintervention, Vermittlung, usw.), Gruppenangebote (Info-Gruppe „Alkohol“, Info-Gruppe „Drogen“, Nachsorge-Gruppen, Angehörigen-Seminar, usw.), Tagesstrukturierende Angebote (Ausflüge, Tagestreff, usw.).","Beratung","df402493-f467-4472-8b98-9038d2ac967e",,"51.12819","14.17469"
"Psychosoziale Beratungs- und Behandlungsstelle (PSBB) für Suchtgefährdete und –kranke der AWO KV Bautzen e.V.","Außensprechstunde","Dresdener Straße 35","02681","Wilthen","Fr. 08:30 - 12:30 (mit Voranmedlung über PSBB Bautzen)","03591 3261140","03591 3261148","suchtberatung@awo-bautzen.de ","http://www.awo-bautzen.de/suchtberatungsstelle.html",,"Josefine Hübner (Diplom-Sozialpädagogin)","Josefine Hübner (Diplom-Sozialpädagogin)","Deutsch","Wir unterstützen Betroffene und deren Angehörige bei Problemen in den Bereichen Alkohol, illegale Drogen, Medikamente, Glücksspiel, Nikotin, Essstörungen.
Auf Wunsch beraten wir anonym. Wir unterliegen der Schweigepflicht. Überweisungsschein ist nicht erforderlich.
Unsere Angebote für Betroffene und Angehörige sind: Beratung und Betreuung (Aufklärung und Information zu den Suchtmitteln, Krisenintervention, Vermittlung, usw.), Gruppenangebote (Info-Gruppe „Alkohol“, Info-Gruppe „Drogen“, Nachsorge-Gruppen, Angehörigen-Seminar, usw.), Tagesstrukturierende Angebote (Ausflüge, Tagestreff, usw.).","Beratung","df402493-f467-4472-8b98-9038d2ac967e",,"51.09649","14.38219"
"Psychosoziale Beratungs- und Behandlungsstelle (PSBB) für Suchtgefährdete und –kranke der AWO KV Bautzen e.V.","Außensprechstunde im Oberlausitz-Klinikum - Krankenhaus Bautzen: Haus 1 / Erdgeschoss","Am Stadtwall 3","02625","Bautzen","Do. 12:30 - 16:30 (mit Voranmedlung über PSBB Bautzen oder den Sozialdienst des Krankenhauses)","03591 3261140 (PSBB) , 03591 3632492 (Sozialdienst)",,"siehe oben","siehe oben",,,,"Deutsch","Wir unterstützen Betroffene und deren Angehörige bei Problemen in den Bereichen Alkohol, illegale Drogen, Medikamente, Glücksspiel, Nikotin, Essstörungen.
Auf Wunsch beraten wir anonym. Wir unterliegen der Schweigepflicht. Überweisungsschein ist nicht erforderlich.
Unsere Angebote für Betroffene und Angehörige sind: Beratung und Betreuung (Aufklärung und Information zu den Suchtmitteln, Krisenintervention, Vermittlung, usw.), Gruppenangebote (Info-Gruppe „Alkohol“, Info-Gruppe „Drogen“, Nachsorge-Gruppen, Angehörigen-Seminar, usw.), Tagesstrukturierende Angebote (Ausflüge, Tagestreff, usw.).","Beratung","df402493-f467-4472-8b98-9038d2ac967e",,"51.18436","14.430628"
"Suchtberatungsstelle der Diakonie Görlitz-Hoyerswerda","Haus Bethesda, Eingang C","Schulstraße 5","02977","Hoyerswerda","Montag 08:00 - 12:00 Uhr und 13:00 - 16:00 Uhr, Dienstag 08:00 - 12:00 Uhr und 14:00 - 16:00 Uhr, Donnerstag 08:00 - 12:00 Uhr und 14:00 - 18:00 Uhr, Freitag 08:00 - 12:00 Uhr. Offene Sprechstunde: montags 13:00 - 15:00 Uhr, dienstags 08:00 - 12:00 Uhr","03571/428504","03571/408255","sbb@diakonie-hoyerswerda.de","http://www.diakonie-goerlitz.de/beratungsdienste/suchtberatungs-und-behandlungsstelle-hoyerswerda/kontakt-sbb-hy.html",,"Leiterin Kerstin Schönwald (Dipl.-Sozialpädagogin/Sozialtherapeutin (VT))","Leiterin Kerstin Schönwald (Dipl.-Sozialpädagogin/Sozialtherapeutin (VT))","Deutsch","Außensprechstunde in Lauta (02991 Lauta, Rosa-Luxemburg-Straße 11) montags von 15:00 - 19:00 Uhr, Sprechstunden im Lausitzer Seenland Klinikum Hoyerswerda (02977 Hoyerswerda, Maria-Grollmuß-Straße 10) donnerstags von 09:00 - 12:00 Uhr.
 
Außerhalb der Sprechzeiten können Termine vereinbart werden, um unserem Klientel in der aktuellen Situation zu entsprechen.","Beratung","df402493-f467-4472-8b98-9038d2ac967e",,"51.43849","14.23613"
"Selbsthilfekontaktstelle der Diakonie im Landkreis Bautzen",,"Büro Hoyerswerda",,"Hoyerswerda",,"03571 / 40 83 65",,"sks-hy@diakonie-hoyerswerda.de","http://selbsthilfe-landkreis-bautzen.de/, http://www.diakonie-goerlitz.de/beratungsdienste/selbsthilfekontaktstelle-landkreis-bautzen/sks-angebote.html",,,,"Deutsch","Unsere Selbsthilfekontaktstelle ist Ansprechpartner für alle Fragen im Hinblick auf Selbsthilfe. In unserer Selbsthilfekontaktstelle können Interessierte, Betroffene und Selbsthilfegruppen (SHG) sowie Initiativen und Vereine, Beratung und Hilfe bei der Bewältigung von Problemen erhalten. Wir unterstützen Selbsthilfegruppen und -initiativen bei Gründung, Begleitung, Öffentlichkeitsarbeit und Organisation. Auch die Vernetzung mit Ämtern, Institutionen und Politik ist eine unserer Aufgaben. Erfahrungen austauschen, voneinander lernen, sich gegenseitig ermutigen und entlasten, gemeinsam Fähigkeiten aneignen, um so den Alltag besser zu meistern: das ist Selbsthilfe. Folgende Selbsthilfegruppen nach Themen gibt es: chronische Erkrankungen, Menschen mit Behinderungen, psychosoziale Bereiche, Sucht , Angehörigenhilfe, Soziale und Seniorenselbsthilfe.","Beratung","df402493-f467-4472-8b98-9038d2ac967e",,"51.431597","14.253035"
"Selbsthilfekontaktstelle der Diakonie im Landkreis Bautzen",,"Büro Bautzen",,"Bautzen",,"03591 / 35 15 86 3",,"sks-hy@diakonie-hoyerswerda.de","http://selbsthilfe-landkreis-bautzen.de/, http://www.diakonie-goerlitz.de/beratungsdienste/selbsthilfekontaktstelle-landkreis-bautzen/sks-angebote.html",,,,"Deutsch","Unsere Selbsthilfekontaktstelle ist Ansprechpartner für alle Fragen im Hinblick auf Selbsthilfe. In unserer Selbsthilfekontaktstelle können Interessierte, Betroffene und Selbsthilfegruppen (SHG) sowie Initiativen und Vereine, Beratung und Hilfe bei der Bewältigung von Problemen erhalten. Wir unterstützen Selbsthilfegruppen und -initiativen bei Gründung, Begleitung, Öffentlichkeitsarbeit und Organisation. Auch die Vernetzung mit Ämtern, Institutionen und Politik ist eine unserer Aufgaben. Erfahrungen austauschen, voneinander lernen, sich gegenseitig ermutigen und entlasten, gemeinsam Fähigkeiten aneignen, um so den Alltag besser zu meistern: das ist Selbsthilfe. Folgende Selbsthilfegruppen nach Themen gibt es: chronische Erkrankungen, Menschen mit Behinderungen, psychosoziale Bereiche, Sucht , Angehörigenhilfe, Soziale und Seniorenselbsthilfe.","Beratung","df402493-f467-4472-8b98-9038d2ac967e",,"51.18154","14.42836"
"Suchtberatungs- und -behandlungsstelle der Diakonie Kamenz, Diakonisches Werk Kamenz e.V.",,"Fichtestraße 8","01917","Kamenz","Montag 9.00 Uhr - 12.00 Uhr und 16.00 Uhr - 19.00 Uhr, Dienstag und Donnerstag 8.00 Uhr - 12.00 Uhr und 13.00 Uhr - 15.00 Uhr, Mittwoch 9.00 Uhr - 12.00 Uhr und 13.00 Uhr - 18.00 Uhr","03578 3854-30","03578 3854-31","sbb.dw-kamenz@evlks.de","http://www.diakonie-kamenz.de/beratungsdienste_suchtberatungs-_und_-behandlungsstelle_de.html",,"Simone Mattukat","Simone Mattukat","Deutsch","Wir beraten betroffene Suchtkranke und Suchtgefährdete, deren Angehörige und andere interessierte Personen. Wir helfen und beraten bei Problemen und Fragen zu: Alkohol, illegalen Drogen, Medikamenten, Nikotin, Essstörungen, Spielsucht und andere. Wir bieten: Beratung und Behandlung, Gruppenangebote, Krankenhaussprechzeiten, Vermittlung in stationäre Behandlung, ambulante Nachsorge, niedrigeschwellige Kontaktangebote und Prävention","Beratung","df402493-f467-4472-8b98-9038d2ac967e",,"51.272953","14.107289"
"Suchtberatungs- und -behandlungsstelle der Diakonie Kamenz, Diakonisches Werk Kamenz e.V.","Außenstelle Radeberg: Bürgerhaus Radeberg","Bruno-Thum-Weg 2","01454","Radeberg","Montag 08:00 Uhr - 11.00 Uhr , Dienstag 08.30 Uhr - 12.00 Uhr und 12.30 Uhr - 18.00 Uhr, Mittwoch 10.00 Uhr - 14.00 Uhr, Donnerstag 08.00 Uhr - 12.00 Uhr","03528 413307","03528 418367","sbb.dw-kamenz@evlks.de","http://www.diakonie-kamenz.de/suchtberatungs-_und_-behandlungsstelle_wann_wo_de.html",,"Anett Wehner","Anett Wehner","Deutsch","Unsere Selbsthilfekontaktstelle ist Ansprechpartner für alle Fragen im Hinblick auf Selbsthilfe. In unserer Selbsthilfekontaktstelle können Interessierte, Betroffene und Selbsthilfegruppen (SHG) sowie Initiativen und Vereine, Beratung und Hilfe bei der Bewältigung von Problemen erhalten. Wir unterstützen Selbsthilfegruppen und -initiativen bei Gründung, Begleitung, Öffentlichkeitsarbeit und Organisation. Auch die Vernetzung mit Ämtern, Institutionen und Politik ist eine unserer Aufgaben. Erfahrungen austauschen, voneinander lernen, sich gegenseitig ermutigen und entlasten, gemeinsam Fähigkeiten aneignen, um so den Alltag besser zu meistern: das ist Selbsthilfe. Folgende Selbsthilfegruppen nach Themen gibt es: chronische Erkrankungen, Menschen mit Behinderungen, psychosoziale Bereiche, Sucht , Angehörigenhilfe, Soziale und Seniorenselbsthilfe.","Beratung","df402493-f467-4472-8b98-9038d2ac967e",,"51.12142","13.9246"
"Suchtberatungs- und -behandlungsstelle der Diakonie Kamenz, Diakonisches Werk Kamenz e.V.","Diakonie - Sozialstation","Fried-Walter-Straße 2","01458","Ottendorf-Okrilla","Dienstag 14.00 Uhr - 19.00 Uhr; Beratung nach telefonischer Terminvereinbarung","03578 3854-30",,"sbb.dw-kamenz@evlks.de","http://www.diakonie-kamenz.de/suchtberatungs-_und_-behandlungsstelle_wann_wo_de.html",,"Jens Gahrig","Jens Gahrig","Deutsch","Unsere Selbsthilfekontaktstelle ist Ansprechpartner für alle Fragen im Hinblick auf Selbsthilfe. In unserer Selbsthilfekontaktstelle können Interessierte, Betroffene und Selbsthilfegruppen (SHG) sowie Initiativen und Vereine, Beratung und Hilfe bei der Bewältigung von Problemen erhalten. Wir unterstützen Selbsthilfegruppen und -initiativen bei Gründung, Begleitung, Öffentlichkeitsarbeit und Organisation. Auch die Vernetzung mit Ämtern, Institutionen und Politik ist eine unserer Aufgaben. Erfahrungen austauschen, voneinander lernen, sich gegenseitig ermutigen und entlasten, gemeinsam Fähigkeiten aneignen, um so den Alltag besser zu meistern: das ist Selbsthilfe. Folgende Selbsthilfegruppen nach Themen gibt es: chronische Erkrankungen, Menschen mit Behinderungen, psychosoziale Bereiche, Sucht , Angehörigenhilfe, Soziale und Seniorenselbsthilfe.","Beratung","df402493-f467-4472-8b98-9038d2ac967e",,"51.184583","13.826482"
"Suchtberatungs- und -behandlungsstelle der Diakonie Kamenz, Diakonisches Werk Kamenz e.V.","Diakonie - Sozialstation","Poststraße 5","01896","Pulsnitz","Donnerstag 13.00 Uhr - 17.00 Uhr; Beratung nach telefonischer Terminvereinbarung","035955 749415",,"sbb.dw-kamenz@evlks.de","http://www.diakonie-kamenz.de/suchtberatungs-_und_-behandlungsstelle_wann_wo_de.html",,"Kerstin Rayczyk","Kerstin Rayczyk","Deutsch","Unsere Selbsthilfekontaktstelle ist Ansprechpartner für alle Fragen im Hinblick auf Selbsthilfe. In unserer Selbsthilfekontaktstelle können Interessierte, Betroffene und Selbsthilfegruppen (SHG) sowie Initiativen und Vereine, Beratung und Hilfe bei der Bewältigung von Problemen erhalten. Wir unterstützen Selbsthilfegruppen und -initiativen bei Gründung, Begleitung, Öffentlichkeitsarbeit und Organisation. Auch die Vernetzung mit Ämtern, Institutionen und Politik ist eine unserer Aufgaben. Erfahrungen austauschen, voneinander lernen, sich gegenseitig ermutigen und entlasten, gemeinsam Fähigkeiten aneignen, um so den Alltag besser zu meistern: das ist Selbsthilfe. Folgende Selbsthilfegruppen nach Themen gibt es: chronische Erkrankungen, Menschen mit Behinderungen, psychosoziale Bereiche, Sucht , Angehörigenhilfe, Soziale und Seniorenselbsthilfe.","Beratung","df402493-f467-4472-8b98-9038d2ac967e",,"51.185093","14.014123"
"Diakonisches Werk Pirna e.V. - Jugendmigrationsdienst Pirna",,"Fichtestraße 8","01917","Kamenz","Sprechzeiten in Kamenz: Donnerstag 09.00 Uhr - 12.00 Uhr und 13.00 Uhr - 17.00 Uhr sowie nach Vereinbarung ","03578 3854-23",,"jmd@diakonie-pirna.de ","http://www.diakonie-kamenz.de/beratungsdienste_angebote_fuer_migranten_de.html",,"Katrin Niederlag","Katrin Niederlag","Deutsch, Englisch, Russisch","Wir beraten, begleiten, informieren und unterstützen junge Menschen mit Migrationshintergrund im Alter von 12 bis 27 Jahren. Wir helfen bei der sprachlichen, beruflichen und sozialen Eingliederung. Wir geben Orientierungshilfen in allgemeinen Integrationsangelegenheiten, bei der Ausbildungs- und Berufswahl. Wir bieten Informationsveranstaltungen zu verschiedenen Themen sowie Bewerbungstrainings an. Schwerpunkte: - allgemeine Beratung in persönlichen und finanziellen Fragen,  Informationen zu Ausbildungssystem und Arbeitsmarkt, - berufliche Orientierung, -  Bewerbungshilfe, - Anerkennung ausländischer Abschlüsse ","Beratung","df402493-f467-4472-8b98-9038d2ac967e",,"51.272953","14.107289"
"Schwangeren- und Familienberatung der Diakonie Kamenz, Diakonisches Werk Kamenz e.V.",,"Fichtestraße 8","01917","Kamenz","Montag vormittags nach Vereinbarung und 14.00 Uhr - 18.00 Uhr, Dienstag 9.00 Uhr - 12.00 Uhr und 14.00 Uhr - 16.00 Uhr, Mittwochnach Vereinbarung,Donnerstag 9.00 Uhr - 12.00 Uhr und nachmittags nach Vereinbarung, Freitag  9.00 Uhr - 12.00 Uhr und nachmitt","03578 3854-40","03578 3854-41","sfb.dw-kamenz@evlks.de","http://www.diakonie-kamenz.de/beratungsdienste_schwangeren-_und_familienberatung_de.html",,,,"Deutsch","Beratung zu rechtlichen, psychosozialen und medizinischen Fragen, Beratung zu Fragen der Familienplanung, Empfängnisverhütung und Sexualität , Unterstützung bei der Vermittlung finanzieller Hilfen für Schwangere und Familien, Beratung im Zusammenhang mit vorgeburtlichen Untersuchungen, Beratung nach Schwangerschaftsabbruch, Unterstützung bei der Bewältigung von Fehl- und Totgeburte , Schwangerschaftskonfliktberatung nach § 219 StGB, Paar- und Lebensberatung, Gruppenveranstaltungen und Sexualpädagogik, Beratung zu Kuren für Mütter, Väter bzw. Schwangere. Die Beratung ist kostenfrei und unabhängig von Religion oder Weltanschauung. Wir unterliegen der gesetzlichen Schweigepflicht und beraten Sie auf Wunsch anonym.K57","Beratung","df402493-f467-4472-8b98-9038d2ac967e",,"51.272953","14.107289"
"Stadtbibliothek Radeberg",,"Hauptstr. 2","01454","Radeberg","Montag11 - 18 Uhr, Dienstag10 - 18 Uhr, Donnerstag11 - 18 Uhr, Freitag10 - 18 Uhr","(03528) 44 23 80",,"bibliothek@radeberg.de","http://www.radeberg.de/inhalte/radeberg/_inhalt/bildung_soziales/bibliothek/bibliothek",,,,"Deutsch","Die Stadtbibliothek Radeberg bietet durch ihre technisch moderne und behindertengerechte Ausstattung für Sie eine komfortable Nutzung und schafft Raum zum Lernen und Entspannen. Der Bestand bietet ein umfassendes Angebot an Romanen, Kinderbüchern, Fachliteratur sowie audiovisuelle Medien (DVD, CD, CD-ROM, Wii-Spiele).In der Stadtbibliothek Radeberg finden jedes Jahr eine Reihe von Veranstaltungen statt, wie z. B.: Klassenführungen mit Interneteinführung, Autorenlesungen, Vorlesenachmittage für Kinder, lit. Veranstaltungen für Erwachsene, Bücherflohmarkt, Ausstellungen zu aktuellen Themen in Bibliotheksräumen. Außerdem ist in der Bibliothek ständig wechselnde Ausstellungen, organisiert vom Kunstverein Radeberg e. V.","Arbeit und Bildung","d29bbe86-ecd6-42df-8054-70a90ec7b535",,"51.08304","13.90118"
"Stadtbibliothek Radeberg - Außenstelle Liegau-Augustusbad",,"Rödertalstraße 73","01454","Radeberg","Dienstag 13 - 18 Uhr, Donnerstag 13 - 18 Uhr",,,"bibliothek@radeberg.de","http://www.radeberg.de/inhalte/radeberg/_inhalt/bildung_soziales/bibliothek/bibliothek",,,,"Deutsch","Angebot an Romanen, Kinderbüchern, Fachliteratur sowie audiovisuelle Medien (DVD, CD, CD-ROM, Wii-Spiele).In der Stadtbibliothek Radeberg finden jedes Jahr eine Reihe von Veranstaltungen statt, wie z. B.: Klassenführungen mit Interneteinführung, Autorenlesungen, Vorlesenachmittage für Kinder, lit. Veranstaltungen für Erwachsene, Bücherflohmarkt, Ausstellungen zu aktuellen Themen in Bibliotheksräumen. Außerdem ist in der Bibliothek ständig wechselnde Ausstellungen, organisiert vom Kunstverein Radeberg e. V.","Arbeit und Bildung","d29bbe86-ecd6-42df-8054-70a90ec7b535",,"51.13759","13.90067"
"Brigitte-Reimann Stadtbibliothek Hoyerswerda",,"Dietrich-Bonhoeffer-Straße 6","02977","Hoyerswerda","Montag 13.00 bis 18.00 Uhr, Dienstag 10.00 bis 19.00 Uhr, Donnerstag 10.00 bis 19.00 Uhr, Freitag 10.00 bis 18.00 Uhr, Samstag 10.00 bis 13.00 Uhr","03571 / 60 77 53","03571 / 60 79 55 9","info@bibliothek-hy.de","www.bibliothek-hy.de",,"Annekathrin Trojahn","Annekathrin Trojahn","Deutsch","Mit rund 70.000 Medieneinheiten, mehr als 300.000 Entleihungen und ca. 100.000 Besuchern im Jahr, gehört die Brigitte-Reimann Stadtbibliothek zu den zehn Bibliotheken, die bundesweit viermal Gold in allen vier erreichbaren Katergorien, Nutzung, Angebot, Wirtschaftlichkeit und Entwicklungspotential, erhielten. Das Herz des Bestandes bildet nach wie vor das „Lesefutter“ – vom Bilderbuch bis zum 1000-Seiten Schmöker. Die inhaltlich wie technisch moderne Bibliothek, bietet auf zwei Etagen und über tausend Quadratmetern aber auch zahlreiche andere Medien, wie Gesellschaftsspiele, Zeitschriften, Hörbücher, DVD und Blu-ray Disc sowie Konsolenspiele. Im Internet-Café hat der Leser (übrigens auch ohne gültigen Benutzerausweis) Zugriff auf ca. 70 Zeitschriftentitel vom Anglerblatt „Blinker“ bis zum Einrichtungsjournal „Zu Hause wohnen“.","Arbeit und Bildung","d29bbe86-ecd6-42df-8054-70a90ec7b535",,"51.43637","14.25677"
"Stadtbibliothek Bischofswerda",,"Dresdener Straße 1","01877","Bischofswerda","Montag 10-18 Uhr, Dienstag 12-18 Uhr, Donnerstag 10-18 Uhr, Freitag 10-13 Uhr","03594 786-160",,"stadtbibliothek@bischofswerda.de","http://www.bischofswerda.de/kultur-freizeit-und-tourismus/bibliothek.html",,,,"Deutsch","Die Bibliothek ist eine der ältesten Kultur- und Bildungseinrichtungen der Stadt Bischofswerda.Auf einer Fläche von ca. 500 m² stehen den Besuchern ca. 33.000 Medien zur Verfügung. Der Bestand der Bibliothek wird ständig auf dem Laufenden gehalten. Dabei wird die Nachfrage der Leser und der Trend auf dem Literatur- und Medienmarkt natürlich berücksichtigt. Die Stadtbibliothek Bischofswerda ist auch im Bibo-Sax, dem Medienkatalog der öffentlichen Bibliotheken Sachsen, zu finden. Leserwünsche können somit auch aus anderen Bibliotheken realisiert werden. Unsere Bibliothek bietet Ihnen eine große Auswahl an Belletristik für Erwachsene, Jugendliche und Kinder, Sachliteratur für jede Altersklasse, Zeitschriften, DVDs, Musik-CDs, Wii- und PC-Spiele. ","Arbeit und Bildung","d29bbe86-ecd6-42df-8054-70a90ec7b535",,"51.12697","14.17894"
"Krankenhaus Bautzen Oberlausitz Kliniken gGmbH",,"Am Stadtwall 3","02625","Bautzen",,"(03591) 363 - 0","(03591) 363 - 2455","info@oberlausitz-kliniken.de","http://www.oberlausitz-kliniken.de/Krankenhaus-Bautzen.9.0.html","https://www.facebook.com/pages/Oberlausitz-Klinikum-Bautzen/155484731172937?fref=ts",,,"Deutsch","Das Krankenhaus Bautzen besteht aus folgenden Klinikteilen: Medizinische Klinik I (Schwerpunkt Herz-Kreislauf-System), Medizinische Klinik II, Chirurgische Klinik, HNO-Klinik, Urologische Klinik, Klinik für Frauenheilkunde und Geburtshilfe, Klinik für Kinder- und Jugendmedizin, Klinik für Anästhesiologie und Intensivtherapie, Augenklinik.","Allgemeines - Unterpunkt: medizinische Versorgung","010cfae4-7506-425b-ba37-80e8d83427f0","hospital","51.18436","14.430628"
"Krankenhaus Bischofswerda Oberlausitz Kliniken gGmbH",,"Kamenzer Straße 55","01877","Bischofswerda",,"(03594) 787 - 0","(03594) 787 - 3177","info@oberlausitz-kliniken.de","http://www.oberlausitz-kliniken.de/Krankenhaus-Bautzen.9.0.html","https://www.facebook.com/pages/Oberlausitz-Klinikum-Bautzen/155484731172937?fref=ts",,,"Deutsch","Das Krankenhaus Bischofswerda besteht aus folgenden Klinikteilen: Medizinische Klinik, Klinik für Frauenheilkunde und Geburtshilfe,  Chirurgische Klinik und Klinik für Anästhesiologie und Intensivtherapie.","Allgemeines - Unterpunkt: medizinische Versorgung","010cfae4-7506-425b-ba37-80e8d83427f0","hospital","51.13594","14.17925"
"Lausitzer Seenland Klinikum",,"Maria-Grollmuß-Straße 10","02977","Hoyerswerda",,"(03571) 44 - 0",,"info@seenlandklinikum.de","https://www.seenlandklinikum.de/home.html","https://www.facebook.com/pages/Seenlandklinikum-Hoyerswerda/172854149400547",,,"Deutsch","Klinik für Anästhesie, Intensiv- und Notfallmedizin, Klinik für Viszeral-, Thorax-, Gefäß- und Kinderchirurgie, Klinik für Orthopädie, Unfallchirurgie und Handchirurgie, Klinik für Urologie, Kinderurologie und onkologische Urologie, Klinik für Gynäkologie und Geburtshilfe, Hals-Nasen-Ohren-Klinik, Klinik für Dermatologie, Allergologie, Dermatochirurgie, Klinik für Kardiologie und Angiologie, Klinik für Neurologie, Klinik für Pneumologie und Schlafmedizin, Klinik für Gastroenterologie, Diabetologie und Infektiologie, Klinik für Geriatrie, Klinik für Kinder- und Jugendmedizin, Augenbelegabteilung, Institut für Radiologie, Institut für Laboratoriumsmedizin/Mikrobiologie und Krankenhaushygiene, Institut für Pathologie","Allgemeines - Unterpunkt: medizinische Versorgung","010cfae4-7506-425b-ba37-80e8d83427f0","hospital","51.44251","14.27073"
"Malteser Krankenhaus Sankt Johannes",,"Nebelschützer Straße 40","01917","Kamenz",,"03578 786-0","03578 786-115","krankenhaus.kamenz@malteser.de","http://www.malteser-krankenhaus-stjohannes.de",,,,"Deutsch","Innere Medizin, Palliativstation, Chirurgie, Geburtshilfe, Gynäkologie, Anästhesie und Intensivmedizin, Medizinische Zentren","Allgemeines - Unterpunkt: medizinische Versorgung","010cfae4-7506-425b-ba37-80e8d83427f0","hospital","51.26433","14.12324"
"Asklepios - ASB Klinik",,"Pulsnitzer Straße 60","01454","Radeberg",,"03528 4590","03528 442809","radeberg@asklepios.com","https://www.asklepios.com/radeberg/","https://www.facebook.com/AsklepiosASBKlinikRadeberg/?fref=ts",,,"Deutsch","Allgemein- und Viszeralchirurgie, Anästhesie und Intensivtherapie, Innere Medizin, Orthopädie und Unfallchirurgie","Allgemeines - Unterpunkt: medizinische Versorgung","010cfae4-7506-425b-ba37-80e8d83427f0","hospital","51.1236","13.9303"
"Sächsisches Krankenhaus für Psychiatrie und Neurologie",,"Hufelandstraße 15","01477","Arnsdorf",,"035200 26-0","035200 26-2212","poststelle@skhar.sms.sachsen.de","https://www.skh-arnsdorf.sachsen.de/startseite/",,,,"Deutsch","Klinik für Psychiatrie und Psychotherapie, Klinik für Neurologie und neurologische Intensivmedizin, Klinik für Kinder- und Jugendpsychiatrie und -psychotherapie, Klinik für forensische Psychiatrie","Allgemeines - Unterpunkt: medizinische Versorgung","010cfae4-7506-425b-ba37-80e8d83427f0","hospital","51.095222","13.997087"
"Sächsisches Epilepsiezentrum",,"Kleinwachau, Wachauer Straße 30","01454","Radeberg",,"03528 431-0","03528 431-1030","kontakt@kleinwachau.de","http://www.kleinwachau.de/","https://www.facebook.com/pages/Kleinwachau-S%C3%A4chsisches-Epilepsiezentrum/195490797159597?fref=ts",,,"Deutsch","Kompetenzzentrum für Diagnostik und Behandlung von Patienten mit Epilepsie und anderen Anfallserkrankungen","Allgemeines - Unterpunkt: medizinische Versorgung","010cfae4-7506-425b-ba37-80e8d83427f0","hospital","51.142127","13.901405"
"Dr. med. Dieter Breyer",,"Lessingstraße 1 c","02625 ","Bautzen","Montag: 8-12 und 14-17 Uhr
Dienstag: 8-12 und 14-17 Uhr
Mittwoch: 8-12 Uhr
Donnerstag: 8-12 und 14-17 Uhr
Freitag: 8-12 Uhr
Samstag und Sonntag geschlossen","(035 91) 42520",,,,,,,"Deutsch","Facharzt für Allgemeinmedizin und Praktischer Arzt","Allgemeines - Unterpunkt: medizinische Versorgung","fa815876-ad1d-433e-87ff-8de20639e2b1","medical-counselling","51.1786","14.43385"
"Andrea Gneuß",,"Kornmarkt 20","02625","Bautzen","Montag: 7-12 Uhr
Dienstag: 7-12 und 16-18 Uhr
Mittwoch: 7-10 Uhr
Donnerstag: 7-12 und 16-18 Uhr
Freitag: 7-12
Samstag und Sonntag geschlossen","(03591) 42414","(03591) 53 02 81",,,,,,"Deutsch","Fachärztin für Allgemeinmedizin und Praktische Ärztin","Allgemeines - Unterpunkt: medizinische Versorgung","fa815876-ad1d-433e-87ff-8de20639e2b1","medical-counselling","51.180051","14.427774"
"Barbara Wachner",,"Schäfferstraße 37","02625","Bautzen","Montag: 8-12 Uhr
Dienstag: 8-12 und 14-18 Uhr
Mittwoch: 8-12 Uhr
Donnerstag: 8-12 und 14-18 Uhr
Freitag: 8-12 Uhr
Samstag und Sonntag geschlossen","(03591) 44217",,,,,,,"Deutsch","Hausärztliche Internistin","Allgemeines - Unterpunkt: medizinische Versorgung","fa815876-ad1d-433e-87ff-8de20639e2b1","medical-counselling","51.185557","14.429995"
"Conrad Rentsch",,"Bautzener Straße 56","02681","Kirschau","Montag: 8-15 Uhr
Dienstag: 8-18 Uhr
Mittwoch: 8-13 Uhr
Donnerstag: 8-15 Uhr
Freitag: 8-15 Uhr","(03592) 50 23 36",,,"http://www.augenarzt-rentsch.de/",,,,"Deutsch","Facharzt für Augenheilkunde","Allgemeines - Unterpunkt: medizinische Versorgung","fa815876-ad1d-433e-87ff-8de20639e2b1","medical-counselling","51.09622","14.428733"
"Dr. med. Bisserka Kantchewa-Haustein",,"Andersen-Nexö-Straße 4","02625","Bautzen","Montag: 8-12 und 14-18 Uhr
Dienstag: 8-12 Uhr
Mittwoch: 14-18 Uhr
Donnerstag: 8-12 und 14-18 Uhr
Freitag: 8-12 Uhr","(03591) 37990",,,,,,,"Deutsch","Fachärztin für Allgemeinmedizin und Praktische Ärztin","Allgemeines - Unterpunkt: medizinische Versorgung","fa815876-ad1d-433e-87ff-8de20639e2b1","medical-counselling","51.17881","14.4183"
"Christine und Enrique Murillo",,"Töpferstraße 17","02625","Bautzen","Montag: 10-13 und 15-18 Uhr
Dienstag: 8-11 Uhr
Mittwoch: 8-13 Uhr
Donnerstag: 10-13 und 16-18 Uhr
Freitag: 8-11 Uhr","(03591) 42092",,,,,,,"Deutsch, Spanisch","Fachärzte für Allgemeinmedizin, Naturheilverfahren","Allgemeines - Unterpunkt: medizinische Versorgung","fa815876-ad1d-433e-87ff-8de20639e2b1","medical-counselling","51.183108","14.429835"
"Dr. med. Ralf Jähnig",,"Töpferstraße 17","02625","Bautzen","Montag: 7-18 Uhr
Dienstag: 7-12 Uhr
Mittwoch: 14-18 Uhr
Donnerstag: 7-18 Uhr
Freitag: 7-13 Uhr","(03591) 41135",,,,,,,"Deutsch","Facharzt für Chirurgie","Allgemeines - Unterpunkt: medizinische Versorgung","fa815876-ad1d-433e-87ff-8de20639e2b1","medical-counselling","51.183108","14.429835"
"Dr. med. Silvia Mirtschink",,"Töpferstraße 17","02625","Bautzen","Montag: 7.30 - 11 Uhr
Dienstag: 7.30 -12.30 Uhr und 14-18 Uhr
Mittwoch: 7.30 - 12.30 Uhr
Donnerstag: 14-18 Uhr
Freitag: 7.30 - 12.30 Uhr","(03591) 43123",,,,,,,"Deutsch","Hautarzt","Allgemeines - Unterpunkt: medizinische Versorgung","fa815876-ad1d-433e-87ff-8de20639e2b1","medical-counselling","51.183108","14.429835"
"Brigitte Rentsch",,"Töpferstraße 17","02625","Bautzen","Montag-Freitag: 7.30 - 12.30 Uhr
Montag: 14-18 Uhr","(03591) 44180",,,,,,,"Deutsch","Augenheilkunde","Allgemeines - Unterpunkt: medizinische Versorgung","fa815876-ad1d-433e-87ff-8de20639e2b1","medical-counselling","51.183108","14.429835"
"Dr. med. Sibylle Hackbarth",,"Friedrich-Ebert-Straße 6","02625","Bautzen","Montag: 7.30 - 12 Uhr und 14-17 Uhr
Dienstag: 7.30-12 Uhr und 14-17 Uhr
Mittwoch: 7.30 - 12 Uhr
Donnerstag: 7.30-12 und 14-19 Uhr
Freitag: 7.30-12 und 14-17 Uhr","(03591) 22084",,,,,,,"Deutsch","Kinderärztin","Allgemeines - Unterpunkt: medizinische Versorgung","fa815876-ad1d-433e-87ff-8de20639e2b1","medical-counselling","51.19257","14.44962"
"Dr. med. Ulrike Ehlers",,"Lessingstraße 6","02625","Bautzen","Montag: 8-12 und 14-16 Uhr
Dienstag: 8-12 und 14-18 Uhr
Mittwoch: 8-12 Uhr
Donnerstag: 8-12 und 14-16 Uhr
Freitag: 8-12 Uhr","(03591) 42436",,,,,,,"Deutsch","Hautärztin","Allgemeines - Unterpunkt: medizinische Versorgung","fa815876-ad1d-433e-87ff-8de20639e2b1","medical-counselling","51.178097","14.433921"
"Dr. med. Christfriede Bürger",,"Hanns-Eisler-Straße 1","02625","Bautzen","Montag: 8-12 und 14-18 Uhr
Dienstag: 8-12 Uhr
Mittwoch: 8-12 Uhr
Donnerstag: 8-12 und 14-18 Uhr
Freitag: 8-12 Uhr","(03591) 605513","(03591) 277210",,,,,,"Deutsch","Fachärztin für Allgemeinmedizin und Praktische Ärztin","Allgemeines - Unterpunkt: medizinische Versorgung","fa815876-ad1d-433e-87ff-8de20639e2b1","medical-counselling","51.1751","14.45291"
"Dr. med. Tatjana Castro Rodriguez",,"Hanns-Eisler-Straße 1","02625","Bautzen","Montag: 7.30 - 12 Uhr
Dienstag: 14 - 18 Uhr
Mittwoch: 7.30 - 12 Uhr
Donnerstag: 7.30 - 12 Uhr und 14 - 16 Uhr
Freitag: 7.30 - 12 Uhr","(03591) 23113","(03591) 277210",,,,,,"Deutsch","Fachärztin für Allgemeinmedizin und Praktischer Arzt","Allgemeines - Unterpunkt: medizinische Versorgung","fa815876-ad1d-433e-87ff-8de20639e2b1","medical-counselling","51.1751","14.45291"
"Dr. med. Ulrike Prengel",,"Goschwitzstraße 16","02625","Bautzen","Montag: 8-12 und 14-17.30 Uhr
Dienstag: 8 - 10 Uhr
Mittwoch: 8 - 12 Uhr
Donnerstag: 8 - 12 Uhr
Freitag: 8 - 12 Uhr","(03591) 303915","(03591) 278998",,,,,,"Deutsch","Fachärztin für Allgemeinmedizin ","Allgemeines - Unterpunkt: medizinische Versorgung","fa815876-ad1d-433e-87ff-8de20639e2b1","medical-counselling","51.178453","14.425913"
"Dr. med. Georg Rentsch",,"Muskauer Straße 20c","02625","Bautzen","Montag: 8-12 Uhr un 15-18 Uhr
Dienstag: 8 - 12 Uhr
Mittwoch: 8 - 12 Uhr
Donnerstag: 8-12 und 15-18 Uhr
Freitag: 8 - 12 Uhr","(03591) 601477",,,,,,,"Deutsch","Facharzt für Allgemeinmedizin und Praktischer Arzt","Allgemeines - Unterpunkt: medizinische Versorgung","fa815876-ad1d-433e-87ff-8de20639e2b1","medical-counselling","51.185679","14.442763"
"Dr. med. Ines Schampera, Dr. med. Frank Schampera",,"August-Bebel-Platz 4","02625","Bautzen","Montag: 8-12 Uhr und 15-18 Uhr
Dienstag: 8 - 12 Uhr
Mittwoch: 8 - 12 Uhr und 15-18 Uhr
Donnerstag: 8 - 12 Uhr
Freitag: 8 - 12 Uhr","(03591) 211260",,,,,,,"Deutsch","Fachärzte für Allgemeinmedizin und Praktische Ärzte","Allgemeines - Unterpunkt: medizinische Versorgung","fa815876-ad1d-433e-87ff-8de20639e2b1","medical-counselling","51.176231","14.433053"
"Dr. med. Christiane Stehr
Dr. med. Cornelia Boeck",,"Lessingstraße 5","02625","Bautzen","Montag: 8 - 14 Uhr
Dienstag: 8-12 Uhr und 15-18 Uhr
Mittwoch: 8 - 13 Uhr
Donnerstag: 8-12 Uhr und 15-18  Uhr
Freitag: 8 - 12 Uhr","(03591) 328822",,,,,,,"Deutsch","Fachärztin für Allgemeinmedizin","Allgemeines - Unterpunkt: medizinische Versorgung","fa815876-ad1d-433e-87ff-8de20639e2b1","medical-counselling","51.17805","14.4349"
"Dr. med. Ullrich Gebhardt",,"Töpferstraße 17","02625","Bautzen","Montag: 7.30 - 17 Uhr
Dienstag: 7.30 - 17 Uhr
Mittwoch: 7.30 - 17 Uhr
Donnerstag: 7.30 - 17 Uhr
Freitag: 7.30 - 14 Uhr","(03591) 43149","(03591) 460094",,"http://www.op-zentrum-ol.com/",,,,"Deutsch","Facharzt für Chirurgie","Allgemeines - Unterpunkt: medizinische Versorgung","fa815876-ad1d-433e-87ff-8de20639e2b1","medical-counselling","51.183108","14.429835"
"Dr. med. Andreas Buchholz",,"Weigangstraße 14","02625","Bautzen","Montag: 7.30-13 Uhr und 16-19 Uhr
Dienstag: 7.30-13 Uhr und 14-16 Uhr
Mittwoch: 7.30 - 13 Uhr
Donnerstag: 7.30-13 Uhr und 14-16 Uhr
Freitag: 7.30 - 13 Uhr","(03591) 40409","(03591) 43165",,,,,,"Deutsch","Facharzt für Allgemeinmedizin und Praktischer Arzt","Allgemeines - Unterpunkt: medizinische Versorgung","fa815876-ad1d-433e-87ff-8de20639e2b1","medical-counselling","51.177561","14.438933"
"Dr. med. Annette Eißler",,"Wendische Straße 7","02625","Bautzen","Montag: 7-12 Uhr und 13-18 Uhr
Dienstag: 7-12 Uhr und 13-16 Uhr
Mittwoch: 7 - 13 Uhr
Donnerstag: 7-12 Uhr und 13-15 Uhr
Freitag: 7 - 13 Uhr","(03591) 42028","(03591) 326325",,,,,,"Deutsch","Fachärztin für Allgemeinmedizin","Allgemeines - Unterpunkt: medizinische Versorgung","fa815876-ad1d-433e-87ff-8de20639e2b1","medical-counselling","51.182076","14.42627"
"Dipl.-Med. Hanka Gruß",,"Weigangstraße 14","02625","Bautzen","Montag: 7.30-11 Uhr und 13.30-18.30 Uhr
Dienstag: 7.30 - 11 Uhr
Mittwoch: 7.30 - 11 Uhr
Donnerstag: 7.30-11 Uhr und 13.30-17 Uhr
Freitag: 7.30 - 11 Uhr","(03591) 44396",,,,,,,"Deutsch","Fachärztin für Allgemeinmedizin","Allgemeines - Unterpunkt: medizinische Versorgung","fa815876-ad1d-433e-87ff-8de20639e2b1","medical-counselling","51.177561","14.438933"
"Dipl.-Med. Birgit Truhel
Dipl.-Med. Ute Zielina",,"Gesundbrunnenring 45","02625","Bautzen","Montag: 8-12 Uhr und 13.30-15 Uhr
Dienstag: 8-12 Uhr und 14-19 Uhr
Mittwoch: 8 - 12 Uhr
Donnerstag: 13.30 - 18 Uhr
Freitag: 8 - 12 Uhr","(03591) 23163",,,,,,,"Deutsch","Fachärztinnen für Allgemeinmedizin","Allgemeines - Unterpunkt: medizinische Versorgung","fa815876-ad1d-433e-87ff-8de20639e2b1","medical-counselling","51.19293","14.442"
"Dr.-med. Suann Vanryssell",,"Bertold-Brecht-Straße 2","02625","Bautzen","Montag-Freitag: 8 - 12 Uhr
Dienstag: 14 - 18 Uhr
Donnerstag: 14 - 18 Uhr","(03591) 211012",,,,,,,"Deutsch","Fachärztin für Allgemeinmedizin","Allgemeines - Unterpunkt: medizinische Versorgung","fa815876-ad1d-433e-87ff-8de20639e2b1","medical-counselling","51.177843","14.441392"
"Dipl.-Med. Martin Böhmer
Dipl.-Med. Sabine Böhmer",,"Am Schafberg 7","02625 ","Bautzen","Montag: 8-12 Uhr und 15-18 Uhr
Dienstag: 8-12 Uhr und 15-18 Uhr
Mittwoch: 8 - 12 Uhr
Donnerstag: 8-12 Uhr und 15-18 Uhr
Freitag: 8 - 12 Uhr","(03591) 601895",,,,,,,"Deutsch","Kinder- und Jugendmedizin, Fachärztin für Allgemeinmedizin","Allgemeines - Unterpunkt: medizinische Versorgung","fa815876-ad1d-433e-87ff-8de20639e2b1","medical-counselling","51.18877","14.47305"
"Dieter Gamerdinger",,"Bahnhofstraße 17","02625","Bautzen","Montag-Freitag: 8 - 12 Uhr
Montag: 14 - 18 Uhr
Dienstag: 15 - 18 Uhr
Donnerstag: 15 - 17 Uhr","(03591) 491500","(03591) 491501","info@orthopaedie-bautzen.de","http://www.orthopaedie-bautzen.de/",,,,"Deutsch","Facharzt für Orthopädie","Allgemeines - Unterpunkt: medizinische Versorgung","fa815876-ad1d-433e-87ff-8de20639e2b1","medical-counselling","51.174997","14.42957"
"Dr. Michael Bär",,"Löbauer Straße 17","02625","Bautzen","Montag: 9 - 15 Uhr
Dienstag: 9 - 13 Uhr und 14 - 17 Uhr
Donnerstag: 9-13 Uhr und 14-17 Uhr","(03591) 2777140",,"info@hautarztpraxis-baer.de","http://www.hautarztpraxis-baer.de/",,,,"Deutsch","Hautarzt","Allgemeines - Unterpunkt: medizinische Versorgung","fa815876-ad1d-433e-87ff-8de20639e2b1","medical-counselling","51.18063","14.44209"
"Dr. med. Karsten Winkler",,"Töpferstraße 17","02625","Bautzen","Montag: 14 - 16 Uhrr
Dienstag: 8 - 12 Uhr und 14 - 18 Uhr
Donnerstag: 8-12 Uhr und 14-18 Uhr
Freitag: 8 - 12 Uhr","(03591) 43118","(03591) 328895",,"http://www.orthopaediepraxis-winkler.de/",,,,"Deutsch","Facharzt für Orthopädie/Unfallchirurgie","Allgemeines - Unterpunkt: medizinische Versorgung","fa815876-ad1d-433e-87ff-8de20639e2b1","medical-counselling","51.183108","14.429835"
"Dr. med. Kathrin Winkler",,"Töpferstraße 17","02625","Bautzen","Montag: 8-12 Uhr und 14-18 Uhr
Dienstag: 14 - 18 Uhr
Mittwoch: 8 - 12 Uhr
Donnerstag: 8 - 12 Uhr
Freitag: 8 - 12 Uhr","(03591) 41060","(03591) 598420",,"http://www.orthopaediepraxis-winkler.de/",,,,"Deutsch","Fachärztin für Innere Medizin / Rheumatologie","Allgemeines - Unterpunkt: medizinische Versorgung","fa815876-ad1d-433e-87ff-8de20639e2b1","medical-counselling","51.183108","14.429835"
"Dr. med. Wolfram Dunger",,"Max-Militzer-Weg 4","02625","Bautzen",,"(03591) 270675",,,,,,,"Deutsch","Facharzt für Allgemeinmedizin und Chirotherapie","Allgemeines - Unterpunkt: medizinische Versorgung","fa815876-ad1d-433e-87ff-8de20639e2b1","medical-counselling","51.15527","14.43766"
"Dr. med Uwe Wilhelm Haspel",,"Kesselstraße 4","02625","Bautzen",,"(03591) 326486",,,,,,,"Deutsch","Facharzt für Allgemeinmedizin und Naturheilverfahren","Allgemeines - Unterpunkt: medizinische Versorgung","fa815876-ad1d-433e-87ff-8de20639e2b1","medical-counselling","51.180578","14.424544"
"Volkshochschule Hoyerswerda",,"Lausitzer Platz 4","02977","Hoyerswerda","Montag bis Donnerstag 10.00 Uhr bis 12.30 Uhr und 13.30 Uhr bis 19.30 Uhr sowie Freitag  10.00 Uhr bis 12.30 Uhr und 13.30 Uhr bis 17.00 Uhr. In den sächsischen Schulferien bis 17.00 Uhr geöffnet.","03571 600800, Die Sprachberatung erfolgt nach terminlicher Absprache ebenfalls in der VHS (Tel.: 03571-6079943)  .","03571 6079939","info@vhs-hy.de ","http://www.vhs-hoyerswerda.de/",," Ute Grun (Leiterin VHS)"," Ute Grun (Leiterin VHS)","Deutsch","Das Frühjahrssemester startet am 27.02.2017. Das neue Kursangebot ist schriftlich und online ab sofort erhältlich. Bei uns haben Sie die Möglichkeit, an Kursangeboten im Bereich Gesellschaft und Politik, Kultur und Gestalten, Gesundheit, Sprachen, und Berufliche Bildung/ Arbeit am Computer teil zu nehmen. Darüber hinaus gibt es die Angebote im Bereich Junge Volkshochschule und spezielle Angebote für Firmen.","Arbeit und Bildung","d29bbe86-ecd6-42df-8054-70a90ec7b535",,"51.43754","14.26245"
"Kreisvolkshochschule Bautzen / Außenstelle Radeberg",,"Heidestraße 70","01454","Radeberg","Dienstag 09:00 - 12:00 und 13:00-16:00, Donnerstag  09:00-12:00","03528 416383","03528 416388","info.radeberg@kvhsbautzen.de","https://kvhsbautzen.de/, https://kvhsbautzen.de/index.php?id=162",,,,"Deutsch","In der Außenstelle Radeberg finden Kursangeboten im Bereich Gesellschaft, Kultur, Gesundheit, Sprachen, Beruf und Grundbildung statt. Im Rahmen der Öffnungszeiten können Sie u.a. an folgenden Kursen teilnehmen: 'Elternabend: ICH und meine Elternrolle', 'Psychologie - Ich höre was', Länderkunde/Reiseberichte, 'Umweltbildung/ Einführung in die Permakultur', bildende Kunst,  Malkurs, Filzen, Gymnastik/Bewegung, Entspannung.","Arbeit und Bildung","d29bbe86-ecd6-42df-8054-70a90ec7b535",,"51.108867","13.903052"
"Kreismusikschule Bautzen / Regionalstelle Bautzen",,"Schilleranlagen 1","02625","Bautzen","Sekretariat – Öffnungszeiten: Montag bis Freitag: 9.00 – 11.00 Uhr, Donnerstag: 9.00 – 11.00 und 14.00 – 17.00 Uhr      Veranstaltungen/Öffentlichkeitsarbeit – Sprechzeit: Donnerstag 9.30 – 13.00 Uhr und nach Absprache","03591 42241","03591 530352","kreismusikschule-bautzen@gmx.net","http://kreismusikschule-bautzen.de/",,"Charlotte Garnys (Leiterin)","Charlotte Garnys (Leiterin)","Deutsch","Alle musisch und kulturell interessierten Kinder, Jugendlichen und Erwachsenen sind in der Kreismusikschule Bautzen herzlich willkommen. Mit ihren vielfältigen Angeboten leistet die Kreismusikschule einen wesentlichen Beitrag zur Verbesserung der Lebensqualität im Landkreis Bautzen. Folgenden Instrumental- und Gesangsunterricht biete die Kreismusikschule Bautzen: Musikalische Früherziehung, Akkordeon, Holzblas- und Blechblasinstrumente, Gitarre, E-Gitarre, Bassgitarre, Gesang, Jazz-Rock-Pop, Klavier, Keyboard und Orgel, Streichinstrumente, Dudelsack und Harfe.Ensemble- und Ergänzungsfächer: Ensemble (Chor, Orchester, Kammermusikgruppen), Muisklehre.   ","Freizeit und Gemeinschaft","adfb2457-819c-4574-ace1-56f5b38d8f96","music","51.17657","14.42607"
"Kreismusikschule Bautzen/ Regionalstelle Bautzen - Außenstelle Bischofswerda",," August- König- Str. 12","01877","Bischofswerda",,"03594 713923","03594 716721","kreismusikschule-bautzen@gmx.net","http://kreismusikschule-bautzen.de/regionalstelle-bautzen-aussenstelle-bischofswerda/unterrichtsorte-regionalstelle-bautzen/",,"Herr Kimpel","Herr Kimpel","Deutsch","Ausbildungsangebote: Block- und Querflöte, Klarinette, Violine, Gitarre, E-und Bassgitarre, Akkordeon, Trompete, Posaune, Horn, Tuba, Tenorhorn, Klavier, Keyboard, Gesang, Schlagzeug, Rhythmik (für Kinder im Alter 4-6 Jahre), Instrumentenkiste, Musiklehre","Freizeit und Gemeinschaft","adfb2457-819c-4574-ace1-56f5b38d8f96","music","51.13258","14.18113"
"Keismusikschule Bautzen/ Regionalstelle Kamenz",,"Macherstraße 140a","01917","Kamenz","Sekretäriat - Öffnungszeiten: Montag – Donnerstag 10.00 – 12.00 Uhr und 13.00 – 15.00 Uhr      Leitung - Sprechzeit: Montag – Donnerstag 8.00 – 16.00 Uhr (nach telefonischer Vereinbarung)      Veranstaltungen/Öffentlichkeitsarbeit Sprechzeit: Dienstag und","03578 774737-0 ","03578 774737-71","info@musikschule-kamenz.de","http://kreismusikschule-bautzen.de/regionalstelle-kamenz/kontakt-regionalstelle-kamenz/",,"Leitung: Frau Isolde Käppler, Sekretariat: Frau Maria Krause, Veranstaltungen/Öffentlichkeitsarbeit: Frau Ines Ulfig","Leitung: Frau Isolde Käppler, Sekretariat: Frau Maria Krause, Veranstaltungen/Öffentlichkeitsarbeit: Frau Ines Ulfig","Deutsch","Ausbildungsangebote: Akkordeon, Blechblasinstrumente, Blockflöte, E-Bassgitarre, E-Gitarre, Fagott, Gesang, Gitarre, Instrumentenkiste Harfe, Keyboard, Klarinette, Klavier, Kontrabass, Querflöte, Saxophon, Schlagzeug, Violine, Musikalische Früherziehung, Musiklehre, Balllett/Kindertanz. Neben Radeberg sind weitere Außenstellen der Kreismusikschule/Regionalstelle Kamenz: Bretnig-Hauswalde, Crostwitz, Königsbrück, Oberlichtenau, Ottendorf-Okrilla, Panschwitz-Kuckau, Pulsnitz","Freizeit und Gemeinschaft","adfb2457-819c-4574-ace1-56f5b38d8f96","music","51.28966","14.11321"
"Keismusikschule Bautzen/ Regionalstelle Kamenz - Außenstelle Radeberg",,"Pulsnitzer Straße 41","01454","Radeberg","Außenstellenleitung - Sprechzeit: Montag 15.00 – 18.00 Uhr","03528 410083","03528 410083","info@musikschule-kamenz.de","http://kreismusikschule-bautzen.de/regionalstelle-kamenz/kontakt-regionalstelle-kamenz/",,"Außenstellenleitung: Frau Manuela Günther","Außenstellenleitung: Frau Manuela Günther","Deutsch","Ausbildungsangebote: Akkordeon, Blechblasinstrumente, Blockflöte, E-Bassgitarre, E-Gitarre, Fagott, Gesang, Gitarre, Instrumentenkiste, Keyboard, Klarinette, Klavier, Kontrabass, Querflöte, Saxophon, Schlagzeug, Violine, Violoncello, Musikalische Früherziehung, Musikalische Grundausbildung, Musiklehre, Balllett/Kindertanz","Freizeit und Gemeinschaft","adfb2457-819c-4574-ace1-56f5b38d8f96","music","51.120354","13.922976"
"Musikschule Hoyerwerda",,"Lausitzer Platz 4","02977","Hoyerswerda","Service Montag bis Freitag: 10.00 - 12:30 und 13:30 - 19.00 Uhr,  Service in den Ferien: 10.00 - 12:30 und 13:30 -17.00 Uhr, Unterricht Montag bis Freitag: 10.00 Uhr bis Unterrichtsende (ca. 21.00 Uhr)","03571 209300","03571 209302","info@musikschule-hy.de","www.musikschule-hy.de","https://de-de.facebook.com/Musikschule-Hoyerswerda-281499238539498/","David Brand (Leitung)","David Brand (Leitung)","Deutsch, Englisch","Die Musikschule Hoyerswerda ermöglicht Kindern, Jugendlichen und Erwachsenen eine umfassende musikalische Ausbildung und vielfältige Möglichkeiten zur musikalischen Betätigung. Unser Unterrichtsangebot ist breit gefächert, angefangen von den Eltern-Kind-Kursen ab dem 3. Lebensmonat bis hin zu den traditionellen und populären Musikinstrumenten. Unterrichtet wird neben 'Klassik' im weitesten Sinne auch Folklore, Jazz, Rock- und Popularmusik. Darüber hinaus bestehen zahlreiche Sing- und Spielkreise, Instrumental- und Vokalensembles, Bands und Orchester. Im Rahmen der Ganztagsschulprojekte (GTA) betreut die Musikschule alle interessierten Schulen. Außerdem findet musikalische Früherziehung in den Kindergärten in Hoyerswerda und den umliegenden Gemeinden statt.","Freizeit und Gemeinschaft","adfb2457-819c-4574-ace1-56f5b38d8f96","music","51.43754","14.26245"
"TIK - evangelisches Kinder- und Jugendzentrum ",,"Am Stadtwall 12","02625","Bautzen","Montag, Dienstag, Donnerstag und Freitag von 14.00 bis 18.00 Uhr, TEN SING: Mittwoch 17.00 bis 20.00 Uhr,  Sprach- und Nachhilfeunterricht für jugendliche Geflüchtete: Freitag 15.00 bis 17.00 Uhr","03591 480872, 0171/5692441","03591  480873","kontakt@tik-bautzen.de","http://tik-bautzen.de/","https://www.facebook.com/tik.bautzen","Björn Törne, Luisa Zabel, Robert Marschall","Björn Törne, Luisa Zabel, Robert Marschall","Deutsch, Englisch","Das Kinder- und Jugendzentrum der Ev.- Luth. Kirchgemeinde St. Petri Bautzen TIK  (“Treff im Keller”) bietet Kindern und Jugendlichen einen Ort, an dem sie mit zahlreichen Angeboten Ihre Freizeit gestalten können. Ob in der Offenen Tür, der Jungen Gemeinde, TEN SING („Teenager Sing“), der Kirche mit Kindern oder einer der vielen zusätzlichen Veranstaltungen und Projekte – hier findet jeder etwas nach seinem Alter und Geschmack.  Neu dabei ist der Sprach- und Nachhilfeunterricht für jugendliche Geflüchtete am Freitag Nachmittag.","Freizeit und Gemeinschaft","adfb2457-819c-4574-ace1-56f5b38d8f96","youth-club","51.183665","14.431152"
"Evangelisch-Lutherische Kirchgemeinde St.Petri Bautzen ",,"Am Stadtwall 12","02625","Bautzen","Pfarramt: Mo 9.00 – 12.00 Uhr
Di 9.00 – 12.00 Uhr und 14.00 – 16.00 Uhr
Mi geschlossen
Do 9.00 – 12.00 Uhr und 14.00 – 18.00 Uhr
Fr 9.00 – 12.00 Uhr ","03591 369710, 03591 36970 ","03591 369753","pfarramt@st-petri-bautzen.de","http://www.st-petri-bautzen.de/",,"Pfarramtsleiter Pfarrer Tiede, Verwaltungsleiter Claus Gruhl","Pfarramtsleiter Pfarrer Tiede, Verwaltungsleiter Claus Gruhl","Deutsch","Die ev.-luth.Kirchgemeinde St.Petri Bautzen umfasst einen evangelischen Kindergarten, ein evangelisches Kinder- und Jugendzentrum ('TIK'), eine Kinderkirche und verschiedene Gottesdienste.","Allgemeines (Unterpunkt: kirchliche/ freie Träger)","010cfae4-7506-425b-ba37-80e8d83427f0","christian","51.183665","14.431152"
"Martin-Luther-King-Haus / Evangelische Kirchgemeinde Hoyerswerda Neustadt",,"Bonhoeffer Straße","02977","Hoyerswerda","Di - Do 9:00 - 12:00 Uhr, Di und Do 15:00 bis 17:30 ","03571 972073","03571 414227","kinghaus@t-online.de","http://www.kinghaus.de/",,"Parrer Jörg Michel und Parrerin Antje Kruse-Michel","Parrer Jörg Michel und Parrerin Antje Kruse-Michel","Deutsch","Das Martin-Luther-King-Haus als Gemeindezentrum der evangelischen Kirchgemeinde Hoyerswerda Neustadt hält viele Angebote bereit: Neben Gottesdiensten gibt es u.a. einen Eine Welt-Laden, einen Vater-Mutter-Kind-Kreis, den Kreativzirkel, einen Kreis 'Interessierter Frauen', einen Männertreff und Seniorennachmittage.","Allgemeines (Unterpunkt: kirchliche/ freie Träger)","010cfae4-7506-425b-ba37-80e8d83427f0","christian","51.437352","14.255512"
"Kamenzer Bildungsgesellschaft gGmbH - Informations-, Beratungs- und Hilfezentrum","Haus der Begegnung","Christian-Weißmantelstr. 3","01917","Kamenz","Mo: 10:00 - 18:30 Uhr, Di und Mi: 08:00 – 16:30 Uhr, Do: 08:00 – 18 Uhr, Fr: 08:00 – 15:30 Uhr","03578 310432",,"chemnitzkabi@gmail.com","http://www.kabi-kamenz.de/index1.php?lfdnr=1",,"Katrin Chemnitz","Katrin Chemnitz","Deutsch","Informations-, Beratungs- und Begegnungszentrum für Personen mit Migrationshintergrund, insbesondere von Asylsuchenden und Flüchtlingen mit begleitenden Freizeitangeboten","Freizeit und Gemeinschaft","adfb2457-819c-4574-ace1-56f5b38d8f96",,"51.27504","14.11571"
"Lausitzer Seenlandklinikum, Flüchtlingssprechstunde","Anmeldung in der Notaufnahme","Maria-Grollmuß-Straße 10","02977","Hoyerswerda","Mo, Mi, und Fr 14-16 Uhr","03571 44-0",,"info@seenlandklinikum.de","https://www.seenlandklinikum.de/home.html",,,,"Deutsch","Diese ärztliche Sprechstunde wird speziell für geflüchtete Menschen angeboten.","Allgemeines - Unterpunkt: medizinische Versorgung","fa815876-ad1d-433e-87ff-8de20639e2b1","medical-counselling","51.44251","14.27073"
"Museum Bautzen",,"Kornmarkt 1","02625","Bautzen","Montag geschlossen (außer an Feiertagen), Dienstag bis Sonntag: Winter (1.10.-31.3.) 10.00 -18.00 Uhr, Sommer (1.4.bis 30.9.) 10.00 - 17.00 Uhr","Museumskasse: 03591 534-933, Sekretariat/Verwaltung: 03591 534-910","03591 534-940","museum@bautzen.de","http://www.bautzen.de/museum-bautzen.asp",,,"Sekretariat/Verwaltung: Karin Priebs","Deutsch, Sorbisch","Das Museum Bautzen bietet neben Führungen durch die Dauer- und wechselnden Sonderausstellungen regelmäßig eine Reihe von Veranstaltungen an, wie zum Beispiel Vorträge, Lesungen, Konzerte, Künstlergespräche, Projekte, Workshops und Ferienangebote für Schulklassen, Kinder und Jugendliche. Auch KIndergeburtstage sind auf Anfrage möglich.","Freizeit/Gemeinschaft - Unterpunkt: Museen","adfb2457-819c-4574-ace1-56f5b38d8f96","museum","51.180271","14.426705"
"Sorbisches Museum - Serbski muzej",,"Ortenburg 3","02625","Bautzen","Montag geschlossen (außer an Feiertagen), Dienstag bis Sonntag: 10.00 – 18.00 Uhr","03591 270870-0, Sekretariat: 03591 27087011","03591 270870-13","sekretariat@sorbisches-museum.de","http://sorbisches-museum.de/",,,"Sekretariat: Katrin Bernkopf","Deutsch, Sorbisch","Beeindruckende Geschichte und lebendige Gegenwart mit bunter, reicher Kultur und wundervollen Bräuchen – dafür stehen die Sorben. Lernen Sie dieses traditionsreiche Volk kennen – im Sorbischen Museum in Bautzen. Spannende Ausstellungen für die ganze Familie bringen Ihnen Geschichte, Handwerk und Trachten, Musik, Literatur und Kunst des sorbischen Volkes näher.","Freizeit/Gemeinschaft - Unterpunkt: Museen","adfb2457-819c-4574-ace1-56f5b38d8f96","museum","51.183407","14.419723"
"Deutsch-Sorbisches Volkstheater Bautzen",,"Seminarstraße 12","02625","Bautzen","Theaterkasse: Dienstag - Freitag 11:00 - 18:00 Uhr, Abendkasse 60 Minuten vor Beginn der Vorstellung","Kartentelefon: 03591 584225, Programminfo: 03591 584281, Zentrale: 0351 5840","03591 584200","service@theater-bautzen.de, kontakt@theater-bautzen.de","http://www.theater-bautzen.de/",,"Intendant: Lutz Hillmann",,"Deutsch, Sorbisch","Wir sind das einzige professionelle bikulturelle Theater Deutschlands. Rund 1000 Veranstaltungen, 25 Premieren, ein großes Schauspiel- und Puppentheaterrepertoire und jede Menge Theater erwarten die Zuschauer in jeder Spielzeit im Deutsch-Sorbischen Volkstheater Bautzen. Unter 'Volkstheater' verstehen wir programmatisch im Gegensatz zum großstädtischen 'Expertentheater' also im Sinne eines Angebots für Jedermann von Schiller über Wedekind bis hin zum Familienknüller. Höhepunkt und Abschluss einer jeden Spielzeit ist der jährlich stattfindende Theatersommer im Hof der historischen Ortenburg. ","Freizeit/Gemeinschaft - Unterpunkt: Theater","adfb2457-819c-4574-ace1-56f5b38d8f96","stage","51.1781","14.42452"
"Stadttheater Kamenz",,"Pulsnitzer Str. 11","01917","Kamenz","Mo-Fr 10:00 - 18:00 Uhr, Sa/So/Feiertags 10:00 - 13:00 Uhr und 14:00 - 18:00 Uhr, Abendkasse jeweils eine Stunde vor Beginn","03578 379205","03578 379291","kamenzinformation@kamenz.de","http://www.stadttheater-kamenz.de/spielplan.html",,"Bereichsleiter Kulturbüro: Frank Hohlfeld",,"Deutsch","Das Theater liegt im Herzen der Stadt Kamenz. Die beliebte Kultur- und Begegnungsstätte wurde am 3. Oktober 1999 wiedereröffnet. Seit 1824 schon gibt es in diesem ehemaligen Brauhaus Theaterveranstaltungen, klassische Konzerte, Kabarett, interessante Dia-Vorträge, Kunstausstellungen und vieles mehr. Das Haus ist also mehr, als 'nur' ein Theater! Es bietet Kultur für alle Interessierten, egal ob jung oder alt! ","Freizeit/Gemeinschaft - Unterpunkt: Theater","adfb2457-819c-4574-ace1-56f5b38d8f96","stage","51.270127","14.093038"
"Hutbergbühne Kamenz","c/o Stadtverwaltung Kamenz, Dezernat Kultur/Veranstaltungsdienste","Markt 1","01917","Kamenz",,"über Kamenz-Information: 03578 379205",,"info@hutbergbuehne-kamenz.de ","http://hutbergbuehne-kamenz.de/",,,,,"Eingebettet in einen Parkwald mit seltenen Nadelgehölzen sowie umgeben von Tausenden Rhododendren und Azaleen bietet die Hutbergbühne bereits den Ankommenden erste Erlebnisse. Die seit 1992 regelmäßig in dieser einzigartigen Naturkulisse stattfindenden Konzerte sowie moderne Produktionsbedingungen und eine für Künstler wie Besucher erfolgreiche Veranstaltungspraxis haben die Hutbergbühne zu einem der beliebtesten und bekanntesten Open-Air-Orte in Sachsen werden lassen. Alle Informationen zur Spielstätte, zu den Konzertterminen und dem Kartenvorverkauf finden Sie unter www.hutbergbuehne-kamenz.de.","Freizeit/Gemeinschaft - Unterpunkt: Musik","adfb2457-819c-4574-ace1-56f5b38d8f96","stage","51.27008","14.09466"
"Lessing Museum ",,"Lessingplatz 1-3","01917","Kamenz","Montag geschlossen, Di-Fr 9:00 - 17:00 Uhr, Sa/So und an Feiertagen 13:00 - 17:00 Uhr","03578 379111","03578 379119","kontakt@lessingmuseum.de","http://www.lessingmuseum.de/",,,"Museumsreferent / Pressearbeit: Matthias Hanke","Deutsch","Das 1931 gegründete Literaturmuseum präsentiert seit 2011 eine neue Dauerausstellung in Lessings Geburtsstadt. Sie widmet sich dem bewegten Leben und dem vielschichtigen Werk des Aufklärers und Dichters anhand zahlreicher Erstausgaben, Stiche und Kleinplastiken. Schreibtischinstallationen schaffen einen emotionalen Zugang zu seiner jeweiligen Lebenssituation. Hier kann man erfahren, warum Lessing für die deutsche Aufklärung und das Theater nicht wegzudenken ist.","Freizeit/Gemeinschaft - Unterpunkt: Museen","adfb2457-819c-4574-ace1-56f5b38d8f96","museum","51.271975","14.094706"
"Stadtmuseum Hoyerswerda",,"Schloßplatz 1","02977","Hoyerswerda",,"03571  603530","03571 603532","info@museum-hy.de","http://www.museum-hy.de/",,,,"Deutsch","Seit 1952 ist im Hoyerswerdaer Schloss das Stadtmuseum mit seinen regional und überregional bedeutenden Beständen untergebracht. Mit seiner ständigen Ausstellung zur Stadtgeschichte und den wechselnden Sonderausstellungen zog es seither zahlreiche Besucher an. In den Jahren von 1990 bis 1998 wurde das denkmalgeschützte Gebäude von Grund auf saniert. Mit Stadtmuseum, Galerie, Konzertsaal, Kaminzimmer und Gesellschaftsraum lädt es Sie zu kulturellen Veranstaltungen aller Art ein. Besuchen Sie das älteste Gebäude der Stadt.","Freizeit/Gemeinschaft - Unterpunkt: Museen","adfb2457-819c-4574-ace1-56f5b38d8f96","museum","51.43864","14.24496"
"Kulturfabrik Hoyerswerda",,"Braugasse 1","02977","Hoyerswerda","Montag 14:00 - 18:00 Uhr, Di, Mi, Do 10:00 - 12:00 Uhr und 14:00 - 18:00 Uhr, Freitag 10:00 - 12:00 Uhr und 14:00 - 16:00 Uhr, Samstag 17:00 - 00:00 Uhr, Sonntag 14:00 - 20:00 Uhr","03571 2093330","03571 2093340","info(at)kufa-hoyerswerda.de","http://www.kufa-hoyerswerda.de/","https://de-de.facebook.com/kufahoyerswerda/",,"Geschäftsführer: Uwe Proksch","Deutsch","Die Gründungsmitglieder der „Kulturfabrik“ kommen aus der alternativen DDR-Jugendkulturarbeit. Auf der Suche nach Erweiterungsmöglichkeiten gründete sich 1994 der Verein mit dem Ziel, ein „Soziokulturelles Zentrum“ für Hoyerswerda zu errichten. Anliegen des „Kulturfabrik e.V.“ ist es, Kommunikation zwischen Menschen aus verschiedenen Lebensbereichen mit unterschiedlichen Interessen durch kulturelle Projekte zu ermöglichen. Über Kunst und Kultur finden Bereiche zusammen, die man im alltäglichen Leben als getrennt gewohnt ist. Verwirklicht wird dies auf verschiedenen Ebenen. Es findet ein generationsübergreifender Dialog, z.B. zwischen Kunst und Jugendkultur, zwischen Konsumtion von Kunst und kreativen Tun statt. Traditionelle Unterteilungen in Kultur-, Jugend- und Sozialarbeit werden dabei bewusst überschritten.","Freizeit/Gemeinschaft","07f88130-7d98-4a20-bbb8-d0d98f55c553","meeting-place","51.439134","14.245335"
