"name","tags","dateFrom","dateTo","timeFrom","timeTo","placename","street","zip","city","description","url","type","image","imageType","lat","lon"
"Kinder aus aller Welt – Willkommen bei uns in Deutschland","iwgr","27. March",,"9:00",,"Bibliothek Prohlis","Prohliser Allee 10",,"Dresden","Beim Vorstellen von Büchern erfahren Kinder Interessantes zu Themen wie Toleranz, Vorurteile und Heimat.","http://internationale-wochen-gegen-rassismus.de/event/extrem-radikal-orientierungslos-copy-copy-4-copy-4-copy-24-copy-5-copy-10-copy-4-copy-4-copy-copy-copy-6/","2","http://about.afeefa.de/wp-content/uploads/2017/03/IWgR_Header_5-2.png","image","51.005567","13.797896"
"ABC-Veranstaltung","iwgr","28. March",,"9:00",,"Bibliothek Prohlis","Prohliser Allee 10",,"Dresden","Durch Namensspiele und einem Bilderbuchkino befassen sich Kinder mit dem Alphabet und Geschichten.","http://internationale-wochen-gegen-rassismus.de/event/extrem-radikal-orientierungslos-copy-copy-4-copy-4-copy-24-copy-5-copy-10-copy-4-copy-6-copy/","2","http://about.afeefa.de/wp-content/uploads/2017/03/IWgR_Header_5-2.png","image","51.005567","13.797896"
"Theater „Als die Raben noch bunt waren“","iwgr","29. March",,"9:00","10:00","Bibliothek Gorbitz","Merianplatz 4","01169","Dresden","Kamishibai-Theater für Kinder im Alter von 4-6 Jahren","http://internationale-wochen-gegen-rassismus.de/event/was-koennen-wir-gegen-rassismusursachen-tun-copy-6-copy-10-copy-13-copy-copy/","2","http://about.afeefa.de/wp-content/uploads/2017/03/IWgR_Header_5-2.png","image","51.04542","13.66945"
"Worte finden – zum Umgang mit Alltagsrassismus und rechtspopulistischen Äußerungen","iwgr","18. March",,"9:30","12:30","Gemeindehaus der Ev.-Luth. Kirchgemeinde Gruna-Seidnitz","Bodenbacher Str. 24","01277","Dresden","Zum Themenschwerpunkt Alltagsrassismus werden in Zusammenarbeit mit dem Kulturbüro Sachsen e.V. Informationen weitergegeben und Handlungsmöglichkeiten spielerisch erprobt.","http://internationale-wochen-gegen-rassismus.de/event/was-koennen-wir-gegen-rassismusursachen-tun-copy-6-copy-6-copy-copy-94/","2","http://about.afeefa.de/wp-content/uploads/2017/03/IWgR_Header_5-2.png","image","51.03365","13.78175"
"Argumentationstraining gegen rechte Parolen","iwgr","18. March",,"10:00","16:00","Bürgerbüro Dr. Eva-Maria Stange","Rudolf-Renner-Straße 51","01159","Dresden","Workshop. Handlungsfähig bleiben, selbst wenn rechte Parolen einen sprachlos machen.","http://internationale-wochen-gegen-rassismus.de/event/was-koennen-wir-gegen-rassismusursachen-tun-copy-6-copy-6-copy-copy-116-copy-2-copy-copy/","2","http://about.afeefa.de/wp-content/uploads/2017/03/IWgR_Header_5-2.png","image","51.043802","13.694276"
"Kann es denn rassistisch sein, wenn ich es nicht rassistisch meine? (Teil 2 von 3)","iwgr","25. March",,"10:00","17:00","WIR AG","Martin-Luther-Straße 21",,"Dresden","Ein Praxisworkshop, um Rassismus bewusster wahrzunehmen, zu verstehen und ihm aktiv zu begegnen. Mit Manjiri Palicha und André Vollrath.","http://internationale-wochen-gegen-rassismus.de/event/extrem-radikal-orientierungslos-copy-copy-4-copy-4-copy-24-copy-5-copy-10-copy-4-copy-4-copy-copy-copy-4-copy-copy-copy/","2","http://about.afeefa.de/wp-content/uploads/2017/03/IWgR_Header_5-2.png","image","51.0644","13.75571"
"Kann es denn rassistisch sein, wenn ich es nicht rassistisch meine? (Teil 3 von 3)","iwgr","26. March",,"10:00","14:00","WIR AG","Martin-Luther-Straße 21",,"Dresden","Ein Praxisworkshop, um Rassismus bewusster wahrzunehmen, zu verstehen und ihm aktiv zu begegnen. Mit Manjiri Palicha und André Vollrath.","http://internationale-wochen-gegen-rassismus.de/event/extrem-radikal-orientierungslos-copy-copy-4-copy-4-copy-24-copy-5-copy-10-copy-4-copy-4-copy-copy-copy-4-copy-copy-copy-copy/","2","http://about.afeefa.de/wp-content/uploads/2017/03/IWgR_Header_5-2.png","image","51.0644","13.75571"
"Politik-Forum – Zur Lage Syriens (Teil 3/3)","iwgr","26. March",,"11:30","19:00","riesa efau","Wachsbleichstr. 4a","01067","Dresden","„Menschenrechtslage von Syrer*innen auf dem Weg nach Europa“","http://internationale-wochen-gegen-rassismus.de/event/was-koennen-wir-gegen-rassismusursachen-tun-copy-6-copy-6-copy-copy-83-copy-2-copy-copy-copy/","2","http://about.afeefa.de/wp-content/uploads/2017/03/IWgR_Header_5-2.png","image","51.056022","13.720674"
"Politik-Forum: Zur Lage Syriens (Teil 1/3)","iwgr","24. March",,"13:00","20:30","riesa efau","Wachsbleichstr. 4a","01067","Dresden","„Menschenrechtslage von Syrer*innen innerhalb des Landes“","http://internationale-wochen-gegen-rassismus.de/event/was-koennen-wir-gegen-rassismusursachen-tun-copy-6-copy-6-copy-copy-83-copy-2-copy/","2","http://about.afeefa.de/wp-content/uploads/2017/03/IWgR_Header_5-2.png","image","51.056022","13.720674"
"Politik-Forum – Zur Lage Syriens (Teil 2/3)","iwgr","25. March",,"13:00","20:30","riesa efau","Wachsbleichstr. 4a","01067","Dresden","„Menschenrechtslage von Syrer*innen in den Nachbarländern“","http://internationale-wochen-gegen-rassismus.de/event/was-koennen-wir-gegen-rassismusursachen-tun-copy-6-copy-6-copy-copy-83-copy-2-copy-copy/","2","http://about.afeefa.de/wp-content/uploads/2017/03/IWgR_Header_5-2.png","image","51.056022","13.720674"
"Integration in Deutschland","iwgr","2. April",,"13:00","16:00","Marwa Elsherbiny Kultur- und Bildungszentrum Dresden","Marschnerstraße 2",,"Dresden","Tipps und Ratschläge für Flüchtlinge –  für die Bewältigung des Alltags und als Orientierungshilfe.","http://internationale-wochen-gegen-rassismus.de/event/extrem-radikal-orientierungslos-copy-copy-4-copy-4-copy-24-copy-5-copy-10-copy-4-copy-6-copy-2-copy-copy-2-copy-copy-copy-copy-copy-copy-copy-copy-copy-copy-copy/","2","http://about.afeefa.de/wp-content/uploads/2017/03/IWgR_Header_5-2.png","image","51.046467","13.757847"
"Zuhause kann überall sein","iwgr","15. March",,"14:00",,"Bibliothek Neustadt (Städtische Bibliotheken Dresden)","Königsbrücker Straße 26","01099","Dresden","Mit Liedern, Tänzen und Geschichten weltweit zu Hause. Für Schülerinnen und Schüler der Klassen 1 bis 4 geeignet.","http://internationale-wochen-gegen-rassismus.de/event/extrem-radikal-orientierungslos-copy-copy-4-copy-4-copy-24-copy-5-copy-10-copy-4-copy-6-copy-2-copy-copy-2-copy-copy-copy-copy-copy-copy-copy-copy-copy-copy-2-copy-2-copy-copy/","2","http://about.afeefa.de/wp-content/uploads/2017/03/IWgR_Header_5-2.png","image","51.06752","13.747374"
"montags-bunt: künstlerischer Workshop","iwgr","20. March",,"14:00","20:00","Passage im Geschäftshaus Prager Spitze","Prager Straße 2","01069","Dresden","mit KunsT – lautet der Titel der Mitmalaktion, (auf Papier gezeichnete Körperumrisse) – Körperbilder können von Kunden der Prager Spitze selbst ausgemalt werden, danach werden sie ausgeschnitten und in die Schaufenster des Hauses geklebt, dort können sie ","http://internationale-wochen-gegen-rassismus.de/event/extrem-radikal-orientierungslos-copy-copy-4-copy-4-copy-24-copy-5-copy-10-copy-copy/","2","http://about.afeefa.de/wp-content/uploads/2017/03/IWgR_Header_5-2.png","image","51.041525","13.734798"
"montags-bunt: künstlerischer Workshop","iwgr","27. March",,"14:00","20:00","Passage im Geschäftshaus Prager Spitze","Prager Straße 2","01069","Dresden","mit KunsT – lautet der Titel der Mitmalaktion, (auf Papier gezeichnete Körperumrisse) – Körperbilder können von Kunden der Prager Spitze selbst ausgemalt werden, danach werden sie ausgeschnitten und in die Schaufenster des Hauses geklebt, dort können sie ","http://internationale-wochen-gegen-rassismus.de/event/extrem-radikal-orientierungslos-copy-copy-4-copy-4-copy-24-copy-5-copy-10-copy-copy-copy/","2","http://about.afeefa.de/wp-content/uploads/2017/03/IWgR_Header_5-2.png","image","51.041525","13.734798"
"Perspektivwechsel. Ein interkulturelles Sensibilisierungstraining","iwgr","31. March",,"14:00","17:15","Volkshochschule Dresden","Annenstraße 10","01067","Dresden","Sie möchten die Fähigkeit erlangen, in interkulturellen Situationen angemessen und konfliktvermeidend zu interagieren. Mit diesem interkulturellen Sensibilisierungstraining bekommen Sie die Möglichkeit, sich mit Ihrer eigenen kulturellen Prägung auseinand","http://internationale-wochen-gegen-rassismus.de/event/was-koennen-wir-gegen-rassismusursachen-tun-copy-6-copy-6-copy-copy-98/","2","http://about.afeefa.de/wp-content/uploads/2017/03/IWgR_Header_5-2.png","image","51.049494","13.729814"
"Nichts gegen Dresden, aber Rassismus ist noch immer ein Problem.","iwgr","1. April",,"14:00","16:00","Treffpunkt Wettiner Platz","Wettiner Platz",,"Dresden","Ein Stadtrundgang, der Probleme aufzeigt und Lösungen anbietet.","http://internationale-wochen-gegen-rassismus.de/event/extrem-radikal-orientierungslos-copy-copy-4-copy-4-copy-24-copy-5-copy-10-copy-4-copy-6-copy-2-copy-copy-2-copy-copy-copy-copy-copy-copy-copy/","2","http://about.afeefa.de/wp-content/uploads/2017/03/IWgR_Header_5-2.png","image","51.053505","13.723524"
"montags-bunt: künstlerischer Workshop","iwgr","3. April",,"14:00","20:00","Passage im Geschäftshaus Prager Spitze","Prager Straße 2","01069","Dresden","mit KunsT – lautet der Titel der Mitmalaktion, (auf Papier gezeichnete Körperumrisse) – Körperbilder können von Kunden der Prager Spitze selbst ausgemalt werden, danach werden sie ausgeschnitten und in die Schaufenster des Hauses geklebt, dort können sie ","http://internationale-wochen-gegen-rassismus.de/event/extrem-radikal-orientierungslos-copy-copy-4-copy-4-copy-24-copy-5-copy-10-copy-copy-copy-copy/","2","http://about.afeefa.de/wp-content/uploads/2017/03/IWgR_Header_5-2.png","image","51.041525","13.734798"
"Das Bildungssystem in Syrien und Nachbarländern","iwgr","17. March",,"15:00","17:00","GEW Dresden","Cottaer Straße 4",,"Dresden","Gesprächsrunde mit Pädagoginnen und Pädagogen aus Syrien und Nachbarländern, die über ihre Erfahrungen berichten und Fragen beantworten.","http://internationale-wochen-gegen-rassismus.de/event/was-koennen-wir-gegen-rassismusursachen-tun-copy-6-copy-6-copy-copy-116-copy-2/","2","http://about.afeefa.de/wp-content/uploads/2017/03/IWgR_Header_5-2.png","image","51.050391","13.711931"
"Rassismus in Mir!","iwgr","18. March",,"15:00","17:00","Innerspace Dresden","Alaunstraße 13 a",,"Dresden","Es werden die Aus- und Abgrenzungsmechanismen eines bzw. einer jeden selbst untersucht und betrachtet, wie diese überwunden werden können. Meditatives Seminar mit der indischen Meditations- und Weisheitslehrerin S. Bakshi.","http://internationale-wochen-gegen-rassismus.de/event/was-koennen-wir-gegen-rassismusursachen-tun-copy-6-copy-6-copy-copy-116-copy-2-copy-copy-copy/","2","http://about.afeefa.de/wp-content/uploads/2017/03/IWgR_Header_5-2.png","image","51.06445","13.7485"
"„EIN-AUS-WEIT-BLICK“ – Vernissage","iwgr","18. March",,"15:00",,"Kinder- und Jugendgalerie EINHORN","Königstraße 15","01097","Dresden","Verschiedene Jugendkunstschulen aus Nordrhein-Westphalen zeigen ihre Werke. Unter anderem auch Werke von Flüchtlingen und deutschen Helfern. Sie stellen zum ersten Mal in den Räumen der Galerie EINHORN und sind zu Gast bei der JugendKunstschule Dresden.","http://internationale-wochen-gegen-rassismus.de/event/was-koennen-wir-gegen-rassismusursachen-tun-copy-6-copy-6-copy-copy-112/","2","http://about.afeefa.de/wp-content/uploads/2017/03/IWgR_Header_5-2.png","image","51.061749","13.7427"
"Stoff auf dem Kopf – ein interkultureller Dialog I Museumsführung und Workshop","iwgr","19. March",,"15:00","19:00","Stadtmuseum Dresden","Wilsdruffer Str. 2","01067","Dresden","oofabric : it´s a tulip – and a tichel (yidd.) – and a turban . Kopftuch | Wicklung | Turban Über die Lust an der Mode wollen wir die Angst vor dem Fremden abbauen. Der Kult des „Stoffs auf dem Kopf“ soll jungen Menschen entschleiert werden.","http://internationale-wochen-gegen-rassismus.de/event/extrem-radikal-orientierungslos-copy-copy-4-copy-4-copy-25-copy-copy-copy-copy-2-copy-copy-copy-copy-copy-copy-copy-copy-2-copy-2-copy-copy-copy-copy-copy-copy-2/","2","http://about.afeefa.de/wp-content/uploads/2017/03/IWgR_Header_5-2.png","image","51.050073","13.743011"
"Rassismus an der Schule? Nicht mit uns!","iwgr","29. March",,"15:00","18:00","1. Oberschule Dresden","Rudolf-Bergander-Ring 3",,"Dresden","Input zu Rassismus, Projekte und Austausch mit Schülerinnen und Schülern, Lehrkräften und Schulsozialarbeiterinnen und –arbeitern.","http://internationale-wochen-gegen-rassismus.de/event/extrem-radikal-orientierungslos-copy-copy-4-copy-4-copy-24-copy-5-copy-10-copy-4-copy-6-copy-2-copy-2/","2","http://about.afeefa.de/wp-content/uploads/2017/03/IWgR_Header_5-2.png","image","51.02144","13.77875"
"Der Filmclub ‚Filmreif‘ präsentiert: „Ich lass mich nicht verjagen“","iwgr","21. March",,"15:30",,"Freie Waldorfschule Dresden","Marienallee 5","01099","Dresden","Film und Diskussion zu Alltagsrassismus in Sachsen. Organisiert von Jugendlichen für Jugendliche.","http://internationale-wochen-gegen-rassismus.de/event/extrem-radikal-orientierungslos-copy-copy-4-copy-4-copy-24-copy-5-copy-10-copy-2/","2","http://about.afeefa.de/wp-content/uploads/2017/03/IWgR_Header_5-2.png","image","51.07185","13.76504"
"100 Bilder – Wer bin ich? Woher komme ich? Was will ich machen?","iwgr","16. March","30. June","16:00",,"Haltestelle Hauptbahnhof-Nord (ehemals Soup-Café)",,,"Dresden","Ausstellung: Ein Kurde, der vor 5 Jahren aus dem Iran flüchten musste, hat im letzten Jahr geflüchtete Menschen nach ihren Wünschen befragt. 80 Bilder sind entstanden und sollen erstmalig der Öffentlichkeit präsentiert werden.","http://internationale-wochen-gegen-rassismus.de/event/yohannes-kein-spaziergang-ein-fotoprojekt-von-inge-jann-copy-copy-copy-2-copy/","2","http://about.afeefa.de/wp-content/uploads/2017/03/IWgR_Header_5-2.png","image","51.050409","13.737262"
"Begegnungscafé","iwgr","20. March",,"16:00",,"Kirchgemeinde St. Petrus","Dohnaer Straße 53",,"Dresden","Begegnungscafé und Sprachtreff. Mit Kinderbetreuung.","http://internationale-wochen-gegen-rassismus.de/event/extrem-radikal-orientierungslos-copy-copy-4-copy-4-copy-24-copy-5-copy-10-copy-4/","2","http://about.afeefa.de/wp-content/uploads/2017/03/IWgR_Header_5-2.png","image","51.021368","13.769369"
"Spielnachmittag für Kinder zwischen 7 und 16 Jahren","iwgr","21. March",,"16:00","18:00","Bibliothek Laubegast","Österreicher Straße 13","01279","Dresden","Wir laden alle Kinder, egal aus welchem Land, zu einem Sielnachmittag in die Bibliothek Laubegast ein.","http://internationale-wochen-gegen-rassismus.de/event/was-koennen-wir-gegen-rassismusursachen-tun-copy-6-copy-10-copy-13-copy/","2","http://about.afeefa.de/wp-content/uploads/2017/03/IWgR_Header_5-2.png","image","51.028694","13.833684"
"Lieber Inklusion statt Integration!","iwgr","1. April",,"16:00","18:00","WIR AG","Martin-Luther-Straße 21",,"Dresden","Inklusion bedeutet, dass alle Menschen gut miteinander leben. Gemeinsam wird der Frage nachgegangen, wie dies gelingen und mehr Inklusion als nur Integration miteinander gelebt werden kann.","http://internationale-wochen-gegen-rassismus.de/event/extrem-radikal-orientierungslos-copy-copy-4-copy-4-copy-24-copy-5-copy-10-copy-4-copy-6-copy-2-copy-copy-2-copy-copy-copy-copy-copy-copy-copy-copy/","2","http://about.afeefa.de/wp-content/uploads/2017/03/IWgR_Header_5-2.png","image","51.0644","13.75571"
"Wie konnte es so weit kommen? Versuch eine Anklage in eine Frage zu wandeln","iwgr","3. April",,"16:00",,"Programmkino Ost","Schandauer Straße 73",,"Dresden","Historisch reflektierte Alltagserfahrungen vor und während der NS-Zeit – Ausstellungseröffnung mit Zeitzeuginnen und Zeitzeugen. Vorführung des Films „Wir sind Juden aus Breslau“","http://internationale-wochen-gegen-rassismus.de/event/extrem-radikal-orientierungslos-copy-copy-4-copy-4-copy-24-copy-5-copy-10-copy-4-copy-6-copy-2-copy-copy-2-copy-copy-copy-copy-copy-copy-copy-copy-copy-copy-2/","2","http://about.afeefa.de/wp-content/uploads/2017/03/IWgR_Header_5-2.png","image","51.039399","13.806499"
"Die anderen sind wir","iwgr","18. March",,"17:00",,"Wir sind Paten","Stephanienplatz 2",,"Dresden","Der Workshop erklärt Konzepte, Typen und Wirkung des Rassismus auf die Gesellschaft und das Individuum..","http://internationale-wochen-gegen-rassismus.de/event/was-koennen-wir-gegen-rassismusursachen-tun-copy-6-copy-6-copy-copy-116-copy-2-copy-copy-copy-2/","2","http://about.afeefa.de/wp-content/uploads/2017/03/IWgR_Header_5-2.png","image","51.04721","13.76564"
"SG Westhang Schreibwerkstatt Gorbitz „Sieh den andern lange an“","iwgr","21. March",,"17:00","19:00","SG Westhang – Schreibwerkstatt Gorbitz im Mittelplunkt des DPBV e.V.","Merianplatz 4",,"Dresden","Unsere nächste Schreibwerkstatt Gorbitz findet im Rahmen der Internationalen Wochen gegen Rassismus am 21.3.17 um 17 Uhr im Mittelpunkt des DPBV e.V. im Dresden-Gorbitzer Sachsenforum statt.","http://internationale-wochen-gegen-rassismus.de/event/extrem-radikal-orientierungslos-copy-copy-4-copy-4-copy-25-copy-copy-copy-copy-2-copy-copy-copy-copy-copy-copy-copy-copy-2-copy-2-copy-copy-copy-copy-copy-copy-copy-copy-3/","2","http://about.afeefa.de/wp-content/uploads/2017/03/IWgR_Header_5-2.png","image","51.04518","13.669109"
"Israelischer Kulturabend","iwgr","23. March",,"17:00",,"Johannstädter Kulturtreff e.V.","Elisenstraße 35","01307","Dresden","Gemeinsames Zubereiten kleiner israelischer Köstlichkeiten, garniert mit einem Vortrag über das Land Israel.","http://internationale-wochen-gegen-rassismus.de/event/extrem-radikal-orientierungslos-copy-copy-4-copy-4-copy-24-copy-5-copy-10-copy-4-copy-4-copy-copy-copy-3/","2","http://about.afeefa.de/wp-content/uploads/2017/03/IWgR_Header_5-2.png","image","51.055917","13.760764"
"Gewalt, Krieg und Rassismus","iwgr","24. March","6. April","17:00",,"Kreativzentrum Omnibus","Berliner Straße 65",,"Dresden","Bilderausstellung des russischen Künstlers Alexeij Botschurow","http://internationale-wochen-gegen-rassismus.de/event/yohannes-kein-spaziergang-ein-fotoprojekt-von-inge-jann-copy-copy-copy-2-copy-2-copy-copy-copy-copy-2/","2","http://about.afeefa.de/wp-content/uploads/2017/03/IWgR_Header_5-2.png","image","51.05695","13.7098"
"Kann es denn rassistisch sein, wenn ich es nicht rassistisch meine? (Teil 1 von 3)","iwgr","24. March",,"17:00","20:00","WIR AG","Martin-Luther-Straße 21",,"Dresden","Ein Praxisworkshop, um Rassismus bewusster wahrzunehmen, zu verstehen und ihm aktiv zu begegnen. Mit Manjiri Palicha und André Vollrath.","http://internationale-wochen-gegen-rassismus.de/event/extrem-radikal-orientierungslos-copy-copy-4-copy-4-copy-24-copy-5-copy-10-copy-4-copy-4-copy-copy-copy-4-copy-copy/","2","http://about.afeefa.de/wp-content/uploads/2017/03/IWgR_Header_5-2.png","image","51.0644","13.75571"
"Interkulturelles Frühlingskonzert","iwgr","31. March",,"17:00","19:00","Himmelfahrtskirche Leuben","Rottwerndorfer Straße 1",,"Dresden","Benefizkonzert. Ein buntes Programm wird in der Himmelfahrtskirche Leuben geboten. Es werden Spenden für ein Projekt gesammelt, das die Arbeit von und mit Geflüchteten unterstützt.","http://internationale-wochen-gegen-rassismus.de/event/extrem-radikal-orientierungslos-copy-copy-4-copy-4-copy-24-copy-5-copy-10-copy-4-copy-6-copy-2-copy-copy-2-copy-copy-copy-copy-copy/","2","http://about.afeefa.de/wp-content/uploads/2017/03/IWgR_Header_5-2.png","image","51.01336","13.817689"
"Ökumenisches Friedensgebet zum Gedenken an Jorge Gomondai","iwgr","3. April",,"17:00",,"Programmkino Ost","Schandauer Straße 73",,"Dresden","Historisch reflektierte Alltagserfahrungen vor und während der NS-Zeit – Ausstellungseröffnung mit Zeitzeuginnen und Zeitzeugen. Vorführung des Films „Wir sind Juden aus Breslau“","http://internationale-wochen-gegen-rassismus.de/event/extrem-radikal-orientierungslos-copy-copy-4-copy-4-copy-24-copy-5-copy-10-copy-4-copy-6-copy-2-copy-copy-2-copy-copy-copy-copy-copy-copy-copy-copy-copy-copy-2-copy/","2","http://about.afeefa.de/wp-content/uploads/2017/03/IWgR_Header_5-2.png","image","51.039399","13.806499"
"Von der Zuschreibung zum Rassismus","iwgr","5. April",,"17:00","20:00","Dresden (Ort wird noch bekanntgegeben)",,,"Dresden","Workshop mit interaktiven Übungen, abwechslungsreicher Ergebnissicherung und Reflexion zum eigenen Denken, Sprechen und Handeln.","http://internationale-wochen-gegen-rassismus.de/event/yohannes-kein-spaziergang-ein-fotoprojekt-von-inge-jann/","2","http://about.afeefa.de/wp-content/uploads/2017/03/IWgR_Header_5-2.png","image","51.050409","13.737262"
"Bunter Faden für Toleranz und Menschlichkeit","iwgr","6. April",,"17:00","19:00","Dresden (vor der Dreikönigskirche)","vor der Dreikönigskirche",,"Dresden","Fotoprojekt. Es wird ein bunter Faden mit Fotos von Menschen gespannt.","http://internationale-wochen-gegen-rassismus.de/event/yohannes-kein-spaziergang-ein-fotoprojekt-von-inge-jann-copy-copy-copy/","2","http://about.afeefa.de/wp-content/uploads/2017/03/IWgR_Header_5-2.png","image","51.061001","13.743136"
"Treff International","iwgr","21. March",,"17:30","20:00","Jugendkeller der Martin-Luther-Gemeinde","Martin-Luther-Platz 5",,"Dresden","Der „Treff International“ des Kirchspiels Dresden Neustadt ist eine Begegnungsstätte für Einheimische und Flüchtlinge. Jeden Dienstag gibt es die Möglichkeit zum gegenseitigen Kennenlernen, Austauschen, Deutsch oder Arabisch üben, Spielen, Kochen, Kaffee ","http://internationale-wochen-gegen-rassismus.de/event/extrem-radikal-orientierungslos-copy-copy-4-copy-4-copy-24-copy-5-copy-10-copy-4-copy-2/","2","http://about.afeefa.de/wp-content/uploads/2017/03/IWgR_Header_5-2.png","image","51.064582","13.756762"
"Treff International","iwgr","28. March",,"17:30","20:00","Jugendkeller der Martin-Luther-Gemeinde","Martin-Luther-Platz 5",,"Dresden","Der „Treff International“ des Kirchspiels Dresden Neustadt ist eine Begegnungsstätte für Einheimische und Flüchtlinge. Jeden Dienstag gibt es die Möglichkeit zum gegenseitigen Kennenlernen, Austauschen, Deutsch oder Arabisch üben, Spielen, Kochen, Kaffee ","http://internationale-wochen-gegen-rassismus.de/event/extrem-radikal-orientierungslos-copy-copy-4-copy-4-copy-24-copy-5-copy-10-copy-4-copy-2-copy/","2","http://about.afeefa.de/wp-content/uploads/2017/03/IWgR_Header_5-2.png","image","51.064582","13.756762"
"Treff International","iwgr","4. April",,"17:30","20:00","Jugendkeller der Martin-Luther-Gemeinde","Martin-Luther-Platz 5",,"Dresden","Der „Treff International“ des Kirchspiels Dresden Neustadt ist eine Begegnungsstätte für Einheimische und Flüchtlinge. Jeden Dienstag gibt es die Möglichkeit zum gegenseitigen Kennenlernen, Austauschen, Deutsch oder Arabisch üben, Spielen, Kochen, Kaffee ","http://internationale-wochen-gegen-rassismus.de/event/extrem-radikal-orientierungslos-copy-copy-4-copy-4-copy-24-copy-5-copy-10-copy-4-copy-6-copy-2-copy-copy-2-copy-copy-copy-copy-copy-copy-copy-copy-copy-copy-2-copy-copy-2-copy-copy-2/","2","http://about.afeefa.de/wp-content/uploads/2017/03/IWgR_Header_5-2.png","image","51.064582","13.756762"
"Rechte Gewalt in Sachsen","iwgr","5. April",,"17:30",,"Neues Rathaus Dresden","Rathausplatz 1","01067","Dresden","Vernissage zur Ausstellung.","http://internationale-wochen-gegen-rassismus.de/event/extrem-radikal-orientierungslos-copy-copy-4-copy-4-copy-24-copy-5-copy-10-copy-4-copy-6-copy-2-copy-copy-2-copy-copy-copy-copy-2-copy/","2","http://about.afeefa.de/wp-content/uploads/2017/03/IWgR_Header_5-2.png","image","51.04817","13.741956"
"Info-Börse","iwgr","16. March",,"18:00","19:00","Neues Rathaus","Rathausplatz 1",,"Dresden","Vereine, Initiativen und Träger, die in der politischen Bildung tätig sind und mit ihrer Arbeit ein Zeichen gegen Rassismus setzen, stellen sich und ihre Arbeit an einzelnen Ständen vor.","http://internationale-wochen-gegen-rassismus.de/event/extrem-radikal-orientierungslos-copy-copy-4-copy-4-copy-24-copy-5-copy-10-copy-3/","2","http://about.afeefa.de/wp-content/uploads/2017/03/IWgR_Header_5-2.png","image","51.01022","13.69332"
"Literarische NSU aus Dresden – Ein Kleinverlag, die Identitären und die Wiederkehr der konservativen Revolution.","iwgr","21. March",,"18:00",,"WIR AG","Martin-Luther-Straße 21",,"Dresden","Vortrag und Diskussion mit dem Publizisten Volkmar Wölk.","http://internationale-wochen-gegen-rassismus.de/event/extrem-radikal-orientierungslos-copy-copy-4-copy-4-copy-24-copy-5-copy-10-copy-4-copy-3/","2","http://about.afeefa.de/wp-content/uploads/2017/03/IWgR_Header_5-2.png","image","51.0644","13.75571"
"mEAT and grEAT – wie schmeckt die Welt?","iwgr","23. March",,"18:00","20:00","Mauersberger Saal","An der Kreuzkirche 6","01067","Dresden","Der Kirchenbezirk Dresden-Mitte veranstaltet gemeinsam mit Sonders (freier Träger der Jugendhilfe) und der Sozialen Arbeit am Gymnasium Bürgerwiese einen interkulturellen Koch- und Gesprächsabend an der Kreuzkirche.","http://internationale-wochen-gegen-rassismus.de/event/was-koennen-wir-gegen-rassismusursachen-tun-copy-6-copy-6-copy-copy-91/","2","http://about.afeefa.de/wp-content/uploads/2017/03/IWgR_Header_5-2.png","image","51.04789","13.7391"
"Leitkultur oder Multikulti? Zur Psychologie des Wir-Gefühls","iwgr","23. March",,"18:00","20:15","Volkshochschule Dresden","Annenstraße 10","01067","Dresden","Der große Zustrom von Flüchtlingen und die Forderung nach ihrer Integration hat ein Problem wieder aktuell werden lassen: Was sind für uns unveräußerliche Werte, denen sich Einwanderer anzupassen haben, welche aus unserer Sicht abweichenden Wertvorstellun","http://internationale-wochen-gegen-rassismus.de/event/was-koennen-wir-gegen-rassismusursachen-tun-copy-6-copy-6-copy-copy-98-copy/","2","http://about.afeefa.de/wp-content/uploads/2017/03/IWgR_Header_5-2.png","image","51.049494","13.729814"
"Andernorts – Ein Blick auf kulturelle Vielfalt","iwgr","28. March","21. April","18:00",,"Grünes Büro","Schlüterstraße 7",,"Dresden","Ausstellung mit den Arbeiten junger Menschen verschiedener Herkunft.","http://internationale-wochen-gegen-rassismus.de/event/yohannes-kein-spaziergang-ein-fotoprojekt-von-inge-jann-copy-copy-copy-2-copy-2-copy-copy-copy-copy-3-copy/","2","http://about.afeefa.de/wp-content/uploads/2017/03/IWgR_Header_5-2.png","image","51.036566","13.789476"
"mEAT and grEAT – wie schmeckt die Welt?","iwgr","30. March",,"18:00","20:00","Mauersberger Saal","An der Kreuzkirche 6","01067","Dresden","Der Kirchenbezirk Dresden-Mitte veranstaltet gemeinsam mit Sonders (freier Träger der Jugendhilfe) und der Sozialen Arbeit am Gymnasium Bürgerwiese einen interkulturellen Koch- und Gesprächsabend an der Kreuzkirche.","http://internationale-wochen-gegen-rassismus.de/event/was-koennen-wir-gegen-rassismusursachen-tun-copy-6-copy-6-copy-copy-91-copy/","2","http://about.afeefa.de/wp-content/uploads/2017/03/IWgR_Header_5-2.png","image","51.04789","13.7391"
"Diskriminierung per Gesetz – Asylrechtsverschärfungen und deren Folgen","iwgr","30. March",,"18:00",,"WIR AG","Martin-Luther-Straße 21",,"Dresden","Mit MdL Juliane Nagel, Sprecherin für Migrations- und Flüchtlingspolitik der sächsischen Landtagsfraktion DIE LINKE.","http://internationale-wochen-gegen-rassismus.de/event/extrem-radikal-orientierungslos-copy-copy-4-copy-4-copy-24-copy-5-copy-10-copy-4-copy-6-copy-2-copy-copy-2-copy-copy/","2","http://about.afeefa.de/wp-content/uploads/2017/03/IWgR_Header_5-2.png","image","51.0644","13.75571"
"Was bedeutet gelungene Integration?","iwgr","30. March",,"18:00","21:00","Volkshochschule Dresden","Annenstraße 10","01067","Dresden","„Wenn die sich anpassen, dann gibt es keine Probleme“ – ein Satz, den man umgangssprachlich sehr oft hört, wenn es um Migration und Integration geht. Welche Widersprüche und Konfliktpotentiale verbergen sich hinter dem Begriff „Musterintegration“? Wer mus","http://internationale-wochen-gegen-rassismus.de/event/was-koennen-wir-gegen-rassismusursachen-tun-copy-6-copy-6-copy-copy-98-copy-copy/","2","http://about.afeefa.de/wp-content/uploads/2017/03/IWgR_Header_5-2.png","image","51.049494","13.729814"
"Zuerst Mensch! Konsequenzen für den gesellschaftlichen Dialog","iwgr","1. April",,"18:00",,"Neues Rathaus Dresden","Rathausplatz 1","01067","Dresden","Impulsvortrag und anschließende Podiumsdiskussion mit Vertreterinnen und Vertretern verschiedener Religionen bzw. Weltanschauungen. Umrahmt von Musik.","http://internationale-wochen-gegen-rassismus.de/event/extrem-radikal-orientierungslos-copy-copy-4-copy-4-copy-24-copy-5-copy-10-copy-4-copy-6-copy-2-copy-copy-2-copy-copy-copy-copy-copy-copy-copy-copy-copy/","2","http://about.afeefa.de/wp-content/uploads/2017/03/IWgR_Header_5-2.png","image","51.04817","13.741956"
"„Wo wir herkommen und unser neues Leben in Dresden“","iwgr","2. April",,"18:00",,"DIWAN Café","Pulsnitzer Straße 18",,"Dresden","Flüchtlinge aus Syrien berichten über ihre Erfahrungen und wie sie in Dresden angekommen sind.","http://internationale-wochen-gegen-rassismus.de/event/extrem-radikal-orientierungslos-copy-copy-4-copy-4-copy-24-copy-5-copy-10-copy-4-copy-6-copy-2-copy-copy-2-copy-copy-copy-copy-copy-copy-copy-copy-copy-2/","2","http://about.afeefa.de/wp-content/uploads/2017/03/IWgR_Header_5-2.png","image","51.06507","13.7586"
"Fremde in Dresden 1945 bis 1989","iwgr","3. April",,"18:00",,"Stadtarchiv Dresden","Elisabeth-Boer-Straße 1",,"Dresden","Vortrag","http://internationale-wochen-gegen-rassismus.de/event/extrem-radikal-orientierungslos-copy-copy-4-copy-4-copy-24-copy-5-copy-10-copy-4-copy-6-copy-2-copy-copy-2-copy-copy-copy-copy-copy-copy-copy-copy-copy-copy-2-copy-copy/","2","http://about.afeefa.de/wp-content/uploads/2017/03/IWgR_Header_5-2.png","image","51.08141","13.7579"
"Rassismus unter Menschen mit Migrationshintergrund in Dresden","iwgr","4. April",,"18:00","19:30","Integrations- und Ausländerbeirat Dresden","Martin-Luther-Platz 5",,"Dresden","Wo liegen die Ursachen und was kann dagegen getan werden? Vortrag mit Diskussion","http://internationale-wochen-gegen-rassismus.de/event/extrem-radikal-orientierungslos-copy-copy-4-copy-4-copy-24-copy-5-copy-10-copy-4-copy-6-copy-2-copy-copy-2-copy-copy-copy-copy-copy-copy-copy-copy-copy-copy-2-copy-copy-2-copy-copy-2-copy/","2","http://about.afeefa.de/wp-content/uploads/2017/03/IWgR_Header_5-2.png","image","51.064582","13.756762"
"Das [un]bekannte Andere – Verfolgung von Sinti und Roma in Sachsen","iwgr","6. April",,"18:00",,"Stadtarchiv Dresden","Elisabeth-Boer-Straße 1",,"Dresden","Vortrag mit Claudia Pawlowitsch über die institutionalisierte Verfolgung von Sintezze und Romnia in Sachsen.","http://internationale-wochen-gegen-rassismus.de/event/yohannes-kein-spaziergang-ein-fotoprojekt-von-inge-jann-copy-copy-copy-copy/","2","http://about.afeefa.de/wp-content/uploads/2017/03/IWgR_Header_5-2.png","image","51.08141","13.7579"
"Stilles Gedenken an Jorge Gomondai","iwgr","6. April",,"18:00",,,"Jorge-Gomondai-Platz",,"Dresden","Blumenniederlegung am Gedenkstein Jorge Gomondais.","http://internationale-wochen-gegen-rassismus.de/event/yohannes-kein-spaziergang-ein-fotoprojekt-von-inge-jann-copy-copy-copy-copy-copy/","2","http://about.afeefa.de/wp-content/uploads/2017/03/IWgR_Header_5-2.png","image","51.061693","13.744997"
"Nietzsche und die Neue Rechte","iwgr","28. March",,"18:30",,"Neues Rathaus Dresden","Rathausplatz 1","01067","Dresden","Antisemitismus, Herrenmoral, Wille zur Macht – arbeitete Nietzsche der Neuen Rechten vor?","http://internationale-wochen-gegen-rassismus.de/event/extrem-radikal-orientierungslos-copy-copy-4-copy-4-copy-24-copy-5-copy-10-copy-4-copy-6-copy-2-copy/","2","http://about.afeefa.de/wp-content/uploads/2017/03/IWgR_Header_5-2.png","image","51.04817","13.741956"
"Aufeinander zugehen. Ein Gesprächsabend","iwgr","3. April",,"18:30",,"Stadtteilbibliothek Strehlen im O. D. C.","Ott-Dix-Ring 61","01219","Dresden","Der Caritasverband Dresden und die Stadtteilbibliothek Strehlen bieten die Gelegenheit, fremde Kultur näher kennen zu lernen, von der Situation in den Kriegsgebieten zu erfahren und sich persönlich zu begegnen.","http://internationale-wochen-gegen-rassismus.de/event/was-koennen-wir-gegen-rassismusursachen-tun-copy-6-copy-6-copy-copy-116/","2","http://about.afeefa.de/wp-content/uploads/2017/03/IWgR_Header_5-2.png","image","51.018438","13.779714"
"Racial Profiling und institutioneller Rassismus","iwgr","5. April",,"18:30",,"Dresden (Ort wird noch bekanntgegeben)",,,"Dresden","Existenz und Ausmaß von Racial Profiling und institutionellem Rassismus in Deutschland werden beleuchtet.","http://internationale-wochen-gegen-rassismus.de/event/yohannes-kein-spaziergang-ein-fotoprojekt-von-inge-jann-copy/","2","http://about.afeefa.de/wp-content/uploads/2017/03/IWgR_Header_5-2.png","image","51.050409","13.737262"
"Internationaler Begegnungstreff","iwgr","5. April",,"18:30","22:00","Gemeindehaus Ev.-Luth. Laurentiuskirchgemeinde Dresden",,,"Dresden","Offenes Angebot der Gemeinde. Miteinander ins Gespräch kommen, Spiel und Spaß, zusammen Kochen – mal arabisches, mal deutsches Essen.","http://internationale-wochen-gegen-rassismus.de/event/yohannes-kein-spaziergang-ein-fotoprojekt-von-inge-jann-copy-copy/","2","http://about.afeefa.de/wp-content/uploads/2017/03/IWgR_Header_5-2.png","image","51.050409","13.737262"
"Mit Musik und Tanz Grenzen überwinden","iwgr","14. March",,"19:00",,"GO IN","Leutewitzer Ring 75",,"Dresden","Banda Internationale","http://internationale-wochen-gegen-rassismus.de/event/was-koennen-wir-gegen-rassismusursachen-tun-copy-6-copy-6-copy-copy-88/","2","http://about.afeefa.de/wp-content/uploads/2017/03/IWgR_Header_5-2.png","image","51.048774","13.672399"
"Buchpremiere: „Unter Sachsen. Zwischen Wut und Willkommen“","iwgr","16. March",,"19:00",,"Staatsschauspiel Dresden, Kleines Haus Mitte","Glacisstraße 28","01099","Dresden","Buchpremiere mit den HerausgeberInnen und AutorInnen: „Unter Sachsen. Zwischen Wut und Willkommen“, herausgegeben von Heike Kleffner und Matthias Meisner","http://internationale-wochen-gegen-rassismus.de/event/was-koennen-wir-gegen-rassismusursachen-tun-copy-6-copy-6-copy-copy-90-copy/","2","http://about.afeefa.de/wp-content/uploads/2017/03/IWgR_Header_5-2.png","image","51.0616","13.75062"
"Quo vadis? Dresden zwischen Menschenfeindlichkeit und demokratischer Verantwortung","iwgr","16. March",,"19:00",,"Neues Rathaus Dresden","Rathausplatz 1","01067","Dresden","Feierliche Eröffnung der Internationalen Wochen gegen Rassismus mit Dresdens Oberbürgermeister Dirk Hilbert und Dr. Oliver Decker von der Universität Leipzig.","http://internationale-wochen-gegen-rassismus.de/event/was-koennen-wir-gegen-rassismusursachen-tun-copy-6-copy-10-copy-19-copy-7/","2","http://about.afeefa.de/wp-content/uploads/2017/03/IWgR_Header_5-2.png","image","51.04817","13.741956"
"Fragments of Memories","iwgr","17. March","7. April","19:00",,"Johannstädter Kulturtreff e.V.","Elisenstraße 35","01307","Dresden","Ausstellung mit Werken von geflüchteten Künstlerinnen und Künstlern, die vorwiegend aus Syrien kommen.","http://internationale-wochen-gegen-rassismus.de/event/yohannes-kein-spaziergang-ein-fotoprojekt-von-inge-jann-copy-copy-copy-2-copy-2-copy-copy/","2","http://about.afeefa.de/wp-content/uploads/2017/03/IWgR_Header_5-2.png","image","51.055917","13.760764"
"MontagsTalk","iwgr","20. March",,"19:00","21:30","Kleines Haus","Glacisstraße 28",,"Dresden","Eine inszenierte Gesprächsrunde zum Thema Liebe und Freundschaft, mit Gästen aus aller Welt. Im Rahmen des Montagscafés.","http://internationale-wochen-gegen-rassismus.de/event/extrem-radikal-orientierungslos-copy-copy-4-copy-4-copy-24-copy-5-copy-10-copy-4-copy/","2","http://about.afeefa.de/wp-content/uploads/2017/03/IWgR_Header_5-2.png","image","51.0616","13.75062"
"Grüner Salon: Alltagsrassismus in unserer Stadt und wie wir ihm begegnen können.","iwgr","20. March",,"19:00",,"Grüne Ecke","Bischofsplatz 6",,"Dresden","Vielfältig und bedrohlich ist Rassismus in Dresden. Diskussion über Erfahrungen und kommunale Strategien gegen alltäglichen Rassismus.","http://internationale-wochen-gegen-rassismus.de/event/was-koennen-wir-gegen-rassismusursachen-tun-copy-6-copy-6-copy-copy-96-copy/","2","http://about.afeefa.de/wp-content/uploads/2017/03/IWgR_Header_5-2.png","image","51.072129","13.747594"
"Bürgerliche Scharfmacher – Deutschlands neue rechte Mitte – von AfD bis Pegida","iwgr","22. March",,"19:00",,"Studentenclub Bärenzwinger","Brühlscher Garten 1","01067","Dresden","Lesung mit Andreas Speit, Autor und anschließendes Gespräch mit Andreas Speit und Albrecht Pallas, MdL","http://internationale-wochen-gegen-rassismus.de/event/was-koennen-wir-gegen-rassismusursachen-tun-copy-6-copy-6-copy-copy-86/","2","http://about.afeefa.de/wp-content/uploads/2017/03/IWgR_Header_5-2.png","image","51.05237","13.74517"
"Perspektivwechsel – Geflüchtete berichten über Ihre Erfahrungen in Deutschland","iwgr","22. March",,"19:00",,"SPIKE Dresden","Karl-Laux-Str. 5","01219","Dresden","Geflüchtete Menschen erzählen von ihren Erfahrungen in der neuen Heimat.","http://internationale-wochen-gegen-rassismus.de/event/extrem-radikal-orientierungslos-copy-copy-4-copy-4-copy-24-copy-5-copy-10-copy-4-copy-5-copy/","2","http://about.afeefa.de/wp-content/uploads/2017/03/IWgR_Header_5-2.png","image","51.013728","13.769624"
"„expedition“ – Comic-Lesung mit René Grodde","iwgr","22. March",,"19:00",,"Johannstädter Kulturtreff e.V.","Elisenstraße 35","01307","Dresden","Ein internationales Team begibt sich auf die Suche nach einer Schriftrolle, die wertvolle Informationen zur Energieversorgung jahrhundertealter Hochkulturen beinhaltet.","http://internationale-wochen-gegen-rassismus.de/event/was-koennen-wir-gegen-rassismusursachen-tun-copy-6-copy-6-copy-copy-105/","2","http://about.afeefa.de/wp-content/uploads/2017/03/IWgR_Header_5-2.png","image","51.055917","13.760764"
"Lesung „Marie Jalowicz Simon: Untergetaucht.“","iwgr","22. March",,"19:00",,"Landhaus Dresden","Wilsdruffer Straße 2",,"Dresden","Eine junge Frau überlebt in Berlin 1940-1945. Lesung mit Hermann Simon. Die Jüdin Marie Jalowicz erzählt 50 Jahre danach die Geschichte ihres Überlebens.","http://internationale-wochen-gegen-rassismus.de/event/extrem-radikal-orientierungslos-copy-copy-4-copy-4-copy-24-copy-5-copy-10-copy-4-copy-4-copy-copy/","2","http://about.afeefa.de/wp-content/uploads/2017/03/IWgR_Header_5-2.png","image","51.050073","13.743011"
"Rechte Gewalt in Osteuropa","iwgr","23. March",,"19:00",,"Brücke-Most-Stiftung","Reinhold-Becker-Str. 5","01277","Dresden","How has Central and Eastern European countries tackled hate crime? Could we still claim (and blame) only extremists for committing hate crime or should we address the basis of bias violence as it is – prejudiced and commited by deprived and radicalized mi","http://internationale-wochen-gegen-rassismus.de/event/was-koennen-wir-gegen-rassismusursachen-tun-copy-6-copy-6-copy-copy-96/","2","http://about.afeefa.de/wp-content/uploads/2017/03/IWgR_Header_5-2.png","image","51.049559","13.810093"
"Nahid Shahalimi: Wo Mut die Seele trägt – wir Frauen in Afghanistan","iwgr","24. March",,"19:00",,"Bibliothek Neustadt (Städtische Bibliotheken Dresden)","Königsbrücker Straße 26","01099","Dresden","Die bekannte Autorin erzählt authentische, beeindruckende Lebensgeschichten afghanischer Frauen. Es sind Erzählungen über ihre Träume, über Mut, Trauer, aber auch Lebensfreude. Obwohl der Weg dieser Frauen gefährdet ist, ist die Autorin auf eine Welt der ","http://internationale-wochen-gegen-rassismus.de/event/was-koennen-wir-gegen-rassismusursachen-tun-copy-6-copy-6-copy-copy-82-copy-copy-copy-7/","2","http://about.afeefa.de/wp-content/uploads/2017/03/IWgR_Header_5-2.png","image","51.06752","13.747374"
"Arte Migrante","iwgr","27. March",,"19:00","21:30","Kleines Haus","Glacisstraße 28",,"Dresden","Open-Stage Workshop und Konzert. Zu gast ist „Cla:S the Spoonman“ mit Workshop und Löffel-Konzert sowie special guests aus aller Welt.","http://internationale-wochen-gegen-rassismus.de/event/extrem-radikal-orientierungslos-copy-copy-4-copy-4-copy-24-copy-5-copy-10-copy-4-copy-6/","2","http://about.afeefa.de/wp-content/uploads/2017/03/IWgR_Header_5-2.png","image","51.0616","13.75062"
"Populism as a cycle","iwgr","28. March",,"19:00",,"Kulturrathaus Dresden","Königstr. 15","01097","Dresden","In der Veranstaltung wird versucht das Phänomen des Populismus zu beleuchten: Was zeichnet ihn aus, was sind historische Vorläufer der heutigen Erscheinungsformen und lassen sich geschichtliche Zyklen ausmachen.","http://internationale-wochen-gegen-rassismus.de/event/was-koennen-wir-gegen-rassismusursachen-tun-copy-6-copy-6-copy-copy-95/","2","http://about.afeefa.de/wp-content/uploads/2017/03/IWgR_Header_5-2.png","image","51.061749","13.7427"
"„Vierzig Tage Armenien“","iwgr","28. March",,"19:00",,"Bibliothek Laubegast","Österreicher Straße 13","01279","Dresden","Eine deutsche Autorin blickt aus einem Fenster in ein altes Land – Lesung mit Constanze John.","http://internationale-wochen-gegen-rassismus.de/event/was-koennen-wir-gegen-rassismusursachen-tun-copy-6-copy-10-copy-13/","2","http://about.afeefa.de/wp-content/uploads/2017/03/IWgR_Header_5-2.png","image","51.028694","13.833684"
"Den Islam verstehen – eine Einführung","iwgr","29. March",,"19:00","20:30","VHS Dresden","Annenstraße 10",,"Dresden","Der Islam ist mit ca. 1,6 Milliarden Mitgliedern eine der größten Religionsgemeinschaften der Welt. Das Bild vom Islam ist in Deutschland oftmals unscharf und reicht von offenen und gastfreundlichen Menschen bis zu radikalen Islamisten – und für alle sche","http://internationale-wochen-gegen-rassismus.de/event/extrem-radikal-orientierungslos-copy-copy-4-copy-4-copy-24-copy-5-copy-10-copy-4-copy-7/","2","http://about.afeefa.de/wp-content/uploads/2017/03/IWgR_Header_5-2.png","image","51.049494","13.729814"
"Kulturabend „Syrien vor dem Krieg“","iwgr","30. March",,"19:00",,"Johannstädter Kulturtreff e.V.","Elisenstraße 35","01307","Dresden","Mahmoud Alkalaf erzählt von seinem Land, als es noch friedlich war. In Wort, Bild, Video und Musik.","http://internationale-wochen-gegen-rassismus.de/event/extrem-radikal-orientierungslos-copy-copy-4-copy-4-copy-24-copy-5-copy-10-copy-4-copy-6-copy-2-copy-copy-2-copy-copy-copy/","2","http://about.afeefa.de/wp-content/uploads/2017/03/IWgR_Header_5-2.png","image","51.055917","13.760764"
"Die schönsten Vorurteile der Welt","iwgr","30. March",,"19:00",,"Stadtteilhaus Dresden-Neustadt","Prießnitzstraße 18",,"Dresden","Oder: Warum wir äußerlichen Merkmalen zu viel Bedeutung beimessen. Mit dem Referenten Dr. med. Jan Oude-Aost.","http://internationale-wochen-gegen-rassismus.de/event/extrem-radikal-orientierungslos-copy-copy-4-copy-4-copy-24-copy-5-copy-10-copy-4-copy-6-copy-2-copy-copy-2-copy-copy-copy-copy/","2","http://about.afeefa.de/wp-content/uploads/2017/03/IWgR_Header_5-2.png","image","51.06516","13.75936"
"Verbranntes Haus","iwgr","31. March",,"19:00",,"Kultur Aktiv, Galerie NEUE OSTEN","Bautzner Straße 49",,"Dresden","Vernissage. Ausstellung über Flucht aus Tschetschenien im Fokus: Tschetschenische Familien in Berlin und Dresden.","http://internationale-wochen-gegen-rassismus.de/event/extrem-radikal-orientierungslos-copy-copy-4-copy-4-copy-24-copy-5-copy-10-copy-4-copy-6-copy-2-copy-copy-2-copy-copy-copy-copy-copy-copy/","2","http://about.afeefa.de/wp-content/uploads/2017/03/IWgR_Header_5-2.png","image","51.063211","13.755891"
"Wie im Traum","iwgr","1. April",,"19:00",,"Blaue Fabrik","Eisenbahnstraße 1","01067","Dresden","Vernissage. Fotografien, Grafiken, Collagen und Texte aus künstlerischen Projekten mit Geflüchteten.","http://internationale-wochen-gegen-rassismus.de/event/extrem-radikal-orientierungslos-copy-copy-4-copy-4-copy-24-copy-5-copy-10-copy-4-copy-6-copy-2-copy-copy-2-copy-copy-copy-copy-copy-copy-copy-copy-copy-copy/","2","http://about.afeefa.de/wp-content/uploads/2017/03/IWgR_Header_5-2.png","image","51.06676","13.73776"
"Frederik Willem de Klerk","iwgr","3. April",,"19:00",,"Frauenkirche Dresden","Neumarkt",,"Dresden","Im Rahmen der Reihe »Friedensnobelpreisträger in der Frauenkirche Dresden« spricht der ehemalige Staatspräsident der Republik Südafrika, Friedensnobelpreisträger von 1993, Frederik Willem de Klerk. Die Rede steht unter dem Leitgedanken der Veranstaltungsr","http://internationale-wochen-gegen-rassismus.de/event/extrem-radikal-orientierungslos-copy-copy-4-copy-4-copy-24-copy-5-copy-10-copy-4-copy-6-copy-2-copy-copy-2-copy-copy-copy-copy-copy-copy-copy-copy-copy-copy-2-copy-copy-2/","2","http://about.afeefa.de/wp-content/uploads/2017/03/IWgR_Header_5-2.png","image","51.051873","13.741522"
"Montagscafé mit Überraschungsgast","iwgr","3. April",,"19:00","21:30","Kleines Haus","Glacisstraße 28",,"Dresden","Workshop","http://internationale-wochen-gegen-rassismus.de/event/extrem-radikal-orientierungslos-copy-copy-4-copy-4-copy-24-copy-5-copy-10-copy-4-copy-6-copy-2-copy-copy-2-copy-copy-copy-copy-copy-copy-copy-copy-copy-copy-2-copy-copy-2-copy/","2","http://about.afeefa.de/wp-content/uploads/2017/03/IWgR_Header_5-2.png","image","51.0616","13.75062"
"Yohannes. Kein Spaziergang.","iwgr","4. April",,"19:00",,"Bürgerbüro Dr. Eva-Maria Stange","Rudolf-Renner-Straße 51","01159","Dresden","Ein Fotoprojekt von Inge Jann. Während eines Spaziergangs erzählt Yohannes, 20 Jahre alt, von seinen Erfahrung mit Alltagsrassismus in Dresden.","http://internationale-wochen-gegen-rassismus.de/event/extrem-radikal-orientierungslos-copy-copy-4-copy-4-copy-24-copy-5-copy-10-copy-4-copy-6-copy-2-copy-copy-2-copy-copy-copy-copy-2/","2","http://about.afeefa.de/wp-content/uploads/2017/03/IWgR_Header_5-2.png","image","51.043802","13.694276"
"Die Strenggläubigen. Fundamentalismus in der islamischen Welt","iwgr","6. April",,"19:00",,"VHS Dresden","Annenstraße 10",,"Dresden","Lesung, Vortrag und Diskussion","http://internationale-wochen-gegen-rassismus.de/event/yohannes-kein-spaziergang-ein-fotoprojekt-von-inge-jann-copy-copy-copy-copy-copy-copy/","2","http://about.afeefa.de/wp-content/uploads/2017/03/IWgR_Header_5-2.png","image","51.049494","13.729814"
"Madgermanes – Ausbeutung unter deutscher Flagge?","iwgr","6. April",,"19:00",,"Dreikönigskirche/Kleiner Festsaal","Hauptstraße 23","01097","Dresden","Die Veranstaltung findet in Gedenken an Jorge Gomondai statt und wird einen Blick auf die Umstände der Vertragsarbeiterinnen und Vertragsarbeiter aus Mosambik zur Wendezeit und deren erschwerte Lebensbedingungen in ihrem Heimatland heute richten. Der mosa","http://internationale-wochen-gegen-rassismus.de/event/extrem-radikal-orientierungslos-copy-copy-4-copy-4-copy-24-copy-5-copy-10/","2","http://about.afeefa.de/wp-content/uploads/2017/03/IWgR_Header_5-2.png","image","51.060911","13.743297"
"Was können wir gegen Rassismusursachen tun?","iwgr","30. March",,"19:00",,"ÖIZ Dresden","Kreuzstraße 7","01067","Dresden","Diskussion: Was tun mit beschränkten Mitteln gegen die gesellschaftlichen Ursachen von Rassismus?","http://internationale-wochen-gegen-rassismus.de/event/was-koennen-wir-gegen-rassismusursachen-tun/","2","http://about.afeefa.de/wp-content/uploads/2017/03/IWgR_Header_5-2.png","image","51.049157","13.739196"
"Der Pontifex der Überraschungen","iwgr","13. March",,"19:30",,"St.-Benno-Gymnasium Dresden","Pillnitzer Straße 39",,"Dresden","Vier Jahre Papst Franziskus. Unter anderem wird sein Einsatz für Flüchtlinge hervorgehoben, auch seine Mahnung an das EU-Parlament.","http://internationale-wochen-gegen-rassismus.de/event/extrem-radikal-orientierungslos-copy-copy-4-copy-4-copy-24-copy-5-copy-10-copy-4-copy-6-copy-2-copy-copy-2-copy-copy-copy-copy-copy-copy-copy-copy-copy-copy-2-copy-2-copy/","2","http://about.afeefa.de/wp-content/uploads/2017/03/IWgR_Header_5-2.png","image","51.05104","13.75697"
"Romeo und Julia","iwgr","21. March",,"19:30","21:00","Kleines Haus","Glacisstraße 28",,"Dresden","Romeo und Julia von William Shakespeare, ein Theaterprojekt in arabischer und deutscher Sprache","http://internationale-wochen-gegen-rassismus.de/event/extrem-radikal-orientierungslos-copy-copy-4-copy-4-copy-24-copy-5-copy-10-copy-4-copy-5/","2","http://about.afeefa.de/wp-content/uploads/2017/03/IWgR_Header_5-2.png","image","51.0616","13.75062"
"Länderabend Syrien.","iwgr","21. March",,"19:30",,"Gemeindehaus Christuskirche","Elsa-Brändström-Straße 1",,"Dresden","Geflüchtete berichten.","http://internationale-wochen-gegen-rassismus.de/event/extrem-radikal-orientierungslos-copy-copy-4-copy-4-copy-24-copy-5-copy-10-copy-4-copy-4/","2","http://about.afeefa.de/wp-content/uploads/2017/03/IWgR_Header_5-2.png","image","51.026731","13.76556"
"Fritz Bauer – Jurist aus Freiheitssinn und Anwalt der Überlebenden","iwgr","22. March",,"19:30",,"Katholische Akademie","Haus der Kathedrale, Schloßstraße 24",,"Dresden","Fritz Bauer setzte sich konsequent für die Verfolgten und Schwächsten der Gesellschaft ein.","http://internationale-wochen-gegen-rassismus.de/event/extrem-radikal-orientierungslos-copy-copy-4-copy-4-copy-24-copy-5-copy-10-copy-4-copy-4-copy-copy-copy/","2","http://about.afeefa.de/wp-content/uploads/2017/03/IWgR_Header_5-2.png","image","51.052632","13.738002"
"Ökologischer Wiederaufbau in Kobane/Rojava in Syrien","iwgr","22. March",,"19:30",,"Umweltzentrum Dresden","Schützengasse 16","01067","Dresden","Vortrag und Diskussion. Die bundesweite Initiative stellt sich vor. Mit dem Physiker Prof. Dr. Christian Jooß aus Göttingen, der vom Aufbau eines Gesundheits- und Sozialzentrums in Kobane berichtet.","http://internationale-wochen-gegen-rassismus.de/event/extrem-radikal-orientierungslos-copy-copy-4-copy-4-copy-24-copy-5-copy-10-copy-4-copy-4-copy-copy-copy-2/","2","http://about.afeefa.de/wp-content/uploads/2017/03/IWgR_Header_5-2.png","image","51.054441","13.726197"
"„Pegida als Spiegel und Projektionsfläche“ – Buchvorstellung und Diskussion","iwgr","30. March",,"19:30",,"FrauenBildungsHaus Dresden e.V.","Oskarstr. 1","01219","Dresden","Autor*innen des im Sommer 2016 erschienenen Buches „Pegida als Spiegel und Projektionsfläche“ zu Gast im Frauen*bildungszentrum!","http://internationale-wochen-gegen-rassismus.de/event/was-koennen-wir-gegen-rassismusursachen-tun-copy-6-copy-6-copy-copy-89/","2","http://about.afeefa.de/wp-content/uploads/2017/03/IWgR_Header_5-2.png","image","51.02921","13.759443"
"Islam und Christentum – Was eint? Was trennt?","iwgr","3. April",,"19:30",,"Apostelkirche Dresden","Kopernikusstraße 40",,"Dresden","Vortrag mit Herrn Dr. Harald Lamprecht, Beauftragter für Weltanschauungsfragen der Ev.-Luth. Landeskirche Sachsen. Anschließend gibt es die Möglichkeit, miteinander ins Gespräch zu kommen und sich über Bindendes und Trennendes im Glauben zu sprechen. Eine","http://internationale-wochen-gegen-rassismus.de/event/extrem-radikal-orientierungslos-copy-copy-4-copy-4-copy-24-copy-5-copy-10-copy-4-copy-6-copy-2-copy-copy-2-copy-copy-copy-copy-copy-copy-copy-copy-copy-copy-2-copy-copy-2-copy-copy/","2","http://about.afeefa.de/wp-content/uploads/2017/03/IWgR_Header_5-2.png","image","51.09209","13.71052"
"Neonschwarz","iwgr","23. March",,"20:00",,"scheune","Alaunstraße 36-40",,"Dresden","Musik mit Zeitgeist und Humor, Herz und Rückgrat, Hedonismus und Lebensbejahung – zu 100 Prozent.","http://internationale-wochen-gegen-rassismus.de/event/extrem-radikal-orientierungslos-copy-copy-4-copy-4-copy-24-copy-5-copy-10-copy-4-copy-4-copy-copy-copy-4-copy/","2","http://about.afeefa.de/wp-content/uploads/2017/03/IWgR_Header_5-2.png","image","51.066175","13.750713"
"Beat Combines: Drum & Bass Party","iwgr","24. March",,"20:00",,"Jugendhaus Prohlis","Niedersedlitzer Straße 50",,"Dresden","Party mit mehreren DJ´s.","http://internationale-wochen-gegen-rassismus.de/event/extrem-radikal-orientierungslos-copy-copy-4-copy-4-copy-24-copy-5-copy-10-copy-4-copy-4-copy-copy-copy-4-copy-copy-2/","2","http://about.afeefa.de/wp-content/uploads/2017/03/IWgR_Header_5-2.png","image","51.006832","13.806874"
"Leben ohne Rassismus in Sachsen und überall – Eine Ausstellung internationaler Studierender in Sachsen","iwgr","19. March",,"20:15",,"Gemeindezentrum Ev.-Luth. Johanneskirchgemeinde","Fiedlerstraße 2","01307","Dresden","Studierende, Absolventen und Kinder tauschten sich im Wochenendseminar des Studienbegleitprogramms STUBE über Rassismus und Diskriminierung aus.","http://internationale-wochen-gegen-rassismus.de/event/was-koennen-wir-gegen-rassismusursachen-tun-copy-6-copy-6-copy-copy-93/","2","http://about.afeefa.de/wp-content/uploads/2017/03/IWgR_Header_5-2.png","image","51.05283","13.77184"
"Ankerplatz gesucht: Bücherboot-Ausstellung","iwgr","1. March","30. March",,,"Bibliothek Neustadt (Städtische Bibliotheken Dresden)","Königsbrücker Straße 26","01099","Dresden","Ausstellung","http://internationale-wochen-gegen-rassismus.de/event/yohannes-kein-spaziergang-ein-fotoprojekt-von-inge-jann-copy-copy-copy-2/","2","http://about.afeefa.de/wp-content/uploads/2017/03/IWgR_Header_5-2.png","image","51.06752","13.747374"
"Veranstaltung auf Anfrage: Dresdner Bürgerinnen und Bürger und Migrantinnen und Migranten im 16. Jahrhundert","iwgr","16. March","6. April",,,"Stadtarchiv Dresden","Elisabeth-Boer-Straße 1",,"Dresden","Veranstaltung auf Anfrage.","http://internationale-wochen-gegen-rassismus.de/event/yohannes-kein-spaziergang-ein-fotoprojekt-von-inge-jann-copy-copy-copy-copy-copy-copy-2-copy/","2","http://about.afeefa.de/wp-content/uploads/2017/03/IWgR_Header_5-2.png","image","51.08141","13.7579"
"Veranstaltung auf Anfrage: Nachkriegszeit in Dresden (1945 bis 1949)","iwgr","16. March","6. April",,,"Stadtarchiv Dresden","Elisabeth-Boer-Straße 1",,"Dresden","Zwischen Flucht und Lebensmittelknappheit.","http://internationale-wochen-gegen-rassismus.de/event/yohannes-kein-spaziergang-ein-fotoprojekt-von-inge-jann-copy-copy-copy-copy-copy-copy-2/","2","http://about.afeefa.de/wp-content/uploads/2017/03/IWgR_Header_5-2.png","image","51.08141","13.7579"
"Nach Karrada: Trauer. Alltag. Zukunft?","iwgr","16. March","6. April","10:00","16:00","Neues Rathaus Dresden","Rathausplatz 1","01067","Dresden","Ausstellung: Der irakische Fotograph Ziyad Matti zeigt Fotografien aus Bagdad nach dem Anschlag im Juli 2016.","http://internationale-wochen-gegen-rassismus.de/event/yohannes-kein-spaziergang-ein-fotoprojekt-von-inge-jann-copy-copy-copy-2-copy-2/","2","http://about.afeefa.de/wp-content/uploads/2017/03/IWgR_Header_5-2.png","image","51.04817","13.741956"
"Ausstellungseröffnung „100 Bilder – Wer bin ich? – Woher komme ich? – Was will ich machen?“","iwgr","16. March",,"16:00",,"Ladenfenster direkt an der Haltestelle Hauptbahnhof Nord","Prager Straße 2","01069","Dresden","Ein Kurde, der vor 5 Jahren aus dem Iran flüchten musste, hat im letzten Jahr geflüchtete Menschen nach ihren Wünschen befragt, 80 Bilder sind entstanden und sollen erstmalig der Öffentlichkeit gezeigt werden.","http://internationale-wochen-gegen-rassismus.de/event/extrem-radikal-orientierungslos-copy-copy-4-copy-4-copy-24-copy-5-copy-10-copy/","2","http://about.afeefa.de/wp-content/uploads/2017/03/IWgR_Header_5-2.png","image","51.041525","13.734798"
"Wie konnte es so weit kommen? Versuch eine Anklage in eine Frage zu wandeln","iwgr","16. March","6. April",,,"Auf Anfrage",,,"Dresden","Historisch reflektierte Alltagserfahrungen vor und während der NS-Zeit.","http://internationale-wochen-gegen-rassismus.de/event/extrem-radikal-orientierungslos-copy-copy-4-copy-4-copy-24-copy-5-copy-10-copy-4-copy-6-copy-2-copy-copy-2-copy-copy-copy-copy-copy-copy-copy-copy-copy-copy-2-copy-3/","2","http://about.afeefa.de/wp-content/uploads/2017/03/IWgR_Header_5-2.png","image","51.050409","13.737262"
"Installation des polnischen Künstlers Pawel Lubkowski","iwgr","16. March","6. April",,,"Dresden (Ort wird noch bekanntgegeben)",,,"Dresden","Eine Installation aus Ziegeln und Reagenzgläsern mit Tränen – als Symbole für Mauern, Isolation und Leid.","http://internationale-wochen-gegen-rassismus.de/event/yohannes-kein-spaziergang-ein-fotoprojekt-von-inge-jann-copy-copy-copy-2-copy-2-copy/","2","http://about.afeefa.de/wp-content/uploads/2017/03/IWgR_Header_5-2.png","image","51.050409","13.737262"
"Ausstellungseröffnung „Fragments of Memories“","iwgr","17. March",,"19:00",,"Johannstädter Kulturtreff e.V.","Elisenstraße 35","01307","Dresden","Die Ausstellung zeigt Lebensgeschichten von Menschen verschiedenen Glaubens aus Dresden und möchte uns deren Standpunkte, Ideen und Hoffnungen mitteilen. Es möchte eine Stadt bewerben, die eine Vielfalt an Kulturen, Menschen unterschiedlicher Herkunft und","http://internationale-wochen-gegen-rassismus.de/event/was-koennen-wir-gegen-rassismusursachen-tun-copy-6-copy-6-copy-copy-105-copy/","2","http://about.afeefa.de/wp-content/uploads/2017/03/IWgR_Header_5-2.png","image","51.055917","13.760764"
"EIN-AUS-WEIT-BLICK","iwgr","18. March","10. June",,,"Kinder- und Jugendgalerie EINHORN","Königstraße 15","01097","Dresden","Verschiedene Jugendkunstschulen aus Nordrhein-Westfalen stellen in Dresden ihre Gemeinschaftsprojekte mit Flüchtlingen aus.","http://internationale-wochen-gegen-rassismus.de/event/yohannes-kein-spaziergang-ein-fotoprojekt-von-inge-jann-copy-copy-copy-2-copy-2-copy-copy-copy/","2","http://about.afeefa.de/wp-content/uploads/2017/03/IWgR_Header_5-2.png","image","51.061749","13.7427"
"Anti-Rassismus-Workshop","iwgr","18. March",,"9:30",,"Ev.-Luth. Kirchgemeinde Dresden-Gruna-Seidnitz, Gemeindehaus Gruna","Bodenbacher Str. 24","01277","Dresden","Worte finden – zum Umgang mit Alltagsrassismus und rechtspopulistischen Äußerungen","http://internationale-wochen-gegen-rassismus.de/event/extrem-radikal-orientierungslos-copy-copy-4-copy-4-copy-25-copy-copy-copy-copy-2-copy-copy-copy-copy-copy-copy-copy-copy-2-copy-2-copy-copy-copy-copy-copy-copy-copy-copy-2/","2","http://about.afeefa.de/wp-content/uploads/2017/03/IWgR_Header_5-2.png","image","51.03365","13.78175"
"Worte finden – zum Umgang mit Alltagsrassismus und rechtspopulistischen Äußerungen","iwgr","18. March",,"9:30","12:30","Gemeindehaus Gruna","Bodenbacher Straße 24",,"Dresden","Theaterworkshop nach Augusto Boal, Theater der Unterdrückten. Informationen bekommen und selbst Handlungsmöglichkeiten ausprobieren.","http://internationale-wochen-gegen-rassismus.de/event/was-koennen-wir-gegen-rassismusursachen-tun-copy-6-copy-6-copy-copy-116-copy-2-copy/","2","http://about.afeefa.de/wp-content/uploads/2017/03/IWgR_Header_5-2.png","image","51.03365","13.78175"
"Leben ohne Rassismus – in Sachsen und überall","iwgr","19. March",,"20:15",,"Gemeindezentrum an der Trinitatiskirchruine","Fiedlerstraße 2",,"Dresden","Vernissage der Ausstellung internationaler Studierender (19. March bis 16. April).","http://internationale-wochen-gegen-rassismus.de/event/was-koennen-wir-gegen-rassismusursachen-tun-copy-6-copy-6-copy-copy-116-copy-3/","2","http://about.afeefa.de/wp-content/uploads/2017/03/IWgR_Header_5-2.png","image","51.05283","13.77184"
"Leben ohne Rassismus – in Sachsen und überall","iwgr","19. March","16. April",,,"Gemeindezentrum (an der Trinitatiskirchruine)","Fiedlerstraße 2",,"Dresden","Ausstellung internationaler Studierender in Sachsen. mit Sätzen und Fotos regen Studierende an, in Sachsen und anderswo ohne Diskriminierung und ohne Hass zu leben. Es kann gelingen! Meinungen sind gefragt und Mitmachen erwünscht.","http://internationale-wochen-gegen-rassismus.de/event/yohannes-kein-spaziergang-ein-fotoprojekt-von-inge-jann-copy-copy-copy-2-copy-2-copy-copy-copy-copy/","2","http://about.afeefa.de/wp-content/uploads/2017/03/IWgR_Header_5-2.png","image","51.05283","13.77184"
"Perspektivwechsel","iwgr","22. March",,"19:00",,"SPIKE Dresden","Karl-Laux-Str. 5","01219","Dresden","Geflüchtete erzählen von ihren Erfahrungen in der neuen Heimat Deutschland.","http://internationale-wochen-gegen-rassismus.de/event/extrem-radikal-orientierungslos-copy-copy-4-copy-4-copy-25-copy-copy-copy-copy-2-copy-copy-copy-copy-copy-copy-copy-copy-2-copy-2-copy-copy-copy-copy-copy-copy-copy-copy/","2","http://about.afeefa.de/wp-content/uploads/2017/03/IWgR_Header_5-2.png","image","51.013728","13.769624"
"Comiclesung „expedition“","iwgr","22. March",,"19:00",,"Johannstädter Kulturtreff e.V.","Elisenstraße 35","01307","Dresden","Mit René Grodde. Eine internationale Expedition verfolgt ein gemeinsames Ziel. Es läuft jedoch nicht so, wie geplant.","http://internationale-wochen-gegen-rassismus.de/event/extrem-radikal-orientierungslos-copy-copy-4-copy-4-copy-24-copy-5-copy-10-copy-4-copy-4-copy/","2","http://about.afeefa.de/wp-content/uploads/2017/03/IWgR_Header_5-2.png","image","51.055917","13.760764"
"Gewalt, Krieg und Rassismus","iwgr","24. March",,"17:00",,"Kreativzentrum Omnibus","Berliner Straße 65",,"Dresden","Vernissage der Bilderausstellung des russischen Künstlers Alexeij Botschurow mit Informations- und Kulturprogramm.","http://internationale-wochen-gegen-rassismus.de/event/extrem-radikal-orientierungslos-copy-copy-4-copy-4-copy-24-copy-5-copy-10-copy-4-copy-4-copy-copy-copy-5/","2","http://about.afeefa.de/wp-content/uploads/2017/03/IWgR_Header_5-2.png","image","51.05695","13.7098"
"Ausstellung – Asyl ist Menschenrecht","iwgr","24. March",,"13:00",,"riesa efau","Wachsbleichstr. 4a","01067","Dresden","Die Ausstellung enthält vielfältige Informationen über Flüchtlinge und ihre Situation.","http://internationale-wochen-gegen-rassismus.de/event/was-koennen-wir-gegen-rassismusursachen-tun-copy-6-copy-6-copy-copy-83/","2","http://about.afeefa.de/wp-content/uploads/2017/03/IWgR_Header_5-2.png","image","51.056022","13.720674"
"Ausstellung – Asyl ist Menschenrecht","iwgr","25. March",,"13:00",,"riesa efau","Wachsbleichstr. 4a","01067","Dresden","Die Ausstellung enthält vielfältige Informationen über Flüchtlinge und ihre Situation.","http://internationale-wochen-gegen-rassismus.de/event/was-koennen-wir-gegen-rassismusursachen-tun-copy-6-copy-6-copy-copy-83-copy-2/","2","http://about.afeefa.de/wp-content/uploads/2017/03/IWgR_Header_5-2.png","image","51.056022","13.720674"
"Ausstellung – Asyl ist Menschenrecht","iwgr","26. March",,"11:30",,"riesa efau","Wachsbleichstr. 4a","01067","Dresden","Die Ausstellung enthält vielfältige Informationen über Flüchtlinge und ihre Situation.","http://internationale-wochen-gegen-rassismus.de/event/was-koennen-wir-gegen-rassismusursachen-tun-copy-6-copy-6-copy-copy-83-copy/","2","http://about.afeefa.de/wp-content/uploads/2017/03/IWgR_Header_5-2.png","image","51.056022","13.720674"
"Kleinfeldfußballturnier „SPORTVEREINT“","iwgr","26. March",,"10:16",,"Turnhalle der Oberschule „Geschwister Scholl“ Hainsberg","Richard-Wolff-Straße 1",,"Freital","Das Kleinfeldfußballturnier „SPORTVEREINT“ist offen für Freizeitfußballer aller Nationalitäten. Um den Pokal des Oberbürgermeisters der Stadt Freital spielen nach dem Motto, „Wir kämpfen nur im Sport“, 10-15 Mannschaften, gemischt aus Einheimischen und Mi","http://internationale-wochen-gegen-rassismus.de/event/was-koennen-wir-gegen-rassismusursachen-tun-copy-6-copy-6-copy-copy-101/","2","http://about.afeefa.de/wp-content/uploads/2017/03/IWgR_Header_5-2.png","image","50.9786","13.62243"
"Andernorts – Ein Blick auf kulturelle Vielfalt","iwgr","28. March",,"18:00",,"Grünes Büro","Schlüterstraße 7",,"Dresden","Vernissage zur Ausstellung mit den Arbeiten junger Menschen verschiedener Herkunft.","http://internationale-wochen-gegen-rassismus.de/event/extrem-radikal-orientierungslos-copy-copy-4-copy-4-copy-24-copy-5-copy-10-copy-4-copy-6-copy-2/","2","http://about.afeefa.de/wp-content/uploads/2017/03/IWgR_Header_5-2.png","image","51.036566","13.789476"
"Verbranntes Haus","iwgr","31. March","30. April",,,"Kultur Aktiv, Galerie NEUE OSTEN","Bautzner Straße 49",,"Dresden","Ausstellung über Flucht aus Tschetschenien im Fokus: Tschetschenische Familien in Berlin und Dresden.","http://internationale-wochen-gegen-rassismus.de/event/yohannes-kein-spaziergang-ein-fotoprojekt-von-inge-jann-copy-copy-copy-2-copy-2-copy-copy-copy-copy-3-copy-copy/","2","http://about.afeefa.de/wp-content/uploads/2017/03/IWgR_Header_5-2.png","image","51.063211","13.755891"
"Wie im Traum","iwgr","1. April","23. April",,,"Kultur Aktiv, Galerie NEUE OSTEN","Bautzner Straße 49",,"Dresden","Fotografien, Grafiken, Collagen und Texte aus künstlerischen Projekten mit Geflüchteten.","http://internationale-wochen-gegen-rassismus.de/event/yohannes-kein-spaziergang-ein-fotoprojekt-von-inge-jann-copy-copy-copy-2-copy-2-copy-copy-copy-copy-3-copy-copy-copy/","2","http://about.afeefa.de/wp-content/uploads/2017/03/IWgR_Header_5-2.png","image","51.063211","13.755891"
"Yohannes. Kein Spaziergang.","iwgr","4. April","1. October",,,"Bürgerbüro Dr. Eva-Maria Stange","Rudolf-Renner-Straße 51","01159","Dresden","Ein Fotoprojekt von Inge Jann. Während eines Spaziergangs erzählt Yohannes, 20 Jahre alt, von seinen Erfahrung mit Alltagsrassismus in Dresden.","http://internationale-wochen-gegen-rassismus.de/event/extrem-radikal-orientierungslos-copy-copy-4-copy-4-copy-24-copy-5-copy-10-copy-4-copy-6-copy-2-copy-copy-2-copy-copy-copy-copy-2-copy-2/","2","http://about.afeefa.de/wp-content/uploads/2017/03/IWgR_Header_5-2.png","image","51.043802","13.694276"
"Rechte Gewalt in Sachsen","iwgr","5. April","6. April",,,"Neues Rathaus Dresden","Rathausplatz 1","01067","Dresden","Ausstellung.","http://internationale-wochen-gegen-rassismus.de/event/extrem-radikal-orientierungslos-copy-copy-4-copy-4-copy-24-copy-5-copy-10-copy-4-copy-6-copy-2-copy-copy-2-copy-copy-copy-copy-2-copy-copy/","2","http://about.afeefa.de/wp-content/uploads/2017/03/IWgR_Header_5-2.png","image","51.04817","13.741956"
"Ausstellung: „Warum wir nach Dresden gekommen sind…“","iwgr","16. March","20. March",,,"Marie-Curie-Gymnasium Dresden, Festsaalgebäude","Zirkusstraße 7","01069","Dresden","Beschreibung der Verfolgungsschicksale jüdischer Migranten aus der Sowjetunion in der Ära der Post-Perestroika. Erlebnisberichte von Zeitzeugen über nationalistischen antisemitischen Terror gegen ethnische Minderheiten, subtile Ausgrenzungen als Juden in ","http://internationale-wochen-gegen-rassismus.de/event/was-koennen-wir-gegen-rassismusursachen-tun-copy-6-copy-6-copy-copy-87/","2","http://about.afeefa.de/wp-content/uploads/2017/03/IWgR_Header_5-2.png","image","51.0505","13.74938"
,,,,,,,,,,,,,,,,
